{"type": "Feature", "properties": {"id": "embalse-colbun", "name": "Embalse Colbún", "type": "lake", "region": "maule"}, "geometry": {"type": "MultiPolygon", "coordinates": [[[[-71.269078, -35.695818], [-71.268769, -35.695267], [-71.269273, -35.694748], [-71.275113, -35.693084], [-71.276515, -35.693228], [-71.278967, -35.695376], [-71.27857, -35.69672], [-71.280209, -35.69587], [-71.277618, -35.69279], [-71.28357, -35.688122], [-71.284731, -35.686185], [-71.285804, -35.68103], [-71.286501, -35.680174], [-71.2895, -35.681947], [-71.293129, -35.682335], [-71.293767, -35.683296], [-71.293486, -35.68476], [-71.294945, -35.683801], [-71.298512, -35.684187], [-71.300717, -35.685344], [-71.301127, -35.686784], [-71.303287, -35.688527], [-71.306511, -35.690065], [-71.308705, -35.692831], [-71.305451, -35.694733], [-71.301001, -35.695221], [-71.299518, -35.694362], [-71.298263, -35.695682], [-71.29663, -35.69504], [-71.293715, -35.696036], [-71.292142, -35.695072], [-71.290266, -35.695409], [-71.286087, -35.69473], [-71.285943, -35.695387], [-71.284017, -35.696176], [-71.284532, -35.697174], [-71.287048, -35.698506], [-71.287137, -35.699089], [-71.288256, -35.698965], [-71.292412, -35.701482], [-71.300481, -35.703783], [-71.301101, -35.70511], [-71.301835, -35.705169], [-71.301878, -35.704225], [-71.302726, -35.703866], [-71.30448, -35.704467], [-71.305046, -35.706195], [-71.306591, -35.706151], [-71.306875, -35.706839], [-71.30834, -35.705842], [-71.311784, -35.705811], [-71.312009, -35.707205], [-71.310175, -35.707514], [-71.308393, -35.708769], [-71.308208, -35.710664], [-71.309069, -35.712245], [-71.309646, -35.711626], [-71.308847, -35.710505], [-71.310054, -35.708895], [-71.313951, -35.707288], [-71.314082, -35.708817], [-71.314949, -35.709172], [-71.313884, -35.710187], [-71.315051, -35.710241], [-71.316022, -35.707166], [-71.317824, -35.706735], [-71.318371, -35.704587], [-71.320482, -35.703651], [-71.322416, -35.705493], [-71.323379, -35.705487], [-71.323379, -35.706273], [-71.320442, -35.708884], [-71.32148, -35.711779], [-71.317081, -35.716056], [-71.31861, -35.715008], [-71.321316, -35.714529], [-71.323806, -35.70971], [-71.324835, -35.709721], [-71.325077, -35.70854], [-71.327952, -35.707741], [-71.327799, -35.709958], [-71.328977, -35.709738], [-71.331262, -35.707834], [-71.331364, -35.706978], [-71.329908, -35.706508], [-71.331616, -35.705404], [-71.331461, -35.704807], [-71.32932, -35.703655], [-71.328827, -35.705964], [-71.32663, -35.705312], [-71.324801, -35.700621], [-71.32417, -35.700492], [-71.323119, -35.698053], [-71.321606, -35.697604], [-71.321188, -35.694635], [-71.322432, -35.694304], [-71.322271, -35.692581], [-71.323403, -35.691662], [-71.325742, -35.690483], [-71.328548, -35.691333], [-71.3305, -35.693147], [-71.328207, -35.693705], [-71.327794, -35.694533], [-71.329626, -35.695251], [-71.329763, -35.69604], [-71.329961, -35.695269], [-71.330549, -35.695258], [-71.329583, -35.694951], [-71.32932, -35.694008], [-71.331726, -35.693835], [-71.333797, -35.694798], [-71.33403, -35.69631], [-71.333032, -35.696961], [-71.334414, -35.696693], [-71.335594, -35.698323], [-71.333724, -35.698432], [-71.335028, -35.699163], [-71.33602, -35.70157], [-71.335052, -35.703104], [-71.335318, -35.704067], [-71.336511, -35.703328], [-71.343139, -35.702045], [-71.345832, -35.699192], [-71.345051, -35.698024], [-71.342415, -35.699939], [-71.339545, -35.700165], [-71.338769, -35.699712], [-71.337683, -35.697778], [-71.340113, -35.6968], [-71.338807, -35.69648], [-71.337096, -35.694833], [-71.33801, -35.693315], [-71.339939, -35.694045], [-71.339231, -35.693459], [-71.340051, -35.693002], [-71.33793, -35.692197], [-71.337777, -35.691524], [-71.338853, -35.690912], [-71.338029, -35.690888], [-71.338179, -35.689594], [-71.336659, -35.686775], [-71.337013, -35.685947], [-71.338772, -35.685355], [-71.339461, -35.683679], [-71.342066, -35.680699], [-71.347146, -35.677222], [-71.344893, -35.672892], [-71.344343, -35.672981], [-71.344623, -35.672507], [-71.342031, -35.671686], [-71.340384, -35.672923], [-71.339158, -35.672236], [-71.338512, -35.673505], [-71.336179, -35.67362], [-71.333118, -35.675169], [-71.331917, -35.673701], [-71.327904, -35.672084], [-71.325715, -35.668136], [-71.325147, -35.668484], [-71.325093, -35.669831], [-71.324508, -35.669966], [-71.324707, -35.667399], [-71.323612, -35.665516], [-71.322309, -35.665486], [-71.321676, -35.664008], [-71.321198, -35.665508], [-71.320506, -35.665386], [-71.319149, -35.662234], [-71.318479, -35.664122], [-71.319063, -35.664213], [-71.319262, -35.665634], [-71.320284, -35.667266], [-71.320852, -35.667109], [-71.320984, -35.668079], [-71.318017, -35.669208], [-71.317384, -35.670851], [-71.309214, -35.671114], [-71.306393, -35.67177], [-71.303708, -35.671395], [-71.302257, -35.672128], [-71.298013, -35.671526], [-71.299239, -35.673156], [-71.295023, -35.672751], [-71.292236, -35.673165], [-71.291635, -35.672432], [-71.292027, -35.671757], [-71.290525, -35.670498], [-71.289806, -35.66817], [-71.289677, -35.666654], [-71.290648, -35.666421], [-71.289044, -35.66439], [-71.286936, -35.66563], [-71.285697, -35.665111], [-71.286796, -35.664575], [-71.28457, -35.665028], [-71.284264, -35.664553], [-71.285536, -35.66473], [-71.285638, -35.663725], [-71.287121, -35.664346], [-71.286748, -35.66391], [-71.283079, -35.663095], [-71.281909, -35.665107], [-71.283546, -35.665643], [-71.281459, -35.665558], [-71.275928, -35.663459], [-71.278267, -35.661886], [-71.278927, -35.65914], [-71.258311, -35.645666], [-71.256085, -35.648496], [-71.255651, -35.648221], [-71.254808, -35.649049], [-71.255838, -35.650087], [-71.255162, -35.649925], [-71.253972, -35.651761], [-71.252775, -35.651203], [-71.251659, -35.652048], [-71.249814, -35.653792], [-71.249889, -35.655204], [-71.248194, -35.657697], [-71.24387, -35.660352], [-71.245072, -35.66057], [-71.245276, -35.661315], [-71.243881, -35.663899], [-71.244348, -35.664531], [-71.243559, -35.667329], [-71.242105, -35.667604], [-71.242025, -35.66817], [-71.238684, -35.667968], [-71.23963, -35.669896], [-71.236367, -35.669299], [-71.23622, -35.670046], [-71.237216, -35.670299], [-71.237432, -35.671404], [-71.238497, -35.670763], [-71.24011, -35.67097], [-71.241536, -35.674129], [-71.23895, -35.67651], [-71.237137, -35.67948], [-71.230958, -35.680196], [-71.229515, -35.681702], [-71.227518, -35.682573], [-71.225185, -35.679772], [-71.221193, -35.678562], [-71.226082, -35.685228], [-71.22467, -35.686699], [-71.226313, -35.689318], [-71.225035, -35.69099], [-71.22425, -35.697114], [-71.223752, -35.698455], [-71.220133, -35.701313], [-71.219088, -35.704095], [-71.216737, -35.706534], [-71.217558, -35.707784], [-71.209272, -35.713594], [-71.209511, -35.714272], [-71.210847, -35.714321], [-71.210258, -35.715604], [-71.205169, -35.717714], [-71.20573, -35.71809], [-71.205187, -35.718967], [-71.199558, -35.721429], [-71.20001, -35.721834], [-71.19963, -35.722103], [-71.195821, -35.721662], [-71.191483, -35.723026], [-71.184765, -35.722506], [-71.178483, -35.723752], [-71.176544, -35.722704], [-71.176896, -35.724448], [-71.184035, -35.724322], [-71.186348, -35.725829], [-71.186568, -35.726282], [-71.185055, -35.727005], [-71.182196, -35.726887], [-71.18417, -35.727606], [-71.182163, -35.727841], [-71.184078, -35.728581], [-71.181418, -35.728464], [-71.183097, -35.728977], [-71.181643, -35.729513], [-71.182732, -35.729792], [-71.182383, -35.730328], [-71.185071, -35.73038], [-71.188456, -35.728729], [-71.190816, -35.729213], [-71.191224, -35.730458], [-71.193563, -35.730654], [-71.194834, -35.731987], [-71.202446, -35.729413], [-71.205547, -35.726787], [-71.208728, -35.725868], [-71.212453, -35.72336], [-71.224314, -35.721402], [-71.225465, -35.719971], [-71.227632, -35.718872], [-71.229829, -35.719039], [-71.23533, -35.722332], [-71.238458, -35.723353], [-71.238932, -35.724109], [-71.241987, -35.724773], [-71.241722, -35.724242], [-71.242741, -35.723664], [-71.241682, -35.723131], [-71.240853, -35.723658], [-71.239785, -35.720753], [-71.237299, -35.719479], [-71.23853, -35.719684], [-71.243396, -35.717872], [-71.245163, -35.714004], [-71.247094, -35.711948], [-71.247918, -35.708662], [-71.249718, -35.706386], [-71.250576, -35.70641], [-71.250922, -35.708161], [-71.252156, -35.704785], [-71.253668, -35.70342], [-71.253969, -35.701107], [-71.255771, -35.69968], [-71.255334, -35.699198], [-71.256394, -35.697495], [-71.257322, -35.697907], [-71.257005, -35.698602], [-71.257681, -35.698839], [-71.257802, -35.699678], [-71.262501, -35.699211], [-71.263968, -35.700229], [-71.263493, -35.699471], [-71.26367, -35.698684], [-71.264644, -35.698419], [-71.264405, -35.696987], [-71.266808, -35.695857], [-71.269826, -35.696657], [-71.269078, -35.695818]], [[-71.293035, -35.696569], [-71.29351, -35.696504], [-71.293035, -35.696569]], [[-71.311339, -35.705158], [-71.311108, -35.704748], [-71.311339, -35.705158]], [[-71.312798, -35.704787], [-71.312545, -35.704313], [-71.312798, -35.704787]], [[-71.257645, -35.691466], [-71.257198, -35.692284], [-71.257645, -35.691466]], [[-71.291039, -35.696077], [-71.291039, -35.696077]], [[-71.292335, -35.696226], [-71.292523, -35.696761], [-71.292335, -35.696226]], [[-71.331292, -35.692284], [-71.331147, -35.692818], [-71.331292, -35.692284]], [[-71.242387, -35.679013], [-71.240051, -35.679854], [-71.237658, -35.679876], [-71.239597, -35.676796], [-71.242873, -35.6745], [-71.24525, -35.674038], [-71.242772, -35.675167], [-71.242159, -35.676655], [-71.243154, -35.678153], [-71.246356, -35.677399], [-71.245272, -35.678591], [-71.242387, -35.679013]], [[-71.260135, -35.696009], [-71.257627, -35.694973], [-71.260752, -35.691302], [-71.261592, -35.692757], [-71.261892, -35.695591], [-71.261509, -35.696166], [-71.260135, -35.696009]], [[-71.335631, -35.691444], [-71.334953, -35.69111], [-71.335033, -35.690472], [-71.336288, -35.69076], [-71.336356, -35.691352], [-71.335631, -35.691444]]]]}}