{"type": "Feature", "properties": {"id": "embalse-el-yeso", "name": "Embalse El Yeso", "type": "lake", "region": "metropolitana"}, "geometry": {"type": "MultiPolygon", "coordinates": [[[[-70.09029, -33.657714], [-70.09007, -33.659398], [-70.087527, -33.661657], [-70.086446, -33.664646], [-70.083708, -33.664932], [-70.081959, -33.661827], [-70.082576, -33.65942], [-70.083772, -33.657866], [-70.080129, -33.657804], [-70.075704, -33.655602], [-70.073268, -33.65612], [-70.071101, -33.653977], [-70.068934, -33.652843], [-70.060372, -33.650253], [-70.058559, -33.64768], [-70.056285, -33.646055], [-70.052635, -33.645306], [-70.047015, -33.647823], [-70.043491, -33.647207], [-70.043002, -33.646792], [-70.043609, -33.6458], [-70.041543, -33.645274], [-70.043861, -33.645403], [-70.044639, -33.642813], [-70.043405, -33.642741], [-70.044445, -33.641634], [-70.043651, -33.641428], [-70.046081, -33.640303], [-70.046784, -33.639374], [-70.046655, -33.638204], [-70.047809, -33.637364], [-70.051424, -33.639521], [-70.055834, -33.640124], [-70.056869, -33.640004], [-70.058414, -33.638503], [-70.060834, -33.638195], [-70.070125, -33.641549], [-70.079459, -33.639325], [-70.080269, -33.639892], [-70.08109, -33.642406], [-70.084759, -33.644644], [-70.086658, -33.644331], [-70.088466, -33.642089], [-70.091684, -33.642004], [-70.092972, -33.642822], [-70.094148, -33.644795], [-70.095917, -33.645434], [-70.097671, -33.647944], [-70.098991, -33.652423], [-70.098814, -33.653258], [-70.096706, -33.653387], [-70.093208, -33.651173], [-70.092613, -33.651798], [-70.092945, -33.652901], [-70.095665, -33.655825], [-70.093106, -33.656884], [-70.091199, -33.656884], [-70.09029, -33.657714]]], [[[-70.09029, -33.657714], [-70.09007, -33.659398], [-70.087527, -33.661657], [-70.086446, -33.664646], [-70.083708, -33.664932], [-70.081959, -33.661827], [-70.082576, -33.65942], [-70.083772, -33.657866], [-70.080129, -33.657804], [-70.075704, -33.655602], [-70.073268, -33.65612], [-70.071101, -33.653977], [-70.068934, -33.652843], [-70.060372, -33.650253], [-70.058559, -33.64768], [-70.056285, -33.646055], [-70.052635, -33.645306], [-70.047015, -33.647823], [-70.043491, -33.647207], [-70.043002, -33.646792], [-70.043609, -33.6458], [-70.041543, -33.645274], [-70.043861, -33.645403], [-70.044639, -33.642813], [-70.043405, -33.642741], [-70.044445, -33.641634], [-70.043651, -33.641428], [-70.046081, -33.640303], [-70.046784, -33.639374], [-70.046655, -33.638204], [-70.047809, -33.637364], [-70.051424, -33.639521], [-70.055834, -33.640124], [-70.056869, -33.640004], [-70.058414, -33.638503], [-70.060834, -33.638195], [-70.070125, -33.641549], [-70.079459, -33.639325], [-70.080269, -33.639892], [-70.08109, -33.642406], [-70.084759, -33.644644], [-70.086658, -33.644331], [-70.088466, -33.642089], [-70.091684, -33.642004], [-70.092972, -33.642822], [-70.094148, -33.644795], [-70.095917, -33.645434], [-70.097671, -33.647944], [-70.098991, -33.652423], [-70.098814, -33.653258], [-70.096706, -33.653387], [-70.093208, -33.651173], [-70.092613, -33.651798], [-70.092945, -33.652901], [-70.095665, -33.655825], [-70.093106, -33.656884], [-70.091199, -33.656884], [-70.09029, -33.657714]]]]}}