{"type": "Feature", "properties": {"id": "lago-todos-los-santos", "name": "Lago Todos los Santos", "type": "lake", "region": "los-lagos"}, "geometry": {"type": "MultiPolygon", "coordinates": [[[[-72.285119, -41.175611], [-72.283822, -41.174604], [-72.284199, -41.173748], [-72.283762, -41.172576], [-72.284233, -41.169975], [-72.28635, -41.168169], [-72.285293, -41.167243], [-72.28585, -41.163735], [-72.28542, -41.162176], [-72.286021, -41.160821], [-72.285965, -41.158324], [-72.286862, -41.157823], [-72.285993, -41.156172], [-72.287112, -41.154235], [-72.285393, -41.151754], [-72.28751, -41.149894], [-72.285489, -41.149126], [-72.284997, -41.147376], [-72.287388, -41.144343], [-72.289417, -41.144094], [-72.289619, -41.14345], [-72.290837, -41.144244], [-72.292964, -41.143547], [-72.29394, -41.14429], [-72.295364, -41.144233], [-72.299821, -41.143086], [-72.30371, -41.145528], [-72.305261, -41.145781], [-72.307397, -41.144128], [-72.309915, -41.143935], [-72.310076, -41.142984], [-72.312334, -41.143199], [-72.312618, -41.14162], [-72.314472, -41.140871], [-72.316326, -41.140923], [-72.317017, -41.140191], [-72.318164, -41.140272], [-72.321593, -41.138713], [-72.325504, -41.138921], [-72.331029, -41.135644], [-72.332459, -41.134056], [-72.337852, -41.131749], [-72.343407, -41.130769], [-72.344742, -41.129764], [-72.346762, -41.12984], [-72.348898, -41.128193], [-72.352103, -41.12897], [-72.354825, -41.128448], [-72.357181, -41.129501], [-72.359917, -41.129753], [-72.360951, -41.131571], [-72.363735, -41.132234], [-72.365075, -41.13187], [-72.366455, -41.133393], [-72.372823, -41.135526], [-72.374653, -41.137061], [-72.376801, -41.136435], [-72.380132, -41.136573], [-72.381781, -41.136881], [-72.383534, -41.138272], [-72.388757, -41.1381], [-72.390033, -41.13917], [-72.391522, -41.139334], [-72.397084, -41.142017], [-72.402056, -41.140146], [-72.41108, -41.144432], [-72.411498, -41.143332], [-72.41017, -41.14223], [-72.401614, -41.138701], [-72.399996, -41.138891], [-72.398321, -41.136903], [-72.399981, -41.133829], [-72.399637, -41.132471], [-72.400174, -41.130351], [-72.399303, -41.129002], [-72.400735, -41.124247], [-72.400769, -41.120559], [-72.399602, -41.118685], [-72.400535, -41.116324], [-72.40053, -41.114106], [-72.399205, -41.111867], [-72.400284, -41.110112], [-72.399999, -41.107154], [-72.398071, -41.105379], [-72.398164, -41.103726], [-72.397188, -41.102562], [-72.397606, -41.101705], [-72.397183, -41.098309], [-72.398135, -41.097358], [-72.398025, -41.096429], [-72.395326, -41.096506], [-72.395141, -41.095103], [-72.393438, -41.092399], [-72.393629, -41.090728], [-72.396075, -41.087073], [-72.396067, -41.086229], [-72.394597, -41.085194], [-72.39428, -41.083362], [-72.389155, -41.08227], [-72.386416, -41.083209], [-72.381567, -41.080896], [-72.38037, -41.079739], [-72.374266, -41.079295], [-72.371528, -41.080345], [-72.369567, -41.081992], [-72.367201, -41.081175], [-72.365694, -41.081276], [-72.365028, -41.082319], [-72.361391, -41.082554], [-72.358044, -41.081891], [-72.357175, -41.081393], [-72.356864, -41.08014], [-72.35468, -41.078955], [-72.355034, -41.076144], [-72.35379, -41.072282], [-72.351531, -41.070709], [-72.349541, -41.067199], [-72.347503, -41.065314], [-72.347704, -41.063933], [-72.345298, -41.06261], [-72.34135, -41.062054], [-72.335293, -41.063571], [-72.329312, -41.063919], [-72.325911, -41.065423], [-72.319372, -41.064578], [-72.315638, -41.064857], [-72.30882, -41.067106], [-72.303134, -41.068084], [-72.296211, -41.071448], [-72.294154, -41.071854], [-72.289159, -41.070661], [-72.286225, -41.070608], [-72.281563, -41.071251], [-72.276856, -41.073001], [-72.275397, -41.072419], [-72.270856, -41.073564], [-72.265658, -41.072153], [-72.265338, -41.073189], [-72.263834, -41.073411], [-72.261736, -41.072817], [-72.260096, -41.0732], [-72.258127, -41.072413], [-72.257882, -41.072869], [-72.259034, -41.074615], [-72.261675, -41.075374], [-72.262667, -41.076556], [-72.262279, -41.077623], [-72.259347, -41.078121], [-72.258046, -41.080288], [-72.251048, -41.082861], [-72.247455, -41.082694], [-72.238725, -41.079156], [-72.235413, -41.076265], [-72.230436, -41.074711], [-72.228706, -41.071578], [-72.226817, -41.071513], [-72.225616, -41.07216], [-72.222811, -41.074774], [-72.221271, -41.074111], [-72.220807, -41.072732], [-72.219803, -41.072102], [-72.215773, -41.072499], [-72.216545, -41.070698], [-72.215717, -41.067822], [-72.213605, -41.070246], [-72.211037, -41.07036], [-72.212726, -41.071607], [-72.212655, -41.072937], [-72.211368, -41.074231], [-72.211092, -41.075503], [-72.21197, -41.076879], [-72.215846, -41.077044], [-72.216244, -41.077419], [-72.21431, -41.07827], [-72.215194, -41.079314], [-72.216668, -41.079729], [-72.218132, -41.078874], [-72.219404, -41.081183], [-72.217986, -41.082751], [-72.222542, -41.084807], [-72.223213, -41.085836], [-72.221205, -41.08655], [-72.217004, -41.086262], [-72.21317, -41.084065], [-72.207926, -41.085158], [-72.204673, -41.083806], [-72.202506, -41.081546], [-72.199181, -41.074809], [-72.199952, -41.06899], [-72.200271, -41.068485], [-72.201095, -41.068754], [-72.201181, -41.069821], [-72.202254, -41.069631], [-72.203167, -41.067829], [-72.201274, -41.067709], [-72.199952, -41.066013], [-72.197166, -41.068206], [-72.195307, -41.065049], [-72.19213, -41.066494], [-72.188738, -41.063295], [-72.188004, -41.061064], [-72.188365, -41.059218], [-72.187337, -41.056525], [-72.184312, -41.055175], [-72.1827, -41.05514], [-72.178336, -41.055477], [-72.177923, -41.056577], [-72.174361, -41.05555], [-72.171968, -41.053628], [-72.170981, -41.05447], [-72.167934, -41.054474], [-72.166368, -41.053596], [-72.164501, -41.051326], [-72.161824, -41.049838], [-72.160203, -41.047525], [-72.158839, -41.04692], [-72.15635, -41.047503], [-72.156641, -41.048513], [-72.154817, -41.04985], [-72.15427, -41.051735], [-72.152508, -41.053874], [-72.14906, -41.055371], [-72.147896, -41.058603], [-72.146603, -41.0591], [-72.144441, -41.058445], [-72.140815, -41.060965], [-72.139871, -41.062289], [-72.136008, -41.063618], [-72.134635, -41.065689], [-72.129852, -41.066086], [-72.127487, -41.06728], [-72.126832, -41.0699], [-72.125169, -41.072667], [-72.123906, -41.078267], [-72.121894, -41.080658], [-72.118597, -41.081251], [-72.119402, -41.082667], [-72.11909, -41.083875], [-72.116618, -41.0852], [-72.112324, -41.090164], [-72.109229, -41.091788], [-72.107325, -41.098838], [-72.107075, -41.103705], [-72.105791, -41.105609], [-72.103803, -41.106559], [-72.102902, -41.108211], [-72.100509, -41.109358], [-72.096739, -41.109641], [-72.089561, -41.111874], [-72.087044, -41.110597], [-72.085193, -41.11046], [-72.077357, -41.104616], [-72.072913, -41.103345], [-72.07111, -41.101995], [-72.070763, -41.100348], [-72.066117, -41.095591], [-72.059669, -41.090334], [-72.058361, -41.089811], [-72.056971, -41.090837], [-72.05099, -41.090024], [-72.049405, -41.087783], [-72.047392, -41.086849], [-72.040208, -41.088547], [-72.037729, -41.088477], [-72.034501, -41.089592], [-72.031027, -41.089448], [-72.026517, -41.09138], [-72.025854, -41.092993], [-72.026914, -41.094234], [-72.030036, -41.095443], [-72.03186, -41.097121], [-72.031293, -41.097929], [-72.033545, -41.100041], [-72.034305, -41.100079], [-72.035292, -41.102731], [-72.038165, -41.105467], [-72.038942, -41.107963], [-72.042133, -41.109303], [-72.041624, -41.109862], [-72.043615, -41.111257], [-72.047546, -41.112664], [-72.049865, -41.114523], [-72.054157, -41.116625], [-72.054364, -41.117919], [-72.05645, -41.118983], [-72.056386, -41.119868], [-72.059069, -41.121093], [-72.061217, -41.124049], [-72.064927, -41.126783], [-72.065438, -41.129719], [-72.0675, -41.134473], [-72.07069, -41.136416], [-72.070932, -41.137567], [-72.072412, -41.138792], [-72.073627, -41.138706], [-72.078563, -41.143164], [-72.079845, -41.146216], [-72.082989, -41.146616], [-72.089083, -41.148983], [-72.089383, -41.150591], [-72.090515, -41.151201], [-72.089753, -41.151896], [-72.094688, -41.152], [-72.094209, -41.15448], [-72.096011, -41.156225], [-72.09883, -41.157251], [-72.101237, -41.156484], [-72.09685, -41.15177], [-72.096984, -41.150999], [-72.095659, -41.149694], [-72.095917, -41.148876], [-72.091781, -41.146572], [-72.090349, -41.143526], [-72.090842, -41.140112], [-72.086213, -41.137607], [-72.086858, -41.130485], [-72.089796, -41.128766], [-72.092239, -41.128222], [-72.102206, -41.12763], [-72.103564, -41.126685], [-72.114449, -41.123719], [-72.117519, -41.124046], [-72.122721, -41.121577], [-72.122975, -41.120322], [-72.124827, -41.119769], [-72.127373, -41.117717], [-72.127459, -41.116301], [-72.129155, -41.114388], [-72.128762, -41.114024], [-72.129479, -41.110692], [-72.131014, -41.10807], [-72.13527, -41.103217], [-72.136584, -41.102525], [-72.138135, -41.099526], [-72.139015, -41.099284], [-72.139039, -41.097284], [-72.139971, -41.094896], [-72.139451, -41.093586], [-72.141556, -41.089326], [-72.140994, -41.08766], [-72.143685, -41.084686], [-72.143164, -41.082707], [-72.144748, -41.082498], [-72.144663, -41.085061], [-72.146707, -41.085461], [-72.147276, -41.081777], [-72.148655, -41.080289], [-72.150344, -41.079857], [-72.162843, -41.084175], [-72.167408, -41.090098], [-72.170724, -41.091505], [-72.170713, -41.09254], [-72.17229, -41.094893], [-72.17936, -41.098839], [-72.18429, -41.099223], [-72.191473, -41.104304], [-72.198833, -41.104902], [-72.199627, -41.104247], [-72.205056, -41.105614], [-72.210699, -41.108888], [-72.212126, -41.107885], [-72.221536, -41.108872], [-72.224153, -41.110892], [-72.228563, -41.112129], [-72.228541, -41.112857], [-72.230258, -41.113342], [-72.230295, -41.114164], [-72.234536, -41.116021], [-72.234952, -41.117452], [-72.238251, -41.11997], [-72.238605, -41.122071], [-72.245075, -41.126209], [-72.247649, -41.129086], [-72.251651, -41.130428], [-72.253196, -41.132125], [-72.258046, -41.134807], [-72.261189, -41.138096], [-72.260728, -41.141368], [-72.261264, -41.143105], [-72.259644, -41.147234], [-72.259934, -41.149698], [-72.258646, -41.153754], [-72.261093, -41.163996], [-72.260256, -41.167663], [-72.260213, -41.17187], [-72.261136, -41.173776], [-72.263086, -41.174884], [-72.264978, -41.176991], [-72.265407, -41.179667], [-72.264887, -41.181582], [-72.265464, -41.182533], [-72.265073, -41.184037], [-72.263396, -41.185843], [-72.261522, -41.186303], [-72.25787, -41.190413], [-72.25936, -41.191863], [-72.259388, -41.193584], [-72.257758, -41.194518], [-72.256898, -41.196569], [-72.255512, -41.197869], [-72.254924, -41.199972], [-72.257095, -41.205166], [-72.261068, -41.209764], [-72.261255, -41.212813], [-72.260336, -41.215151], [-72.260699, -41.216547], [-72.259934, -41.217636], [-72.260808, -41.217801], [-72.259843, -41.219228], [-72.260551, -41.223866], [-72.261525, -41.225681], [-72.261284, -41.22709], [-72.264021, -41.22711], [-72.265273, -41.228058], [-72.270172, -41.227579], [-72.274394, -41.224077], [-72.273618, -41.223266], [-72.273863, -41.222101], [-72.275331, -41.221244], [-72.274828, -41.22035], [-72.277636, -41.219796], [-72.278143, -41.218218], [-72.279074, -41.217621], [-72.280694, -41.218232], [-72.280828, -41.217668], [-72.281, -41.218339], [-72.282557, -41.218641], [-72.28644, -41.216994], [-72.289547, -41.217338], [-72.28995, -41.215951], [-72.289164, -41.214897], [-72.289449, -41.2133], [-72.28838, -41.212609], [-72.289553, -41.208277], [-72.288468, -41.206972], [-72.288353, -41.205177], [-72.289007, -41.203833], [-72.288266, -41.202716], [-72.286877, -41.202548], [-72.286184, -41.201595], [-72.285912, -41.196581], [-72.285467, -41.194886], [-72.284317, -41.194058], [-72.28499, -41.193353], [-72.28429, -41.189986], [-72.284961, -41.189137], [-72.283213, -41.183674], [-72.283254, -41.182175], [-72.284238, -41.180454], [-72.28338, -41.179937], [-72.28338, -41.179162], [-72.284839, -41.178257], [-72.284152, -41.177418], [-72.285119, -41.175611]], [[-72.304848, -41.111508], [-72.305456, -41.112029], [-72.304008, -41.113066], [-72.303971, -41.111744], [-72.304848, -41.111508]], [[-72.301566, -41.107187], [-72.303284, -41.108468], [-72.302388, -41.10897], [-72.299802, -41.10865], [-72.299218, -41.109721], [-72.298225, -41.109944], [-72.297962, -41.110578], [-72.298558, -41.110881], [-72.298048, -41.110703], [-72.295779, -41.112413], [-72.291976, -41.113108], [-72.291257, -41.112205], [-72.288542, -41.112102], [-72.287444, -41.112887], [-72.284566, -41.112987], [-72.283779, -41.113571], [-72.283091, -41.111509], [-72.281401, -41.110939], [-72.281535, -41.110135], [-72.280527, -41.109464], [-72.274331, -41.109161], [-72.272324, -41.108049], [-72.272941, -41.107435], [-72.272646, -41.106618], [-72.27366, -41.106275], [-72.276481, -41.107607], [-72.278874, -41.107724], [-72.286602, -41.107584], [-72.288391, -41.106946], [-72.295082, -41.107283], [-72.29752, -41.106378], [-72.299613, -41.107223], [-72.301566, -41.107187]], [[-72.304848, -41.111508], [-72.305456, -41.112029], [-72.304008, -41.113066], [-72.303971, -41.111744], [-72.304848, -41.111508]], [[-72.301566, -41.107187], [-72.303284, -41.108468], [-72.302388, -41.10897], [-72.299802, -41.10865], [-72.299218, -41.109721], [-72.298225, -41.109944], [-72.297962, -41.110578], [-72.298558, -41.110881], [-72.298048, -41.110703], [-72.295779, -41.112413], [-72.291976, -41.113108], [-72.291257, -41.112205], [-72.288542, -41.112102], [-72.287444, -41.112887], [-72.284566, -41.112987], [-72.283779, -41.113571], [-72.283091, -41.111509], [-72.281401, -41.110939], [-72.281535, -41.110135], [-72.280527, -41.109464], [-72.274331, -41.109161], [-72.272324, -41.108049], [-72.272941, -41.107435], [-72.272646, -41.106618], [-72.27366, -41.106275], [-72.276481, -41.107607], [-72.278874, -41.107724], [-72.286602, -41.107584], [-72.288391, -41.106946], [-72.295082, -41.107283], [-72.29752, -41.106378], [-72.299613, -41.107223], [-72.301566, -41.107187]]], [[[-72.305175, -41.112138], [-72.303879, -41.112956], [-72.30417, -41.1116], [-72.305288, -41.111667], [-72.305175, -41.112138]]]]}}