{"type": "Feature", "properties": {"id": "lago-rosselot", "name": "Lago Rosselot", "type": "lake", "region": "aysen"}, "geometry": {"type": "MultiPolygon", "coordinates": [[[[-72.367694, -44.144799], [-72.369304, -44.142867], [-72.368167, -44.14152], [-72.367437, -44.137909], [-72.368167, -44.136107], [-72.366021, -44.13191], [-72.366268, -44.130393], [-72.365205, -44.128229], [-72.365484, -44.126142], [-72.364336, -44.123377], [-72.361944, -44.120898], [-72.36116, -44.117108], [-72.358253, -44.113164], [-72.358038, -44.111138], [-72.355667, -44.107163], [-72.354841, -44.104436], [-72.346258, -44.098989], [-72.343115, -44.093411], [-72.338984, -44.08975], [-72.334274, -44.084287], [-72.333341, -44.084001], [-72.331828, -44.081134], [-72.329317, -44.079585], [-72.327493, -44.076456], [-72.327096, -44.073874], [-72.322934, -44.068686], [-72.322762, -44.066482], [-72.32155, -44.065711], [-72.32244, -44.063945], [-72.322075, -44.063066], [-72.32023, -44.062234], [-72.317848, -44.058263], [-72.316368, -44.057114], [-72.316743, -44.052858], [-72.314372, -44.047445], [-72.314168, -44.045671], [-72.317795, -44.040543], [-72.321786, -44.03927], [-72.321475, -44.03421], [-72.319876, -44.027854], [-72.320337, -44.025417], [-72.321711, -44.022909], [-72.3217, -44.018805], [-72.322805, -44.016722], [-72.321721, -44.007084], [-72.322826, -44.005178], [-72.322065, -44.003257], [-72.323642, -44.000988], [-72.324253, -43.997222], [-72.322515, -43.995763], [-72.319329, -43.995338], [-72.311937, -43.996419], [-72.309973, -43.995454], [-72.309791, -43.994412], [-72.307849, -43.992537], [-72.306669, -43.992845], [-72.306926, -43.99452], [-72.305371, -43.995632], [-72.305049, -43.99677], [-72.303128, -43.996843], [-72.302452, -43.99777], [-72.300006, -43.99824], [-72.29947, -43.999058], [-72.299781, -44.000648], [-72.302163, -44.002207], [-72.299899, -44.002925], [-72.297882, -44.002493], [-72.295092, -44.003982], [-72.294502, -44.004985], [-72.293065, -44.005348], [-72.294481, -44.005256], [-72.295951, -44.003774], [-72.297785, -44.003403], [-72.298289, -44.002701], [-72.298408, -44.003203], [-72.300446, -44.002801], [-72.300703, -44.003674], [-72.298472, -44.00541], [-72.298751, -44.008165], [-72.296122, -44.012895], [-72.29771, -44.014376], [-72.297174, -44.015256], [-72.29726, -44.019229], [-72.299159, -44.021004], [-72.300703, -44.024746], [-72.296036, -44.029158], [-72.296948, -44.030408], [-72.29462, -44.031457], [-72.296552, -44.035722], [-72.293912, -44.039794], [-72.294277, -44.040705], [-72.295328, -44.041044], [-72.297506, -44.040427], [-72.297699, -44.041445], [-72.297077, -44.042401], [-72.298118, -44.043342], [-72.301723, -44.040712], [-72.303697, -44.041923], [-72.303868, -44.042872], [-72.299711, -44.044483], [-72.303429, -44.043435], [-72.301873, -44.046072], [-72.300221, -44.046319], [-72.300789, -44.046928], [-72.300414, -44.049033], [-72.296267, -44.050319], [-72.296562, -44.054793], [-72.298654, -44.05743], [-72.298493, -44.058371], [-72.297206, -44.059073], [-72.300703, -44.061625], [-72.301669, -44.063745], [-72.302538, -44.06911], [-72.30198, -44.07032], [-72.302195, -44.072309], [-72.303225, -44.074529], [-72.305553, -44.077088], [-72.30521, -44.078244], [-72.306304, -44.079786], [-72.306594, -44.081813], [-72.308214, -44.083508], [-72.307828, -44.084734], [-72.308814, -44.089373], [-72.311196, -44.089673], [-72.312258, -44.090629], [-72.312334, -44.091839], [-72.313911, -44.092185], [-72.314715, -44.095183], [-72.318578, -44.099089], [-72.320723, -44.104051], [-72.323416, -44.107988], [-72.327493, -44.110106], [-72.332225, -44.11462], [-72.335969, -44.116931], [-72.33716, -44.118833], [-72.338523, -44.11938], [-72.342063, -44.123108], [-72.345711, -44.128722], [-72.345432, -44.130078], [-72.347513, -44.136007], [-72.347739, -44.139141], [-72.349488, -44.141581], [-72.34952, -44.144068], [-72.348629, -44.149242], [-72.345539, -44.150135], [-72.345218, -44.151158], [-72.34629, -44.151859], [-72.345861, -44.153553], [-72.346913, -44.155207], [-72.346172, -44.161496], [-72.347224, -44.162958], [-72.346891, -44.164113], [-72.345979, -44.164605], [-72.345829, -44.166375], [-72.346752, -44.167707], [-72.346215, -44.169092], [-72.343018, -44.172647], [-72.344091, -44.173886], [-72.343394, -44.174733], [-72.344917, -44.173725], [-72.346741, -44.174363], [-72.346612, -44.175064], [-72.347707, -44.174425], [-72.350968, -44.176879], [-72.353007, -44.177618], [-72.355045, -44.179988], [-72.357963, -44.179103], [-72.360174, -44.173155], [-72.360292, -44.169985], [-72.360785, -44.169554], [-72.360399, -44.167545], [-72.361869, -44.163836], [-72.362019, -44.160757], [-72.364315, -44.157286], [-72.3641, -44.149957], [-72.365806, -44.148472], [-72.365924, -44.147302], [-72.36763, -44.146362], [-72.367694, -44.144799]], [[-72.358366, -44.175687], [-72.357867, -44.178742], [-72.355801, -44.179361], [-72.355072, -44.175968], [-72.356933, -44.175891], [-72.357185, -44.177241], [-72.357223, -44.175814], [-72.358366, -44.175687]], [[-72.30051, -44.040118], [-72.299019, -44.041723], [-72.30051, -44.040118]], [[-72.315509, -44.001073], [-72.318717, -44.002362], [-72.319136, -44.00355], [-72.31787, -44.004052], [-72.316067, -44.002277], [-72.314597, -44.003157], [-72.312291, -44.001274], [-72.313567, -44.000648], [-72.315509, -44.001073]], [[-72.36468, -44.126096], [-72.36402, -44.126242], [-72.36468, -44.126096]]]]}}