{"type": "Feature", "properties": {"id": "lago-toro", "name": "Lago Toro", "type": "lake", "region": "magallanes"}, "geometry": {"type": "MultiPolygon", "coordinates": [[[[-72.954918, -51.160473], [-72.95268, -51.16034], [-72.953129, -51.160151], [-72.952692, -51.159605], [-72.950746, -51.159265], [-72.948465, -51.160008], [-72.947346, -51.161119], [-72.944101, -51.161719], [-72.943339, -51.163207], [-72.940359, -51.163774], [-72.941022, -51.1658], [-72.938391, -51.167556], [-72.938722, -51.168909], [-72.935083, -51.171244], [-72.931074, -51.175102], [-72.927429, -51.176664], [-72.919612, -51.178388], [-72.914794, -51.180171], [-72.899501, -51.187978], [-72.895188, -51.192033], [-72.889497, -51.195401], [-72.887195, -51.196016], [-72.886348, -51.197334], [-72.87527, -51.200054], [-72.873454, -51.201211], [-72.868559, -51.202655], [-72.865448, -51.204773], [-72.861384, -51.206371], [-72.857723, -51.20976], [-72.857675, -51.208839], [-72.853797, -51.211151], [-72.85348, -51.210311], [-72.854204, -51.208621], [-72.852901, -51.207804], [-72.85053, -51.209306], [-72.851425, -51.210086], [-72.850567, -51.211975], [-72.847611, -51.213255], [-72.844521, -51.213645], [-72.844623, -51.214377], [-72.843824, -51.214199], [-72.842992, -51.214935], [-72.841013, -51.21429], [-72.838497, -51.214509], [-72.838883, -51.213816], [-72.836485, -51.212187], [-72.836979, -51.210852], [-72.839693, -51.210775], [-72.842665, -51.209646], [-72.843239, -51.208779], [-72.842853, -51.206762], [-72.835482, -51.205979], [-72.833074, -51.204682], [-72.828391, -51.204319], [-72.826792, -51.202709], [-72.82367, -51.202618], [-72.822404, -51.202154], [-72.82154, -51.200964], [-72.817297, -51.199623], [-72.816535, -51.198854], [-72.816583, -51.197842], [-72.814572, -51.196642], [-72.809009, -51.195808], [-72.799069, -51.197489], [-72.795603, -51.1968], [-72.792415, -51.197911], [-72.789509, -51.200238], [-72.788259, -51.20241], [-72.786961, -51.208695], [-72.782707, -51.209004], [-72.782396, -51.209407], [-72.783088, -51.209928], [-72.781184, -51.209989], [-72.780331, -51.213064], [-72.778056, -51.215611], [-72.77675, -51.216032], [-72.776855, -51.214919], [-72.775648, -51.214361], [-72.770616, -51.215974], [-72.76847, -51.215987], [-72.765005, -51.214391], [-72.765273, -51.213601], [-72.763111, -51.212728], [-72.762548, -51.211289], [-72.761072, -51.210409], [-72.761502, -51.209639], [-72.759683, -51.20846], [-72.759635, -51.207209], [-72.757425, -51.203852], [-72.757554, -51.203126], [-72.755628, -51.201287], [-72.754351, -51.197859], [-72.749657, -51.193952], [-72.748938, -51.19207], [-72.744212, -51.189861], [-72.741433, -51.18739], [-72.737603, -51.187759], [-72.731895, -51.184959], [-72.729342, -51.180692], [-72.727486, -51.179209], [-72.724418, -51.174783], [-72.722293, -51.173794], [-72.716897, -51.173004], [-72.710781, -51.169539], [-72.713136, -51.170787], [-72.714021, -51.170478], [-72.713088, -51.169869], [-72.714788, -51.170407], [-72.716789, -51.169697], [-72.71231, -51.167175], [-72.710497, -51.16304], [-72.706259, -51.160598], [-72.703228, -51.159811], [-72.702327, -51.157856], [-72.698207, -51.15506], [-72.696233, -51.154781], [-72.695074, -51.153687], [-72.690037, -51.151544], [-72.680397, -51.15187], [-72.674512, -51.14827], [-72.66197, -51.144706], [-72.657577, -51.145349], [-72.654648, -51.144544], [-72.649316, -51.146348], [-72.644289, -51.146274], [-72.639853, -51.144241], [-72.636495, -51.14165], [-72.63047, -51.139954], [-72.625031, -51.139533], [-72.6167, -51.137594], [-72.612644, -51.137699], [-72.607151, -51.136009], [-72.604297, -51.136884], [-72.60331, -51.135864], [-72.600478, -51.136383], [-72.595017, -51.134397], [-72.592592, -51.132495], [-72.593515, -51.132501], [-72.594384, -51.130606], [-72.592887, -51.127795], [-72.593424, -51.12696], [-72.592303, -51.123132], [-72.592083, -51.119586], [-72.587893, -51.118041], [-72.580109, -51.117202], [-72.573763, -51.113734], [-72.570636, -51.114202], [-72.560164, -51.117916], [-72.555111, -51.12122], [-72.549747, -51.126243], [-72.547204, -51.129566], [-72.545283, -51.132986], [-72.544999, -51.13678], [-72.545815, -51.138836], [-72.5492, -51.138967], [-72.550251, -51.140728], [-72.552128, -51.14135], [-72.55326, -51.142579], [-72.555299, -51.142007], [-72.55642, -51.142663], [-72.556409, -51.144127], [-72.553861, -51.14835], [-72.553566, -51.150521], [-72.554398, -51.153115], [-72.558931, -51.155407], [-72.56305, -51.154279], [-72.56408, -51.155767], [-72.564397, -51.157244], [-72.563909, -51.15867], [-72.561951, -51.160635], [-72.559708, -51.16517], [-72.55856, -51.171339], [-72.558909, -51.176303], [-72.560889, -51.179669], [-72.565218, -51.180759], [-72.567991, -51.180702], [-72.569734, -51.179636], [-72.575727, -51.178052], [-72.579954, -51.177258], [-72.585425, -51.177927], [-72.589685, -51.176101], [-72.595618, -51.18434], [-72.60103, -51.185853], [-72.60206, -51.186727], [-72.600961, -51.188022], [-72.601567, -51.190295], [-72.600322, -51.191895], [-72.601358, -51.193236], [-72.603323, -51.193797], [-72.603815, -51.195334], [-72.605687, -51.195939], [-72.608203, -51.193774], [-72.609184, -51.19133], [-72.608943, -51.190503], [-72.60964, -51.190002], [-72.612135, -51.189821], [-72.6181, -51.192473], [-72.619484, -51.19253], [-72.623464, -51.191357], [-72.626297, -51.187914], [-72.631887, -51.184427], [-72.633421, -51.185204], [-72.63496, -51.184081], [-72.636656, -51.185782], [-72.639359, -51.186636], [-72.639241, -51.187134], [-72.640577, -51.186068], [-72.639504, -51.185291], [-72.638276, -51.185315], [-72.640979, -51.182729], [-72.64334, -51.184031], [-72.645443, -51.18399], [-72.645153, -51.184495], [-72.646655, -51.186078], [-72.646714, -51.188015], [-72.643586, -51.191723], [-72.643527, -51.193088], [-72.642149, -51.193811], [-72.644252, -51.196746], [-72.643458, -51.198027], [-72.643994, -51.199902], [-72.645743, -51.200608], [-72.647358, -51.199405], [-72.649868, -51.200514], [-72.650903, -51.199892], [-72.652121, -51.203129], [-72.65638, -51.206026], [-72.656343, -51.20767], [-72.661026, -51.209374], [-72.663161, -51.212603], [-72.662882, -51.213201], [-72.664513, -51.21505], [-72.663107, -51.216064], [-72.662593, -51.217781], [-72.660892, -51.21846], [-72.659653, -51.220449], [-72.659031, -51.223537], [-72.65976, -51.226416], [-72.661959, -51.22778], [-72.663408, -51.227699], [-72.66322, -51.226759], [-72.666133, -51.226863], [-72.667463, -51.228418], [-72.67025, -51.228338], [-72.671345, -51.229302], [-72.673136, -51.229255], [-72.674564, -51.241364], [-72.673794, -51.241777], [-72.674593, -51.24406], [-72.679057, -51.244889], [-72.685842, -51.243459], [-72.686057, -51.244342], [-72.68743, -51.245154], [-72.688395, -51.247559], [-72.688599, -51.249594], [-72.68743, -51.249641], [-72.686432, -51.251833], [-72.686974, -51.258138], [-72.686641, -51.260777], [-72.685869, -51.261525], [-72.686228, -51.262006], [-72.684742, -51.261908], [-72.68434, -51.262979], [-72.683567, -51.263029], [-72.682537, -51.264241], [-72.68397, -51.266164], [-72.685332, -51.266406], [-72.686089, -51.268887], [-72.68574, -51.269316], [-72.686282, -51.269752], [-72.684742, -51.271471], [-72.682419, -51.271018], [-72.68081, -51.272541], [-72.682242, -51.277179], [-72.681711, -51.277626], [-72.682108, -51.279686], [-72.681132, -51.282296], [-72.682859, -51.283806], [-72.682414, -51.28805], [-72.678487, -51.290657], [-72.678627, -51.291281], [-72.68152, -51.293526], [-72.69178, -51.297859], [-72.691914, -51.301961], [-72.692672, -51.303763], [-72.694076, -51.304641], [-72.698641, -51.306083], [-72.704245, -51.306529], [-72.706431, -51.305861], [-72.704959, -51.304096], [-72.706076, -51.304758], [-72.706536, -51.304248], [-72.709165, -51.30414], [-72.714764, -51.307143], [-72.71828, -51.310208], [-72.721157, -51.310647], [-72.7313, -51.310329], [-72.729217, -51.309365], [-72.727112, -51.309284], [-72.726794, -51.307096], [-72.718908, -51.302008], [-72.715695, -51.297262], [-72.713368, -51.297078], [-72.713742, -51.296068], [-72.712179, -51.293283], [-72.712103, -51.288824], [-72.71257, -51.288022], [-72.715581, -51.286916], [-72.716762, -51.283853], [-72.716505, -51.280827], [-72.718903, -51.275522], [-72.718109, -51.273823], [-72.718881, -51.272061], [-72.718829, -51.269925], [-72.720577, -51.268343], [-72.720178, -51.26801], [-72.720614, -51.266738], [-72.719894, -51.266366], [-72.720091, -51.264291], [-72.721323, -51.263757], [-72.722722, -51.26166], [-72.722245, -51.260327], [-72.723098, -51.259283], [-72.724981, -51.258336], [-72.728221, -51.25516], [-72.732577, -51.253173], [-72.735093, -51.253465], [-72.741725, -51.251409], [-72.744175, -51.252176], [-72.747688, -51.250084], [-72.749609, -51.249963], [-72.750408, -51.249265], [-72.759018, -51.248847], [-72.760574, -51.247481], [-72.761829, -51.247247], [-72.762403, -51.24543], [-72.764887, -51.244486], [-72.765847, -51.246058], [-72.769371, -51.247918], [-72.770712, -51.247495], [-72.771335, -51.246219], [-72.773191, -51.245836], [-72.775428, -51.246702], [-72.776928, -51.246397], [-72.779549, -51.248505], [-72.782173, -51.248613], [-72.784139, -51.249639], [-72.788184, -51.249184], [-72.790044, -51.247341], [-72.792964, -51.248005], [-72.792824, -51.249513], [-72.791486, -51.251116], [-72.795524, -51.2512], [-72.795405, -51.25181], [-72.797022, -51.252869], [-72.798259, -51.251601], [-72.798476, -51.252511], [-72.800185, -51.253191], [-72.799125, -51.25559], [-72.802298, -51.257411], [-72.79994, -51.258048], [-72.799189, -51.259041], [-72.80082, -51.260703], [-72.800192, -51.261363], [-72.800506, -51.261766], [-72.803081, -51.260646], [-72.803779, -51.259624], [-72.804736, -51.259647], [-72.805447, -51.258116], [-72.807225, -51.258514], [-72.808759, -51.256646], [-72.810038, -51.25705], [-72.81119, -51.255427], [-72.812458, -51.255573], [-72.812657, -51.257074], [-72.811294, -51.260189], [-72.809948, -51.261683], [-72.809862, -51.262895], [-72.806193, -51.266352], [-72.804337, -51.266846], [-72.803296, -51.268011], [-72.800013, -51.267292], [-72.800447, -51.268893], [-72.799802, -51.269745], [-72.798983, -51.268917], [-72.797808, -51.268994], [-72.798108, -51.267064], [-72.797422, -51.267004], [-72.798377, -51.265906], [-72.796784, -51.265929], [-72.795534, -51.268584], [-72.793779, -51.269286], [-72.794981, -51.271498], [-72.794208, -51.272246], [-72.793914, -51.271709], [-72.793254, -51.271984], [-72.793409, -51.273216], [-72.794402, -51.273004], [-72.794724, -51.274216], [-72.795855, -51.274307], [-72.795276, -51.273025], [-72.796412, -51.272365], [-72.796301, -51.273723], [-72.797899, -51.274552], [-72.798033, -51.275619], [-72.797256, -51.27622], [-72.796564, -51.274793], [-72.795228, -51.274642], [-72.794724, -51.275545], [-72.794675, -51.280401], [-72.79313, -51.282551], [-72.793431, -51.283937], [-72.79121, -51.284236], [-72.78996, -51.286413], [-72.789794, -51.289869], [-72.790545, -51.294161], [-72.792916, -51.294094], [-72.792567, -51.292207], [-72.793189, -51.291087], [-72.794032, -51.291063], [-72.794222, -51.292445], [-72.797112, -51.291865], [-72.798527, -51.295441], [-72.800185, -51.295954], [-72.801526, -51.297423], [-72.80843, -51.299107], [-72.809062, -51.298365], [-72.807357, -51.297665], [-72.808414, -51.292428], [-72.806992, -51.292174], [-72.805383, -51.292942], [-72.805232, -51.294475], [-72.804197, -51.295146], [-72.804605, -51.293455], [-72.803156, -51.2932], [-72.80586, -51.290087], [-72.807566, -51.289681], [-72.808172, -51.286175], [-72.807518, -51.285246], [-72.805039, -51.286547], [-72.805989, -51.284182], [-72.804798, -51.281635], [-72.804814, -51.280246], [-72.805662, -51.278793], [-72.809744, -51.275384], [-72.811852, -51.274195], [-72.8141, -51.274723], [-72.815698, -51.273068], [-72.817329, -51.273219], [-72.817898, -51.271424], [-72.819016, -51.270559], [-72.819786, -51.270823], [-72.819872, -51.272105], [-72.822597, -51.273233], [-72.824174, -51.272729], [-72.82677, -51.273484], [-72.827522, -51.272649], [-72.827725, -51.27036], [-72.828659, -51.270293], [-72.829914, -51.26842], [-72.830279, -51.27187], [-72.82867, -51.274931], [-72.829077, -51.276488], [-72.832245, -51.277056], [-72.835249, -51.280355], [-72.836469, -51.279756], [-72.836534, -51.278865], [-72.837438, -51.280948], [-72.838776, -51.280058], [-72.839044, -51.281865], [-72.841026, -51.282484], [-72.841424, -51.281575], [-72.843484, -51.281314], [-72.845201, -51.278321], [-72.846985, -51.277414], [-72.84707, -51.276032], [-72.846334, -51.275301], [-72.844674, -51.275781], [-72.844516, -51.274333], [-72.842574, -51.276018], [-72.840895, -51.273152], [-72.842619, -51.273357], [-72.844065, -51.267265], [-72.845632, -51.266205], [-72.846444, -51.266344], [-72.846769, -51.267487], [-72.849125, -51.267462], [-72.849246, -51.266499], [-72.846656, -51.265033], [-72.846769, -51.264214], [-72.846117, -51.26367], [-72.848319, -51.262821], [-72.848571, -51.263758], [-72.84995, -51.263013], [-72.850192, -51.26354], [-72.851125, -51.263449], [-72.85078, -51.261093], [-72.849537, -51.260821], [-72.850465, -51.259298], [-72.851585, -51.259121], [-72.853888, -51.255781], [-72.85355, -51.252793], [-72.854365, -51.251861], [-72.855263, -51.251793], [-72.855191, -51.252417], [-72.856151, -51.252837], [-72.859611, -51.252424], [-72.86055, -51.25365], [-72.863153, -51.252825], [-72.861983, -51.251514], [-72.863426, -51.250411], [-72.864654, -51.251289], [-72.868146, -51.249419], [-72.870818, -51.250131], [-72.871451, -51.248032], [-72.870584, -51.246669], [-72.871263, -51.245225], [-72.874836, -51.243613], [-72.877175, -51.241743], [-72.882019, -51.240544], [-72.882335, -51.239188], [-72.887254, -51.240023], [-72.891205, -51.239002], [-72.891819, -51.239569], [-72.893281, -51.23938], [-72.895467, -51.237639], [-72.89683, -51.237601], [-72.903171, -51.234736], [-72.90353, -51.233749], [-72.905708, -51.232745], [-72.906266, -51.231388], [-72.905451, -51.228962], [-72.905963, -51.228368], [-72.904855, -51.22737], [-72.90471, -51.226268], [-72.910019, -51.222057], [-72.918524, -51.217781], [-72.927461, -51.209753], [-72.932482, -51.207488], [-72.936789, -51.206739], [-72.934939, -51.205966], [-72.936688, -51.20321], [-72.935003, -51.200971], [-72.939343, -51.197405], [-72.944313, -51.195556], [-72.944784, -51.194369], [-72.947838, -51.193206], [-72.949869, -51.190993], [-72.947845, -51.189074], [-72.953077, -51.189569], [-72.95518, -51.19014], [-72.956104, -51.191357], [-72.957486, -51.191075], [-72.956787, -51.190586], [-72.956667, -51.189254], [-72.95269, -51.186936], [-72.954446, -51.186541], [-72.950595, -51.185421], [-72.953939, -51.182248], [-72.956487, -51.182324], [-72.957847, -51.183691], [-72.960583, -51.184865], [-72.963652, -51.184463], [-72.967059, -51.185311], [-72.962828, -51.183851], [-72.963677, -51.183541], [-72.962957, -51.183006], [-72.960717, -51.183155], [-72.957964, -51.181393], [-72.956502, -51.181268], [-72.958113, -51.180735], [-72.957404, -51.18039], [-72.959287, -51.179077], [-72.953355, -51.179727], [-72.952572, -51.180461], [-72.952987, -51.181321], [-72.952108, -51.181401], [-72.952167, -51.182037], [-72.951547, -51.182228], [-72.94923, -51.180688], [-72.950161, -51.180289], [-72.949795, -51.179446], [-72.950935, -51.178059], [-72.950785, -51.177117], [-72.951726, -51.176452], [-72.951963, -51.174833], [-72.953044, -51.174225], [-72.95491, -51.174557], [-72.954068, -51.17319], [-72.956074, -51.171216], [-72.954255, -51.170712], [-72.954672, -51.170052], [-72.953009, -51.168177], [-72.950166, -51.167507], [-72.950295, -51.166177], [-72.948886, -51.165265], [-72.951705, -51.16452], [-72.952121, -51.16318], [-72.950758, -51.162248], [-72.954723, -51.161772], [-72.954918, -51.160473]], [[-72.809578, -51.273001], [-72.808714, -51.272511], [-72.808499, -51.271612], [-72.809315, -51.271011], [-72.808821, -51.270407], [-72.809224, -51.269608], [-72.811262, -51.26891], [-72.811155, -51.267799], [-72.812029, -51.267208], [-72.813413, -51.270367], [-72.81174, -51.271457], [-72.812034, -51.273145], [-72.811536, -51.273508], [-72.811203, -51.272313], [-72.809578, -51.273001]], [[-72.803441, -51.275498], [-72.803108, -51.27436], [-72.803983, -51.273414], [-72.804138, -51.271897], [-72.805903, -51.271454], [-72.805941, -51.273055], [-72.804787, -51.273783], [-72.805141, -51.274542], [-72.804331, -51.275639], [-72.803441, -51.275498]], [[-72.803167, -51.275787], [-72.803897, -51.276099], [-72.804004, -51.277116], [-72.80262, -51.280421], [-72.801198, -51.281796], [-72.799857, -51.281672], [-72.799273, -51.280776], [-72.799729, -51.279179], [-72.801279, -51.279045], [-72.801053, -51.278072], [-72.803167, -51.275787]], [[-72.799502, -51.28383], [-72.799197, -51.282102], [-72.800978, -51.282243], [-72.800174, -51.283706], [-72.799502, -51.28383]], [[-72.696243, -51.292185], [-72.696697, -51.292839], [-72.695806, -51.293733], [-72.695407, -51.29156], [-72.696155, -51.291422], [-72.696243, -51.292185]], [[-72.62531, -51.181643], [-72.625347, -51.180913], [-72.627214, -51.180466], [-72.62722, -51.181065], [-72.62531, -51.181643]], [[-72.613095, -51.180688], [-72.612628, -51.180533], [-72.612993, -51.179985], [-72.61501, -51.17859], [-72.614597, -51.180073], [-72.613095, -51.180688]], [[-72.600457, -51.171873], [-72.599443, -51.171571], [-72.59676, -51.168483], [-72.593467, -51.169331], [-72.592614, -51.168961], [-72.59146, -51.166472], [-72.58858, -51.163515], [-72.588531, -51.162347], [-72.584943, -51.161886], [-72.582797, -51.160073], [-72.583457, -51.159249], [-72.583344, -51.157758], [-72.585678, -51.156365], [-72.588113, -51.156577], [-72.587373, -51.157385], [-72.58821, -51.16049], [-72.591375, -51.161382], [-72.592673, -51.160817], [-72.593493, -51.163252], [-72.595725, -51.163737], [-72.597624, -51.165082], [-72.600247, -51.165146], [-72.60293, -51.163703], [-72.60367, -51.163854], [-72.60374, -51.167733], [-72.604314, -51.168375], [-72.605874, -51.168258], [-72.606733, -51.169384], [-72.606261, -51.170404], [-72.600457, -51.171873]], [[-72.696375, -51.294228], [-72.697024, -51.295503], [-72.695849, -51.296595], [-72.69557, -51.294654], [-72.696375, -51.294228]], [[-72.812405, -51.26266], [-72.811965, -51.262496], [-72.812254, -51.260498], [-72.814075, -51.260176], [-72.81359, -51.262103], [-72.812405, -51.26266]], [[-72.784177, -51.21349], [-72.782841, -51.213188], [-72.783088, -51.212297], [-72.781768, -51.211336], [-72.785175, -51.211138], [-72.784301, -51.211454], [-72.784976, -51.211723], [-72.784204, -51.212176], [-72.785057, -51.212714], [-72.784177, -51.21349]], [[-72.84914, -51.214218], [-72.84848, -51.213946], [-72.850047, -51.213211], [-72.84914, -51.214218]], [[-72.948436, -51.161363], [-72.950426, -51.15979], [-72.952357, -51.160124], [-72.948436, -51.161363]], [[-72.840147, -51.276299], [-72.838401, -51.275985], [-72.837896, -51.274078], [-72.838282, -51.273161], [-72.839502, -51.273436], [-72.840373, -51.275452], [-72.840147, -51.276299]]]]}}