{"type": "Feature", "properties": {"id": "lago-caburgua", "name": "Lago Caburgua", "type": "lake", "region": "araucania"}, "geometry": {"type": "MultiPolygon", "coordinates": [[[[-71.761083, -39.144686], [-71.760748, -39.146009], [-71.762186, -39.154081], [-71.764278, -39.159495], [-71.763296, -39.16746], [-71.764026, -39.170209], [-71.765461, -39.172278], [-71.765105, -39.173818], [-71.766264, -39.17485], [-71.766236, -39.176639], [-71.76961, -39.180086], [-71.769808, -39.181976], [-71.770881, -39.183604], [-71.773499, -39.18593], [-71.775943, -39.186261], [-71.777299, -39.188231], [-71.779766, -39.188536], [-71.780384, -39.189572], [-71.783064, -39.19126], [-71.786322, -39.195439], [-71.786326, -39.197723], [-71.787195, -39.198355], [-71.794083, -39.198114], [-71.794812, -39.198595], [-71.79508, -39.200097], [-71.796064, -39.200313], [-71.803484, -39.198798], [-71.807525, -39.19689], [-71.809072, -39.192209], [-71.808575, -39.188954], [-71.810168, -39.186987], [-71.809745, -39.184977], [-71.811038, -39.18215], [-71.810034, -39.178832], [-71.809953, -39.175992], [-71.806222, -39.167107], [-71.803911, -39.165305], [-71.803706, -39.161171], [-71.802478, -39.159478], [-71.799798, -39.150662], [-71.798323, -39.14966], [-71.798567, -39.1477], [-71.797119, -39.143225], [-71.797986, -39.142192], [-71.797076, -39.138324], [-71.797659, -39.136148], [-71.795369, -39.128659], [-71.79522, -39.124777], [-71.793802, -39.122265], [-71.794838, -39.12036], [-71.794525, -39.118905], [-71.792943, -39.117151], [-71.79164, -39.112602], [-71.791403, -39.108624], [-71.792336, -39.106839], [-71.791604, -39.105511], [-71.790105, -39.10523], [-71.790561, -39.103471], [-71.78911, -39.102618], [-71.788906, -39.100353], [-71.787522, -39.099273], [-71.787803, -39.098561], [-71.786819, -39.096034], [-71.787103, -39.094464], [-71.785129, -39.092283], [-71.785086, -39.089993], [-71.783563, -39.090018], [-71.781739, -39.09282], [-71.778783, -39.090276], [-71.778107, -39.088294], [-71.775961, -39.088106], [-71.771616, -39.086449], [-71.765573, -39.079354], [-71.765404, -39.07744], [-71.763597, -39.074419], [-71.760735, -39.072313], [-71.75492, -39.072955], [-71.752769, -39.071012], [-71.7494, -39.069544], [-71.7451, -39.069192], [-71.733019, -39.065825], [-71.728658, -39.065673], [-71.726496, -39.064711], [-71.72192, -39.064711], [-71.721019, -39.065244], [-71.717768, -39.064856], [-71.715853, -39.063965], [-71.707495, -39.063286], [-71.705645, -39.063524], [-71.705301, -39.064082], [-71.707731, -39.063898], [-71.70712, -39.06454], [-71.702431, -39.065623], [-71.703343, -39.066023], [-71.703048, -39.066539], [-71.700726, -39.065544], [-71.702812, -39.067047], [-71.702195, -39.066739], [-71.701648, -39.067547], [-71.700152, -39.067268], [-71.700189, -39.067739], [-71.702448, -39.069196], [-71.707447, -39.06923], [-71.708633, -39.070475], [-71.708659, -39.071004], [-71.705328, -39.072083], [-71.712534, -39.073777], [-71.712744, -39.074654], [-71.714031, -39.07461], [-71.716253, -39.076126], [-71.718635, -39.075895], [-71.721741, -39.078369], [-71.725541, -39.078887], [-71.728221, -39.082751], [-71.730772, -39.08337], [-71.730812, -39.084848], [-71.732217, -39.086399], [-71.735533, -39.087748], [-71.735001, -39.088698], [-71.737407, -39.089772], [-71.738063, -39.092246], [-71.741479, -39.097557], [-71.741061, -39.099768], [-71.742532, -39.100492], [-71.748632, -39.106657], [-71.749724, -39.110013], [-71.749214, -39.110847], [-71.752999, -39.115143], [-71.754324, -39.119158], [-71.754954, -39.119496], [-71.756033, -39.124501], [-71.757891, -39.126203], [-71.757604, -39.129166], [-71.759227, -39.130919], [-71.760302, -39.134306], [-71.75982, -39.139056], [-71.760019, -39.14085], [-71.761498, -39.142783], [-71.761083, -39.144686]]]]}}