{"type": "Feature", "properties": {"id": "lago-fagnano", "name": "Lago Fagnano", "type": "lake", "region": "magallanes"}, "geometry": {"type": "MultiPolygon", "coordinates": [[[[-68.351734, -54.536436], [-68.347326, -54.537101], [-68.34, -54.53675], [-68.32825, -54.53875], [-68.32525, -54.5385], [-68.31575, -54.54], [-68.30575, -54.54275], [-68.295, -54.54375], [-68.29325, -54.54575], [-68.28925, -54.54525], [-68.275, -54.54825], [-68.27, -54.548], [-68.26875, -54.547], [-68.267, -54.54675], [-68.26175, -54.549], [-68.25875, -54.549], [-68.25475, -54.54775], [-68.2505, -54.54875], [-68.2445, -54.54825], [-68.24375, -54.54875], [-68.23475, -54.54925], [-68.22675, -54.55075], [-68.221, -54.551], [-68.214, -54.55025], [-68.20625, -54.55125], [-68.206, -54.552], [-68.2045, -54.5525], [-68.184261, -54.553566], [-68.16275, -54.5575], [-68.15675, -54.557], [-68.156, -54.55625], [-68.1525, -54.556], [-68.1505, -54.5565], [-68.14925, -54.55575], [-68.142, -54.5555], [-68.1325, -54.554], [-68.13, -54.55475], [-68.12875, -54.55425], [-68.12275, -54.55425], [-68.12125, -54.5555], [-68.1185, -54.55575], [-68.11625, -54.5555], [-68.11475, -54.5535], [-68.1125, -54.553], [-68.113, -54.55575], [-68.11075, -54.55275], [-68.0975, -54.55325], [-68.0965, -54.55375], [-68.0965, -54.55325], [-68.094, -54.5525], [-68.088, -54.55275], [-68.0865, -54.552], [-68.08375, -54.55275], [-68.0815, -54.5515], [-68.07925, -54.55175], [-68.07475, -54.55025], [-68.068, -54.55125], [-68.06525, -54.5505], [-68.05925, -54.5515], [-68.055, -54.5505], [-68.05375, -54.5495], [-68.04875, -54.549], [-68.04825, -54.54825], [-68.04375, -54.54825], [-68.0395, -54.54725], [-68.03525, -54.548], [-68.023518, -54.544237], [-68.01264, -54.545256], [-68.007706, -54.544172], [-67.99525, -54.543], [-67.98475, -54.54275], [-67.98275, -54.5435], [-67.97675, -54.5435], [-67.9735, -54.54425], [-67.969, -54.544], [-67.96675, -54.545], [-67.9655, -54.54475], [-67.9615, -54.54575], [-67.9565, -54.54575], [-67.933, -54.54175], [-67.92625, -54.54175], [-67.9175, -54.54275], [-67.913, -54.541], [-67.906, -54.53975], [-67.9, -54.539], [-67.8905, -54.539], [-67.8885, -54.537], [-67.887, -54.537], [-67.88525, -54.536], [-67.88125, -54.53625], [-67.877, -54.5335], [-67.87325, -54.533], [-67.866, -54.53025], [-67.8585, -54.53025], [-67.853, -54.5295], [-67.8505, -54.5285], [-67.8465, -54.5285], [-67.8435, -54.52725], [-67.83525, -54.5265], [-67.83375, -54.527], [-67.818, -54.5245], [-67.8175, -54.525], [-67.81275, -54.52525], [-67.81, -54.52475], [-67.8075, -54.52525], [-67.805, -54.5245], [-67.80025, -54.5245], [-67.7985, -54.52375], [-67.796, -54.524], [-67.79025, -54.523], [-67.786, -54.52075], [-67.7835, -54.52025], [-67.7835, -54.519], [-67.78125, -54.51825], [-67.78, -54.51625], [-67.775, -54.516], [-67.7755, -54.5155], [-67.7735, -54.514], [-67.77575, -54.511], [-67.781, -54.50825], [-67.784, -54.50575], [-67.78275, -54.5045], [-67.78075, -54.50275], [-67.775689, -54.500612], [-67.769878, -54.499208], [-67.763831, -54.498715], [-67.753924, -54.499755], [-67.75275, -54.5005], [-67.75175, -54.5025], [-67.74625, -54.504], [-67.74425, -54.5055], [-67.74425, -54.5065], [-67.74275, -54.5065], [-67.741, -54.508], [-67.74025, -54.5075], [-67.7385, -54.50825], [-67.7375, -54.5095], [-67.73475, -54.5105], [-67.73, -54.5105], [-67.72325, -54.51225], [-67.72275, -54.51325], [-67.72175, -54.51275], [-67.7175, -54.51275], [-67.7135, -54.514], [-67.71275, -54.51375], [-67.7135, -54.51325], [-67.7135, -54.5105], [-67.711, -54.51225], [-67.703, -54.51325], [-67.69775, -54.51575], [-67.69475, -54.5185], [-67.692, -54.52], [-67.68425, -54.521], [-67.678, -54.52375], [-67.6695, -54.535], [-67.66825, -54.53575], [-67.6605, -54.53775], [-67.647, -54.5375], [-67.6395, -54.54], [-67.62675, -54.54025], [-67.6235, -54.54075], [-67.62125, -54.542], [-67.61369, -54.541], [-67.606777, -54.538728], [-67.60025, -54.53625], [-67.599609, -54.534896], [-67.598214, -54.534371], [-67.587903, -54.533849], [-67.57425, -54.53525], [-67.5675, -54.53525], [-67.5655, -54.5345], [-67.55425, -54.5345], [-67.5535, -54.535], [-67.53125, -54.5345], [-67.52775, -54.5355], [-67.52375, -54.5355], [-67.5055, -54.538], [-67.495243, -54.5369], [-67.490317, -54.538097], [-67.475956, -54.537832], [-67.46525, -54.539], [-67.4465, -54.53875], [-67.4365, -54.53975], [-67.42825, -54.53925], [-67.421, -54.54025], [-67.417, -54.53975], [-67.413, -54.54025], [-67.400702, -54.539029], [-67.375359, -54.539655], [-67.363514, -54.538734], [-67.35275, -54.53675], [-67.34525, -54.5365], [-67.34275, -54.537], [-67.339, -54.536], [-67.33025, -54.53575], [-67.324852, -54.534852], [-67.321099, -54.533116], [-67.3195, -54.5335], [-67.31825, -54.53275], [-67.31125, -54.532], [-67.303231, -54.529936], [-67.294934, -54.529279], [-67.292936, -54.528231], [-67.282333, -54.526004], [-67.273045, -54.522936], [-67.260457, -54.520781], [-67.251933, -54.516839], [-67.248449, -54.516842], [-67.240676, -54.518264], [-67.233, -54.526], [-67.229231, -54.532434], [-67.22575, -54.541], [-67.2245, -54.54975], [-67.225079, -54.552459], [-67.23225, -54.5555], [-67.23825, -54.5565], [-67.24087, -54.557593], [-67.246932, -54.558183], [-67.26452, -54.565237], [-67.280566, -54.563175], [-67.283215, -54.563415], [-67.295078, -54.566805], [-67.301583, -54.567176], [-67.304489, -54.568695], [-67.311135, -54.570009], [-67.313458, -54.572412], [-67.317196, -54.573694], [-67.320284, -54.576426], [-67.328375, -54.576699], [-67.332518, -54.578379], [-67.336042, -54.581317], [-67.341666, -54.58459], [-67.346524, -54.585112], [-67.3645, -54.59025], [-67.375847, -54.597434], [-67.37959, -54.601627], [-67.397154, -54.607809], [-67.403313, -54.60889], [-67.407876, -54.607724], [-67.414126, -54.607342], [-67.432438, -54.600878], [-67.45, -54.6005], [-67.48842, -54.60619], [-67.51675, -54.60725], [-67.5275, -54.60475], [-67.530356, -54.60606], [-67.533963, -54.603789], [-67.53625, -54.6035], [-67.536762, -54.604138], [-67.541, -54.603], [-67.549218, -54.603682], [-67.554524, -54.601542], [-67.556498, -54.601721], [-67.582302, -54.598341], [-67.587898, -54.598632], [-67.614895, -54.596223], [-67.623902, -54.595228], [-67.62675, -54.594], [-67.63725, -54.594], [-67.646598, -54.592556], [-67.648508, -54.591759], [-67.65675, -54.59175], [-67.66475, -54.59], [-67.670034, -54.589688], [-67.67477, -54.590215], [-67.684254, -54.588997], [-67.700011, -54.588987], [-67.70875, -54.588], [-67.718912, -54.588799], [-67.729747, -54.588023], [-67.7375, -54.58825], [-67.7505, -54.5865], [-67.767, -54.5865], [-67.782, -54.588], [-67.794, -54.58825], [-67.79725, -54.589], [-67.809, -54.58875], [-67.8105, -54.58925], [-67.8255, -54.5895], [-67.83175, -54.591], [-67.8365, -54.59125], [-67.84075, -54.5925], [-67.84825, -54.59225], [-67.85275, -54.59375], [-67.871605, -54.593842], [-67.889171, -54.597992], [-67.894, -54.598], [-67.8965, -54.59875], [-67.92028, -54.601437], [-67.94554, -54.601556], [-67.95299, -54.599371], [-67.961921, -54.600107], [-67.978445, -54.59957], [-67.983683, -54.600423], [-67.987603, -54.599046], [-67.984033, -54.600718], [-67.98025, -54.6005], [-67.979602, -54.602074], [-67.98325, -54.60325], [-67.992103, -54.603617], [-67.993664, -54.601846], [-67.994769, -54.601628], [-67.994876, -54.600963], [-67.991653, -54.59865], [-67.989205, -54.597926], [-67.987751, -54.598819], [-67.98925, -54.5975], [-67.990773, -54.597503], [-67.995282, -54.59798], [-68.001321, -54.601287], [-68.007327, -54.601274], [-68.008257, -54.600925], [-68.008812, -54.599812], [-68.010689, -54.599113], [-68.0103, -54.599823], [-68.0091, -54.599879], [-68.008257, -54.601192], [-68.008468, -54.60199], [-68.010855, -54.602826], [-68.013862, -54.602933], [-68.015982, -54.600604], [-68.013396, -54.597893], [-68.011775, -54.598152], [-68.011, -54.599], [-68.011199, -54.598325], [-68.013604, -54.597187], [-68.016497, -54.597099], [-68.02025, -54.599], [-68.02879, -54.598182], [-68.030411, -54.599026], [-68.033546, -54.599276], [-68.03586, -54.597558], [-68.04025, -54.59825], [-68.041, -54.5975], [-68.043, -54.59825], [-68.04425, -54.5995], [-68.045, -54.59925], [-68.04775, -54.6005], [-68.05025, -54.60025], [-68.05325, -54.60125], [-68.05725, -54.60025], [-68.06225, -54.60025], [-68.06475, -54.599], [-68.06725, -54.599], [-68.07, -54.60075], [-68.079, -54.60275], [-68.0895, -54.60375], [-68.0925, -54.603], [-68.10025, -54.60425], [-68.10925, -54.60325], [-68.11075, -54.604], [-68.115571, -54.604586], [-68.125, -54.60325], [-68.1455, -54.60225], [-68.1625, -54.603], [-68.1665, -54.602], [-68.17375, -54.6015], [-68.179, -54.6025], [-68.18325, -54.59975], [-68.186, -54.6005], [-68.19125, -54.60025], [-68.1935, -54.599], [-68.2, -54.59775], [-68.20275, -54.598], [-68.2045, -54.59925], [-68.20775, -54.59875], [-68.20925, -54.5995], [-68.2165, -54.6005], [-68.231, -54.60025], [-68.23625, -54.599], [-68.24425, -54.59825], [-68.24875, -54.6], [-68.25675, -54.60075], [-68.262, -54.59925], [-68.26375, -54.597], [-68.26375, -54.59525], [-68.26825, -54.59575], [-68.2705, -54.595], [-68.27, -54.594], [-68.267, -54.593], [-68.265, -54.59375], [-68.2605, -54.59375], [-68.26375, -54.59275], [-68.268, -54.59225], [-68.2715, -54.594], [-68.2755, -54.59425], [-68.27675, -54.593], [-68.28575, -54.59275], [-68.3025, -54.5905], [-68.3035, -54.59125], [-68.309, -54.59125], [-68.30975, -54.59175], [-68.30825, -54.59175], [-68.309, -54.59275], [-68.314598, -54.592108], [-68.313289, -54.593046], [-68.316915, -54.592692], [-68.321239, -54.593426], [-68.319758, -54.594389], [-68.320456, -54.594433], [-68.319801, -54.595079], [-68.312334, -54.596148], [-68.308836, -54.597435], [-68.306551, -54.597528], [-68.305746, -54.598298], [-68.307313, -54.601126], [-68.310059, -54.602114], [-68.315059, -54.602326], [-68.320316, -54.600716], [-68.320391, -54.598752], [-68.321, -54.59825], [-68.322167, -54.598382], [-68.321657, -54.599632], [-68.32449, -54.599654], [-68.327874, -54.598463], [-68.329151, -54.597372], [-68.32737, -54.596689], [-68.329366, -54.595859], [-68.329055, -54.594914], [-68.32774, -54.594414], [-68.327676, -54.593062], [-68.323449, -54.592627], [-68.321512, -54.591542], [-68.323626, -54.590628], [-68.321947, -54.589531], [-68.322022, -54.588779], [-68.327488, -54.588639], [-68.334725, -54.587134], [-68.335685, -54.586323], [-68.338727, -54.586012], [-68.339274, -54.583715], [-68.349555, -54.581302], [-68.351923, -54.582745], [-68.356022, -54.582848], [-68.360018, -54.579664], [-68.357315, -54.578535], [-68.355265, -54.57857], [-68.355684, -54.578293], [-68.358618, -54.577674], [-68.3615, -54.5785], [-68.364208, -54.578218], [-68.365565, -54.577565], [-68.366627, -54.575656], [-68.36865, -54.574751], [-68.378729, -54.574677], [-68.38147, -54.573604], [-68.381272, -54.572935], [-68.377082, -54.572261], [-68.377726, -54.571309], [-68.387382, -54.570236], [-68.3918, -54.570283], [-68.392433, -54.571172], [-68.397177, -54.569967], [-68.397808, -54.570249], [-68.394157, -54.571303], [-68.394275, -54.572301], [-68.395643, -54.573539], [-68.404784, -54.573209], [-68.408931, -54.57408], [-68.422369, -54.57218], [-68.425405, -54.573315], [-68.426746, -54.572438], [-68.429219, -54.572258], [-68.432271, -54.57315], [-68.439884, -54.572839], [-68.441842, -54.573772], [-68.44278, -54.573436], [-68.442249, -54.574101], [-68.443081, -54.574832], [-68.446305, -54.575414], [-68.446047, -54.575977], [-68.447227, -54.57741], [-68.449057, -54.57777], [-68.453397, -54.576738], [-68.457216, -54.576667], [-68.459684, -54.575513], [-68.467183, -54.575501], [-68.466539, -54.576048], [-68.467977, -54.577858], [-68.473342, -54.577267], [-68.476367, -54.57866], [-68.472086, -54.579176], [-68.471335, -54.579916], [-68.471228, -54.581203], [-68.460521, -54.587445], [-68.459769, -54.588987], [-68.460553, -54.589994], [-68.464555, -54.590087], [-68.461744, -54.591125], [-68.4586, -54.591368], [-68.458504, -54.592624], [-68.45993, -54.593096], [-68.459061, -54.594575], [-68.472172, -54.594302], [-68.491291, -54.592617], [-68.492535, -54.593208], [-68.500582, -54.593544], [-68.502384, -54.593046], [-68.504595, -54.593351], [-68.505828, -54.592617], [-68.510646, -54.593401], [-68.510957, -54.593867], [-68.507566, -54.595085], [-68.509401, -54.595551], [-68.510377, -54.594774], [-68.510699, -54.595943], [-68.513381, -54.59667], [-68.512502, -54.597403], [-68.514036, -54.599032], [-68.513349, -54.60012], [-68.514926, -54.601164], [-68.517458, -54.601431], [-68.524845, -54.600269], [-68.5255, -54.599448], [-68.526385, -54.599939], [-68.527704, -54.598348], [-68.527608, -54.596508], [-68.526583, -54.596018], [-68.527248, -54.595225], [-68.52594, -54.594684], [-68.521825, -54.595303], [-68.52308, -54.594206], [-68.52153, -54.59428], [-68.521509, -54.593836], [-68.524352, -54.592574], [-68.523686, -54.590641], [-68.509938, -54.584299], [-68.509557, -54.583731], [-68.511879, -54.582754], [-68.510029, -54.581685], [-68.51608, -54.580438], [-68.520591, -54.580255], [-68.522093, -54.580304], [-68.523794, -54.581651], [-68.52712, -54.581644], [-68.536663, -54.580068], [-68.541936, -54.578482], [-68.542757, -54.580003], [-68.547891, -54.580233], [-68.54972, -54.581128], [-68.567176, -54.579083], [-68.568715, -54.580774], [-68.571543, -54.580503], [-68.571253, -54.581517], [-68.57291, -54.582248], [-68.57857, -54.5829], [-68.58375, -54.5825], [-68.585039, -54.58087], [-68.589224, -54.580224], [-68.592544, -54.578663], [-68.59175, -54.576931], [-68.586906, -54.576732], [-68.590951, -54.575824], [-68.591992, -54.573212], [-68.591369, -54.572426], [-68.589363, -54.572111], [-68.589352, -54.570983], [-68.588285, -54.570445], [-68.584954, -54.566209], [-68.586665, -54.565071], [-68.587507, -54.563071], [-68.592254, -54.560617], [-68.59234, -54.557217], [-68.594116, -54.556473], [-68.601664, -54.557291], [-68.606256, -54.55544], [-68.61225, -54.55625], [-68.61975, -54.5555], [-68.62225, -54.554], [-68.62925, -54.554], [-68.633, -54.556], [-68.64, -54.5565], [-68.64025, -54.55725], [-68.642, -54.55775], [-68.64325, -54.55725], [-68.6445, -54.5555], [-68.64787, -54.554709], [-68.65125, -54.55475], [-68.65325, -54.55275], [-68.65525, -54.5525], [-68.65925, -54.55325], [-68.6675, -54.55075], [-68.66875, -54.55], [-68.66824, -54.548896], [-68.668605, -54.548475], [-68.67225, -54.5475], [-68.67365, -54.54637], [-68.673331, -54.544575], [-68.672124, -54.544366], [-68.67324, -54.544056], [-68.677082, -54.544818], [-68.679968, -54.54424], [-68.682007, -54.539976], [-68.692355, -54.540045], [-68.699994, -54.538333], [-68.705041, -54.5387], [-68.709515, -54.537829], [-68.714644, -54.537844], [-68.724267, -54.536301], [-68.727116, -54.534869], [-68.739594, -54.538184], [-68.743531, -54.537648], [-68.760413, -54.538184], [-68.763884, -54.5365], [-68.764281, -54.53561], [-68.763819, -54.535096], [-68.764694, -54.534642], [-68.764994, -54.532992], [-68.764452, -54.529565], [-68.766759, -54.526763], [-68.771212, -54.526421], [-68.775, -54.52325], [-68.77825, -54.52375], [-68.78025, -54.52325], [-68.7805, -54.5225], [-68.782, -54.52175], [-68.78525, -54.5225], [-68.788, -54.52225], [-68.789, -54.5215], [-68.78875, -54.5205], [-68.7925, -54.5195], [-68.7965, -54.51575], [-68.798, -54.51575], [-68.8, -54.51475], [-68.80075, -54.513], [-68.80025, -54.5105], [-68.801, -54.50975], [-68.808034, -54.507925], [-68.811675, -54.506177], [-68.810511, -54.505766], [-68.809513, -54.504162], [-68.803725, -54.503062], [-68.796716, -54.504188], [-68.78975, -54.50375], [-68.786754, -54.504757], [-68.76775, -54.50625], [-68.756817, -54.506473], [-68.752525, -54.505988], [-68.739912, -54.510177], [-68.737507, -54.509949], [-68.736757, -54.50908], [-68.73396, -54.508213], [-68.7255, -54.50725], [-68.71975, -54.50525], [-68.71475, -54.50525], [-68.713, -54.50625], [-68.71175, -54.508], [-68.70975, -54.509], [-68.70525, -54.50925], [-68.7015, -54.5105], [-68.6975, -54.5105], [-68.69375, -54.5115], [-68.686, -54.51125], [-68.67575, -54.51475], [-68.67375, -54.5145], [-68.6685, -54.517], [-68.65625, -54.5175], [-68.65425, -54.5195], [-68.648, -54.52075], [-68.6435, -54.523], [-68.63175, -54.5245], [-68.6265, -54.5245], [-68.613097, -54.526624], [-68.609748, -54.528338], [-68.602138, -54.529865], [-68.600135, -54.52935], [-68.595275, -54.529733], [-68.593247, -54.528102], [-68.58895, -54.527775], [-68.587, -54.52825], [-68.582877, -54.527358], [-68.575407, -54.530132], [-68.56624, -54.530256], [-68.561841, -54.531235], [-68.560368, -54.527991], [-68.558166, -54.526259], [-68.555817, -54.526231], [-68.548797, -54.527984], [-68.541239, -54.527296], [-68.538793, -54.526085], [-68.533632, -54.526122], [-68.525784, -54.527012], [-68.520838, -54.526872], [-68.518354, -54.528061], [-68.509675, -54.529534], [-68.501821, -54.529061], [-68.496881, -54.529907], [-68.492809, -54.52987], [-68.490615, -54.531224], [-68.487278, -54.530984], [-68.485047, -54.532575], [-68.483303, -54.532896], [-68.478969, -54.532074], [-68.475337, -54.533767], [-68.472129, -54.530172], [-68.468932, -54.52837], [-68.442512, -54.528058], [-68.434546, -54.528497], [-68.421977, -54.530639], [-68.414483, -54.531069], [-68.413153, -54.53137], [-68.412273, -54.532485], [-68.407343, -54.533823], [-68.401254, -54.534162], [-68.399093, -54.535], [-68.393964, -54.533705], [-68.385429, -54.533982], [-68.383927, -54.532911], [-68.376997, -54.533913], [-68.366488, -54.533029], [-68.361182, -54.533926], [-68.359026, -54.53472], [-68.356955, -54.536459], [-68.354654, -54.535918], [-68.351734, -54.536436]], [[-68.313434, -54.591626], [-68.312719, -54.591679], [-68.313273, -54.592052], [-68.313434, -54.591626]], [[-68.324962, -54.594212], [-68.324721, -54.59367], [-68.320692, -54.594159], [-68.324962, -54.594212]], [[-68.324616, -54.592821], [-68.323771, -54.592785], [-68.324616, -54.592821]], [[-68.400766, -54.569829], [-68.399693, -54.569922], [-68.400766, -54.569829]], [[-68.42703, -54.562638], [-68.426462, -54.562455], [-68.42703, -54.562638]], [[-68.425427, -54.561565], [-68.42401, -54.561603], [-68.425427, -54.561565]], [[-68.464919, -54.573756], [-68.464301, -54.573793], [-68.464919, -54.573756]], [[-68.522083, -54.592832], [-68.521562, -54.593547], [-68.519658, -54.593659], [-68.520554, -54.592698], [-68.522083, -54.592832]], [[-68.310259, -54.590278], [-68.310296, -54.589684], [-68.316244, -54.589386], [-68.317393, -54.590532], [-68.316105, -54.590913], [-68.316954, -54.590214], [-68.316326, -54.589788], [-68.313935, -54.590535], [-68.310769, -54.590438], [-68.311518, -54.591649], [-68.310259, -54.590278]], [[-68.427395, -54.563715], [-68.424348, -54.563988], [-68.424071, -54.565649], [-68.420936, -54.566719], [-68.41746, -54.565882], [-68.412225, -54.566212], [-68.409864, -54.56554], [-68.413491, -54.564837], [-68.415518, -54.565235], [-68.4168, -54.564498], [-68.417541, -54.562704], [-68.41988, -54.562794], [-68.421124, -54.561768], [-68.423179, -54.56164], [-68.424144, -54.562716], [-68.426108, -54.562841], [-68.426279, -54.563466], [-68.427395, -54.563715]], [[-68.660085, -54.548692], [-68.660993, -54.548682], [-68.654468, -54.550897], [-68.653941, -54.550606], [-68.654339, -54.55001], [-68.660085, -54.548692]], [[-68.645501, -54.548416], [-68.652411, -54.547714], [-68.654192, -54.548276], [-68.652135, -54.548917], [-68.649292, -54.548406], [-68.64274, -54.549386], [-68.640212, -54.549006], [-68.632896, -54.544763], [-68.635394, -54.544332], [-68.63813, -54.544866], [-68.641015, -54.548644], [-68.645501, -54.548416]]]]}}