{"type": "Feature", "properties": {"id": "lago-gris", "name": "Lago Gris", "type": "lake", "region": "los-rios"}, "geometry": {"type": "MultiPolygon", "coordinates": [[[[-71.908271, -40.524303], [-71.911699, -40.521314], [-71.913413, -40.520848], [-71.917441, -40.520371], [-71.920317, -40.521149], [-71.92153, -40.520595], [-71.928883, -40.521555], [-71.93134, -40.518896], [-71.933337, -40.518189], [-71.933699, -40.516982], [-71.938301, -40.513452], [-71.942805, -40.512859], [-71.946091, -40.516692], [-71.94793, -40.5169], [-71.949309, -40.518144], [-71.951144, -40.521455], [-71.95396, -40.523245], [-71.95432, -40.524762], [-71.950576, -40.529046], [-71.945226, -40.532866], [-71.941819, -40.533553], [-71.938843, -40.532931], [-71.933495, -40.533526], [-71.927941, -40.531553], [-71.925206, -40.53214], [-71.923017, -40.530725], [-71.921697, -40.528833], [-71.919897, -40.528589], [-71.917788, -40.529977], [-71.917436, -40.530946], [-71.911493, -40.534564], [-71.910259, -40.53456], [-71.908569, -40.535661], [-71.905243, -40.535017], [-71.90332, -40.536729], [-71.900461, -40.536859], [-71.898664, -40.537936], [-71.891443, -40.537149], [-71.889877, -40.536097], [-71.882365, -40.534567], [-71.881208, -40.535975], [-71.877946, -40.537744], [-71.871901, -40.535], [-71.868194, -40.534829], [-71.867448, -40.533726], [-71.868543, -40.532148], [-71.870814, -40.532281], [-71.874052, -40.530615], [-71.8787, -40.533614], [-71.881414, -40.53363], [-71.881999, -40.533064], [-71.881856, -40.530811], [-71.883299, -40.526403], [-71.886043, -40.525076], [-71.885192, -40.52339], [-71.885445, -40.521482], [-71.888052, -40.519936], [-71.888309, -40.518735], [-71.889371, -40.518242], [-71.890471, -40.518287], [-71.891246, -40.519985], [-71.893546, -40.520754], [-71.894439, -40.522491], [-71.897492, -40.524403], [-71.905833, -40.525329], [-71.907603, -40.525148], [-71.908271, -40.524303]]]]}}