{"type": "Feature", "properties": {"id": "lago-calafquen", "name": "Lago Calafquén", "type": "lake", "region": "los-rios"}, "geometry": {"type": "MultiPolygon", "coordinates": [[[[-72.169715, -39.490525], [-72.164799, -39.490356], [-72.161449, -39.490996], [-72.158472, -39.492613], [-72.15496, -39.49566], [-72.154258, -39.497745], [-72.150777, -39.498829], [-72.148853, -39.49747], [-72.14943, -39.49664], [-72.148905, -39.496245], [-72.149988, -39.494935], [-72.151744, -39.495102], [-72.152533, -39.49429], [-72.151459, -39.492421], [-72.1454, -39.489461], [-72.144605, -39.487363], [-72.141262, -39.484977], [-72.139844, -39.484321], [-72.133685, -39.483739], [-72.132248, -39.484984], [-72.131935, -39.487254], [-72.130781, -39.489318], [-72.129371, -39.489491], [-72.128895, -39.490419], [-72.12742, -39.490462], [-72.126102, -39.491574], [-72.122319, -39.492107], [-72.119938, -39.4937], [-72.118397, -39.493073], [-72.117098, -39.494162], [-72.114053, -39.494053], [-72.112942, -39.495163], [-72.110838, -39.50019], [-72.110717, -39.50159], [-72.111575, -39.503304], [-72.107503, -39.508914], [-72.103105, -39.508211], [-72.101575, -39.509321], [-72.098141, -39.509216], [-72.094274, -39.510133], [-72.09164, -39.512197], [-72.091469, -39.51298], [-72.089233, -39.513684], [-72.08813, -39.5154], [-72.084687, -39.516871], [-72.080609, -39.51775], [-72.077605, -39.517326], [-72.071738, -39.5203], [-72.071052, -39.519676], [-72.069797, -39.519933], [-72.069207, -39.521216], [-72.069266, -39.524042], [-72.069547, -39.525228], [-72.071095, -39.526416], [-72.071374, -39.527665], [-72.070655, -39.528523], [-72.071674, -39.529635], [-72.07057, -39.530989], [-72.071074, -39.533761], [-72.072662, -39.535259], [-72.071266, -39.536635], [-72.069958, -39.53637], [-72.069796, -39.537992], [-72.068916, -39.538406], [-72.067573, -39.537636], [-72.067758, -39.539035], [-72.066792, -39.539399], [-72.062157, -39.538298], [-72.059269, -39.540704], [-72.059249, -39.543271], [-72.056492, -39.545127], [-72.05454, -39.546059], [-72.053324, -39.545897], [-72.053387, -39.546614], [-72.052222, -39.546571], [-72.050895, -39.54748], [-72.047695, -39.54773], [-72.047299, -39.548586], [-72.046515, -39.54869], [-72.044873, -39.548149], [-72.044015, -39.549161], [-72.041751, -39.548975], [-72.038232, -39.550352], [-72.037567, -39.549423], [-72.036269, -39.549967], [-72.034477, -39.549723], [-72.032105, -39.551212], [-72.030108, -39.551391], [-72.029658, -39.55318], [-72.026246, -39.554371], [-72.019263, -39.555156], [-72.016463, -39.557185], [-72.016169, -39.560235], [-72.011344, -39.562718], [-72.010118, -39.566467], [-72.011395, -39.570692], [-72.013684, -39.574378], [-72.017427, -39.578131], [-72.023619, -39.58166], [-72.025932, -39.580117], [-72.027775, -39.579707], [-72.026589, -39.581223], [-72.027155, -39.582546], [-72.029913, -39.583461], [-72.032118, -39.582502], [-72.033282, -39.58089], [-72.037847, -39.58034], [-72.042332, -39.57826], [-72.048962, -39.576999], [-72.051339, -39.575267], [-72.05327, -39.575126], [-72.05511, -39.573315], [-72.060657, -39.569941], [-72.062883, -39.567774], [-72.062995, -39.565748], [-72.067705, -39.563299], [-72.067888, -39.561629], [-72.071074, -39.560289], [-72.070613, -39.559044], [-72.0719, -39.5588], [-72.072185, -39.558084], [-72.079716, -39.556264], [-72.080038, -39.554391], [-72.083412, -39.553291], [-72.083434, -39.552343], [-72.084652, -39.551686], [-72.095311, -39.549729], [-72.097092, -39.550346], [-72.099339, -39.549638], [-72.100455, -39.548579], [-72.105034, -39.54891], [-72.104339, -39.547843], [-72.104505, -39.546247], [-72.100836, -39.544203], [-72.101426, -39.543764], [-72.103057, -39.544641], [-72.102725, -39.542976], [-72.103229, -39.542631], [-72.102628, -39.542101], [-72.106591, -39.540458], [-72.105059, -39.538612], [-72.104963, -39.537333], [-72.106179, -39.536523], [-72.105208, -39.535923], [-72.105535, -39.534839], [-72.107794, -39.534206], [-72.110715, -39.53469], [-72.114462, -39.532545], [-72.124043, -39.530124], [-72.125647, -39.530786], [-72.127988, -39.530664], [-72.127741, -39.531101], [-72.130351, -39.532346], [-72.129906, -39.53365], [-72.131676, -39.534014], [-72.135071, -39.536518], [-72.140987, -39.537959], [-72.139504, -39.53876], [-72.139569, -39.539843], [-72.142718, -39.542356], [-72.148716, -39.544405], [-72.165751, -39.547336], [-72.170888, -39.549304], [-72.172659, -39.550989], [-72.17802, -39.553683], [-72.193081, -39.557743], [-72.203874, -39.559537], [-72.208026, -39.559258], [-72.208996, -39.558406], [-72.209138, -39.557276], [-72.20787, -39.556693], [-72.207931, -39.555859], [-72.209323, -39.556848], [-72.210909, -39.556916], [-72.211968, -39.558215], [-72.221474, -39.563816], [-72.229529, -39.56966], [-72.23632, -39.572808], [-72.244405, -39.571804], [-72.249218, -39.569838], [-72.250329, -39.567959], [-72.248726, -39.566985], [-72.250385, -39.565305], [-72.249985, -39.563871], [-72.252335, -39.562412], [-72.252904, -39.558719], [-72.25419, -39.558267], [-72.258726, -39.559293], [-72.260147, -39.560807], [-72.261659, -39.561381], [-72.265517, -39.560841], [-72.26563, -39.561868], [-72.269759, -39.562824], [-72.273241, -39.565429], [-72.277499, -39.563928], [-72.279894, -39.562093], [-72.281875, -39.554492], [-72.281763, -39.549777], [-72.27725, -39.54889], [-72.275558, -39.547968], [-72.278333, -39.543531], [-72.278897, -39.540138], [-72.276731, -39.536467], [-72.273324, -39.533717], [-72.270865, -39.529958], [-72.271113, -39.526111], [-72.272304, -39.524497], [-72.272241, -39.527034], [-72.273031, -39.527696], [-72.273617, -39.530184], [-72.275265, -39.531733], [-72.276957, -39.530167], [-72.277814, -39.52867], [-72.277724, -39.526599], [-72.278875, -39.526043], [-72.279394, -39.524876], [-72.279707, -39.518112], [-72.274058, -39.515865], [-72.272068, -39.514114], [-72.268023, -39.512976], [-72.266597, -39.511611], [-72.265207, -39.507132], [-72.264005, -39.505986], [-72.258824, -39.502964], [-72.252375, -39.501868], [-72.246244, -39.502873], [-72.24493, -39.503821], [-72.241545, -39.503664], [-72.236443, -39.506764], [-72.225221, -39.503134], [-72.220559, -39.50284], [-72.217523, -39.501963], [-72.210249, -39.501425], [-72.204632, -39.50236], [-72.199359, -39.500005], [-72.194767, -39.496598], [-72.187187, -39.493473], [-72.184939, -39.492893], [-72.183303, -39.494357], [-72.179473, -39.492227], [-72.178438, -39.492165], [-72.177376, -39.493051], [-72.17597, -39.491295], [-72.169715, -39.490525]], [[-72.234236, -39.541277], [-72.230288, -39.54106], [-72.229191, -39.539331], [-72.229292, -39.537582], [-72.230874, -39.536723], [-72.235108, -39.537436], [-72.236347, -39.536453], [-72.237165, -39.536742], [-72.236792, -39.536248], [-72.237211, -39.536171], [-72.23899, -39.53836], [-72.240803, -39.538605], [-72.242102, -39.539608], [-72.24133, -39.540559], [-72.238607, -39.540265], [-72.237423, -39.540923], [-72.23565, -39.540665], [-72.234826, -39.541695], [-72.234236, -39.541277]], [[-72.180803, -39.54175], [-72.17917, -39.542739], [-72.178505, -39.542457], [-72.179052, -39.541766], [-72.180803, -39.54175]], [[-72.179344, -39.544195], [-72.178097, -39.543291], [-72.179492, -39.543444], [-72.179875, -39.543984], [-72.179344, -39.544195]], [[-72.17055, -39.500451], [-72.17055, -39.500451]], [[-72.169492, -39.50067], [-72.170094, -39.500901], [-72.169135, -39.501629], [-72.169492, -39.50067]], [[-72.167122, -39.500737], [-72.168102, -39.500733], [-72.168447, -39.501505], [-72.167553, -39.503657], [-72.167122, -39.500737]], [[-72.19007, -39.530441], [-72.191224, -39.531554], [-72.190285, -39.532121], [-72.187764, -39.531699], [-72.186514, -39.529928], [-72.187399, -39.529899], [-72.187238, -39.529142], [-72.188525, -39.529514], [-72.188241, -39.52992], [-72.189526, -39.530716], [-72.19007, -39.530441]], [[-72.181801, -39.530168], [-72.181801, -39.530168]], [[-72.184129, -39.532876], [-72.184129, -39.532876]], [[-72.18311, -39.533093], [-72.18311, -39.533093]], [[-72.185503, -39.531093], [-72.186356, -39.531875], [-72.185438, -39.531568], [-72.185127, -39.532313], [-72.182697, -39.532888], [-72.180975, -39.531804], [-72.180514, -39.533128], [-72.178448, -39.533823], [-72.176946, -39.533302], [-72.176834, -39.531275], [-72.177783, -39.529326], [-72.180825, -39.530182], [-72.181517, -39.53096], [-72.182322, -39.531026], [-72.183432, -39.529947], [-72.183711, -39.531051], [-72.185503, -39.531093]], [[-72.239317, -39.537387], [-72.239317, -39.537387]], [[-72.226219, -39.53379], [-72.226962, -39.534369], [-72.225704, -39.534442], [-72.224792, -39.533699], [-72.226219, -39.53379]], [[-72.180103, -39.543078], [-72.180103, -39.543078]]]]}}