{"type": "Feature", "properties": {"id": "lago-lleulleu", "name": "Lago Lleu Lleu", "type": "lake", "region": "biobio"}, "geometry": {"type": "MultiPolygon", "coordinates": [[[[-73.325122, -38.14425], [-73.322727, -38.140877], [-73.323875, -38.137299], [-73.323972, -38.13413], [-73.326418, -38.129632], [-73.330688, -38.126725], [-73.330897, -38.123522], [-73.331895, -38.122192], [-73.333016, -38.121846], [-73.338096, -38.121922], [-73.341578, -38.125193], [-73.342473, -38.124384], [-73.343696, -38.124504], [-73.343868, -38.125158], [-73.346658, -38.126002], [-73.35098, -38.125434], [-73.352238, -38.126502], [-73.357042, -38.127139], [-73.358523, -38.128999], [-73.357679, -38.130342], [-73.358161, -38.134096], [-73.359556, -38.134217], [-73.359935, -38.131961], [-73.361433, -38.130721], [-73.362053, -38.131168], [-73.35947, -38.136266], [-73.35749, -38.137196], [-73.356767, -38.139021], [-73.357335, -38.139675], [-73.358885, -38.137661], [-73.361933, -38.13618], [-73.362002, -38.135336], [-73.365635, -38.133958], [-73.365773, -38.132787], [-73.369389, -38.131788], [-73.36932, -38.131065], [-73.36994, -38.13091], [-73.37044, -38.131857], [-73.368563, -38.134096], [-73.369286, -38.136007], [-73.371783, -38.136059], [-73.371817, -38.135095], [-73.372764, -38.134871], [-73.374056, -38.135146], [-73.373867, -38.136576], [-73.372386, -38.137712], [-73.372592, -38.138659], [-73.373798, -38.139107], [-73.373402, -38.140864], [-73.374021, -38.141466], [-73.375933, -38.141604], [-73.376673, -38.139744], [-73.377446, -38.142046], [-73.381141, -38.142103], [-73.382666, -38.140347], [-73.384337, -38.140209], [-73.384664, -38.13921], [-73.383527, -38.139176], [-73.384457, -38.137781], [-73.386524, -38.138263], [-73.386885, -38.137058], [-73.385921, -38.135715], [-73.387075, -38.133252], [-73.387126, -38.131099], [-73.386455, -38.130083], [-73.387367, -38.128], [-73.387092, -38.126794], [-73.384767, -38.123591], [-73.384399, -38.121852], [-73.380149, -38.122957], [-73.379726, -38.123962], [-73.378066, -38.124314], [-73.376381, -38.123281], [-73.375861, -38.12377], [-73.374814, -38.122851], [-73.371869, -38.122799], [-73.371886, -38.120871], [-73.369837, -38.119545], [-73.369923, -38.118442], [-73.368752, -38.117099], [-73.3687, -38.115859], [-73.367323, -38.114981], [-73.368339, -38.114241], [-73.366531, -38.111227], [-73.366754, -38.109884], [-73.363241, -38.10644], [-73.36319, -38.104735], [-73.362019, -38.102737], [-73.361278, -38.102685], [-73.360917, -38.101463], [-73.361485, -38.100257], [-73.359591, -38.100361], [-73.359987, -38.099086], [-73.358482, -38.097442], [-73.357438, -38.097447], [-73.355906, -38.09864], [-73.356212, -38.103128], [-73.356866, -38.103765], [-73.355804, -38.106277], [-73.352907, -38.109637], [-73.350644, -38.110472], [-73.349367, -38.109924], [-73.348723, -38.11035], [-73.344775, -38.108767], [-73.341524, -38.109653], [-73.339534, -38.111139], [-73.334212, -38.113165], [-73.331895, -38.11162], [-73.330844, -38.109446], [-73.328735, -38.109919], [-73.328188, -38.110679], [-73.326133, -38.110346], [-73.321096, -38.111232], [-73.320265, -38.109738], [-73.316279, -38.107716], [-73.309944, -38.106842], [-73.306462, -38.104508], [-73.303619, -38.097648], [-73.304311, -38.091417], [-73.305389, -38.090078], [-73.305228, -38.088305], [-73.30643, -38.087587], [-73.306897, -38.085924], [-73.305432, -38.085327], [-73.304299, -38.085808], [-73.303641, -38.085207], [-73.299801, -38.090373], [-73.299129, -38.090511], [-73.298905, -38.09237], [-73.297183, -38.0933], [-73.297028, -38.094385], [-73.298137, -38.095585], [-73.297424, -38.098622], [-73.2977, -38.10043], [-73.296098, -38.101652], [-73.297166, -38.103237], [-73.297373, -38.105045], [-73.29572, -38.107111], [-73.2946, -38.107283], [-73.292017, -38.109298], [-73.29033, -38.10916], [-73.286231, -38.112329], [-73.283527, -38.112725], [-73.282925, -38.114413], [-73.281633, -38.115274], [-73.279171, -38.113913], [-73.280464, -38.110585], [-73.279911, -38.10675], [-73.276151, -38.105988], [-73.273923, -38.109224], [-73.274521, -38.112249], [-73.272414, -38.114116], [-73.271105, -38.117275], [-73.272548, -38.119485], [-73.273349, -38.119608], [-73.274786, -38.121309], [-73.27693, -38.120244], [-73.277728, -38.121005], [-73.279849, -38.121295], [-73.282391, -38.120928], [-73.282227, -38.121824], [-73.283283, -38.122192], [-73.286147, -38.121336], [-73.290836, -38.117673], [-73.29252, -38.117373], [-73.294119, -38.118111], [-73.297563, -38.11812], [-73.305937, -38.114857], [-73.309236, -38.115453], [-73.314546, -38.118622], [-73.318768, -38.119914], [-73.319428, -38.121927], [-73.318318, -38.123045], [-73.318511, -38.124075], [-73.316397, -38.125201], [-73.316102, -38.126467], [-73.315083, -38.127223], [-73.314713, -38.130468], [-73.31239, -38.132675], [-73.311354, -38.134746], [-73.311462, -38.137987], [-73.310405, -38.1394], [-73.311275, -38.141238], [-73.31028, -38.143788], [-73.312135, -38.14651], [-73.312112, -38.148681], [-73.314606, -38.15209], [-73.311915, -38.152065], [-73.31099, -38.153101], [-73.309248, -38.153071], [-73.308271, -38.15374], [-73.308795, -38.154291], [-73.313854, -38.154364], [-73.315606, -38.155933], [-73.314312, -38.159761], [-73.317316, -38.162313], [-73.313027, -38.163617], [-73.312836, -38.164238], [-73.313653, -38.164995], [-73.3186, -38.166093], [-73.316381, -38.167334], [-73.314709, -38.169813], [-73.314335, -38.172476], [-73.311299, -38.178514], [-73.309066, -38.179862], [-73.306347, -38.179843], [-73.304833, -38.181367], [-73.303105, -38.180702], [-73.302264, -38.181066], [-73.302409, -38.183288], [-73.303105, -38.183504], [-73.303147, -38.184275], [-73.300886, -38.186559], [-73.300026, -38.190382], [-73.297592, -38.190796], [-73.296978, -38.188339], [-73.295406, -38.188057], [-73.29495, -38.192083], [-73.296871, -38.193516], [-73.29429, -38.198436], [-73.291544, -38.199355], [-73.284194, -38.198466], [-73.2781, -38.19949], [-73.276582, -38.200009], [-73.276094, -38.200949], [-73.27382, -38.19965], [-73.272999, -38.200869], [-73.272548, -38.203702], [-73.270322, -38.205156], [-73.267672, -38.205185], [-73.265258, -38.203992], [-73.26411, -38.20438], [-73.263289, -38.206159], [-73.265773, -38.208507], [-73.26514, -38.209662], [-73.269464, -38.207588], [-73.271663, -38.208731], [-73.274345, -38.20707], [-73.275424, -38.205582], [-73.280675, -38.204933], [-73.282928, -38.203601], [-73.285927, -38.204709], [-73.287139, -38.206256], [-73.288395, -38.206593], [-73.289945, -38.205472], [-73.291555, -38.207023], [-73.292643, -38.205784], [-73.293942, -38.205889], [-73.29473, -38.208516], [-73.29546, -38.208667], [-73.296372, -38.206884], [-73.298791, -38.206543], [-73.29855, -38.205616], [-73.296887, -38.20551], [-73.29657, -38.202429], [-73.299097, -38.201999], [-73.300846, -38.198837], [-73.3018, -38.195363], [-73.304552, -38.1946], [-73.305829, -38.191535], [-73.308442, -38.190831], [-73.308189, -38.189912], [-73.306757, -38.189267], [-73.308018, -38.186387], [-73.311032, -38.184345], [-73.313161, -38.184252], [-73.313258, -38.183229], [-73.314013, -38.182764], [-73.318821, -38.182608], [-73.319972, -38.183356], [-73.322758, -38.18371], [-73.325227, -38.182671], [-73.33357, -38.181366], [-73.335843, -38.182313], [-73.335103, -38.182744], [-73.335069, -38.183571], [-73.33605, -38.184621], [-73.336894, -38.182985], [-73.33865, -38.183726], [-73.338633, -38.184948], [-73.33927, -38.185258], [-73.339298, -38.190884], [-73.339787, -38.191578], [-73.342439, -38.192267], [-73.344041, -38.193679], [-73.344488, -38.196813], [-73.346365, -38.197743], [-73.346761, -38.19931], [-73.348845, -38.199345], [-73.349689, -38.200154], [-73.349654, -38.201118], [-73.348776, -38.201394], [-73.34943, -38.202083], [-73.349155, -38.204063], [-73.351377, -38.206285], [-73.355337, -38.206887], [-73.356456, -38.208885], [-73.357645, -38.209212], [-73.357869, -38.210245], [-73.360934, -38.212553], [-73.361933, -38.218339], [-73.36102, -38.220853], [-73.361812, -38.221439], [-73.362191, -38.22397], [-73.360159, -38.226174], [-73.360899, -38.226743], [-73.363, -38.226484], [-73.363844, -38.227638], [-73.362553, -38.228447], [-73.362622, -38.229377], [-73.364275, -38.229498], [-73.364843, -38.228654], [-73.365669, -38.228775], [-73.366703, -38.227173], [-73.371335, -38.226002], [-73.3744, -38.229205], [-73.3749, -38.232064], [-73.375967, -38.233338], [-73.375606, -38.233648], [-73.378034, -38.236489], [-73.380068, -38.236399], [-73.380248, -38.234874], [-73.38103, -38.234337], [-73.382942, -38.235207], [-73.38413, -38.234884], [-73.383568, -38.233059], [-73.38219, -38.231431], [-73.380513, -38.2321], [-73.380328, -38.231331], [-73.38143, -38.229717], [-73.380066, -38.226725], [-73.384091, -38.226369], [-73.384745, -38.22545], [-73.386414, -38.225096], [-73.3874, -38.223638], [-73.386548, -38.222926], [-73.383806, -38.222905], [-73.381985, -38.221744], [-73.377729, -38.221227], [-73.377397, -38.220216], [-73.375877, -38.219678], [-73.374745, -38.217512], [-73.374831, -38.215222], [-73.372145, -38.213879], [-73.371731, -38.212139], [-73.371077, -38.211743], [-73.372093, -38.210125], [-73.370147, -38.209401], [-73.370491, -38.20823], [-73.367684, -38.206181], [-73.36808, -38.205768], [-73.366823, -38.204149], [-73.365449, -38.204266], [-73.361812, -38.202703], [-73.359491, -38.199012], [-73.357551, -38.199191], [-73.357295, -38.19792], [-73.358719, -38.197086], [-73.356577, -38.196297], [-73.356543, -38.194092], [-73.355768, -38.193765], [-73.355553, -38.192707], [-73.353707, -38.19178], [-73.354177, -38.19135], [-73.353705, -38.190545], [-73.354054, -38.189384], [-73.356628, -38.1872], [-73.355871, -38.18667], [-73.353567, -38.187104], [-73.351748, -38.18873], [-73.349381, -38.188698], [-73.349678, -38.187505], [-73.348658, -38.186612], [-73.348228, -38.183788], [-73.347106, -38.182417], [-73.347244, -38.180505], [-73.346383, -38.180006], [-73.347588, -38.178973], [-73.347312, -38.178387], [-73.34807, -38.178163], [-73.349654, -38.179644], [-73.35129, -38.179076], [-73.350395, -38.177423], [-73.349138, -38.177388], [-73.347967, -38.176062], [-73.346865, -38.176114], [-73.347708, -38.175219], [-73.346882, -38.17434], [-73.347364, -38.172326], [-73.346779, -38.171327], [-73.34838, -38.169243], [-73.348518, -38.168296], [-73.347777, -38.168175], [-73.348841, -38.166574], [-73.348471, -38.165637], [-73.347613, -38.16514], [-73.343975, -38.166171], [-73.342866, -38.165872], [-73.340409, -38.163067], [-73.339881, -38.160163], [-73.338479, -38.159221], [-73.338203, -38.157843], [-73.337204, -38.157395], [-73.33624, -38.155794], [-73.334621, -38.155484], [-73.334294, -38.154313], [-73.333191, -38.154382], [-73.333278, -38.153521], [-73.330522, -38.152815], [-73.329437, -38.149198], [-73.32713, -38.146753], [-73.326045, -38.146598], [-73.325122, -38.14425]], [[-73.322941, -38.173113], [-73.321939, -38.173787], [-73.322797, -38.176175], [-73.32431, -38.176399], [-73.324714, -38.175339], [-73.322941, -38.173113]]]]}}