{"type": "Feature", "properties": {"id": "lago-la-paloma", "name": "Lago La Paloma", "type": "lake", "region": "aysen"}, "geometry": {"type": "MultiPolygon", "coordinates": [[[[-72.087886, -45.90592], [-72.088305, -45.907812], [-72.090601, -45.908361], [-72.091185, -45.909178], [-72.093465, -45.909495], [-72.094249, -45.910615], [-72.098053, -45.912431], [-72.097743, -45.913844], [-72.099087, -45.913653], [-72.103786, -45.916378], [-72.109178, -45.917154], [-72.112128, -45.91908], [-72.112037, -45.920203], [-72.114024, -45.920075], [-72.116197, -45.921532], [-72.120349, -45.920955], [-72.123144, -45.923138], [-72.125545, -45.922923], [-72.126847, -45.924038], [-72.129436, -45.924239], [-72.131322, -45.92336], [-72.135536, -45.924078], [-72.138993, -45.923696], [-72.141265, -45.921235], [-72.141823, -45.919757], [-72.147233, -45.917257], [-72.147577, -45.916218], [-72.142164, -45.914206], [-72.14084, -45.914808], [-72.137798, -45.914777], [-72.136439, -45.913883], [-72.12914, -45.913049], [-72.126464, -45.911777], [-72.124732, -45.911547], [-72.123578, -45.912329], [-72.117473, -45.911192], [-72.112752, -45.909288], [-72.110143, -45.905911], [-72.10547, -45.904295], [-72.10067, -45.901246], [-72.099146, -45.902071], [-72.098068, -45.901739], [-72.094887, -45.898648], [-72.095134, -45.897759], [-72.09273, -45.894545], [-72.090837, -45.894541], [-72.089136, -45.893686], [-72.089549, -45.891677], [-72.085628, -45.887562], [-72.083375, -45.887051], [-72.082903, -45.885064], [-72.079598, -45.884971], [-72.07808, -45.884191], [-72.077603, -45.882297], [-72.078005, -45.880721], [-72.077271, -45.880017], [-72.071428, -45.876419], [-72.068969, -45.876796], [-72.067628, -45.878238], [-72.069181, -45.88071], [-72.071001, -45.886277], [-72.072278, -45.887025], [-72.0785, -45.894416], [-72.078449, -45.896193], [-72.083098, -45.899111], [-72.083107, -45.900965], [-72.085592, -45.902428], [-72.086109, -45.904111], [-72.087886, -45.90592]]]]}}