{"type": "Feature", "properties": {"id": "lago-pirihueico", "name": "Lago Pirihueico", "type": "lake", "region": "los-rios"}, "geometry": {"type": "MultiPolygon", "coordinates": [[[[-71.723299, -40.012213], [-71.723578, -40.013326], [-71.722897, -40.013367], [-71.724957, -40.016108], [-71.727097, -40.014929], [-71.727794, -40.015606], [-71.72604, -40.01871], [-71.726287, -40.021812], [-71.724082, -40.022093], [-71.722293, -40.024022], [-71.724469, -40.026054], [-71.727593, -40.026871], [-71.732877, -40.026998], [-71.737785, -40.025981], [-71.740443, -40.024668], [-71.744309, -40.021468], [-71.745896, -40.01824], [-71.749225, -40.015899], [-71.74878, -40.013363], [-71.751065, -40.011048], [-71.747332, -40.007695], [-71.747391, -40.006325], [-71.749874, -40.001309], [-71.749188, -40.000224], [-71.751559, -39.995001], [-71.752487, -39.99087], [-71.751618, -39.989329], [-71.752701, -39.988256], [-71.751285, -39.98572], [-71.751425, -39.984084], [-71.74937, -39.980743], [-71.750169, -39.979657], [-71.749322, -39.978021], [-71.750942, -39.975843], [-71.747965, -39.973401], [-71.748142, -39.971107], [-71.747224, -39.970404], [-71.746811, -39.967974], [-71.745551, -39.966079], [-71.745143, -39.962198], [-71.749282, -39.954701], [-71.74926, -39.95383], [-71.750317, -39.953258], [-71.750746, -39.951988], [-71.755655, -39.947744], [-71.756574, -39.94601], [-71.761161, -39.944052], [-71.760861, -39.942436], [-71.761397, -39.941626], [-71.760684, -39.940449], [-71.761675, -39.938607], [-71.760527, -39.935674], [-71.763831, -39.933539], [-71.763091, -39.932273], [-71.763466, -39.931742], [-71.7686, -39.931462], [-71.775815, -39.934383], [-71.778401, -39.933293], [-71.78126, -39.933416], [-71.785466, -39.935831], [-71.78752, -39.934991], [-71.797498, -39.933996], [-71.798255, -39.932116], [-71.799853, -39.930796], [-71.800309, -39.929047], [-71.801924, -39.928369], [-71.802511, -39.927188], [-71.801661, -39.925485], [-71.805078, -39.925345], [-71.808919, -39.923992], [-71.809895, -39.922206], [-71.812438, -39.920098], [-71.813141, -39.917621], [-71.814471, -39.916312], [-71.814364, -39.91449], [-71.815271, -39.913432], [-71.815662, -39.910457], [-71.815013, -39.909581], [-71.815534, -39.908079], [-71.814107, -39.907421], [-71.8129, -39.908602], [-71.809654, -39.907293], [-71.809933, -39.906672], [-71.809161, -39.9061], [-71.809842, -39.904902], [-71.811752, -39.904536], [-71.815984, -39.906071], [-71.817894, -39.903886], [-71.820217, -39.9031], [-71.821992, -39.901544], [-71.830023, -39.899939], [-71.834739, -39.895412], [-71.833626, -39.894632], [-71.83398, -39.893443], [-71.836005, -39.890208], [-71.838001, -39.889685], [-71.838701, -39.886742], [-71.841039, -39.882422], [-71.844483, -39.88162], [-71.847632, -39.883583], [-71.849193, -39.885205], [-71.849032, -39.886135], [-71.851192, -39.889497], [-71.852249, -39.889637], [-71.853611, -39.892053], [-71.855408, -39.8933], [-71.86356, -39.894899], [-71.868264, -39.89664], [-71.869369, -39.897623], [-71.871713, -39.897509], [-71.875472, -39.895563], [-71.880096, -39.890517], [-71.881287, -39.88783], [-71.880407, -39.886735], [-71.880541, -39.885767], [-71.880975, -39.885092], [-71.882553, -39.884751], [-71.880975, -39.883454], [-71.881432, -39.882977], [-71.881078, -39.882376], [-71.884447, -39.881528], [-71.884361, -39.880762], [-71.882044, -39.878984], [-71.88213, -39.878053], [-71.882924, -39.876975], [-71.885831, -39.877707], [-71.884318, -39.876802], [-71.883589, -39.875237], [-71.884576, -39.874356], [-71.887974, -39.874006], [-71.889745, -39.874789], [-71.888983, -39.872197], [-71.886431, -39.870167], [-71.881175, -39.870585], [-71.878257, -39.869861], [-71.876443, -39.870832], [-71.873107, -39.871005], [-71.866695, -39.877637], [-71.864375, -39.879185], [-71.859311, -39.878543], [-71.854757, -39.875266], [-71.854092, -39.873763], [-71.847729, -39.873249], [-71.845342, -39.874171], [-71.840619, -39.873817], [-71.837744, -39.874541], [-71.836719, -39.876209], [-71.834777, -39.876443], [-71.833141, -39.878782], [-71.833168, -39.88084], [-71.830716, -39.882581], [-71.830062, -39.885475], [-71.824129, -39.891513], [-71.823335, -39.893077], [-71.820647, -39.894687], [-71.819564, -39.894506], [-71.818936, -39.89565], [-71.812434, -39.897905], [-71.810707, -39.899597], [-71.807714, -39.900235], [-71.804613, -39.902424], [-71.804779, -39.903095], [-71.803143, -39.903543], [-71.80303, -39.905432], [-71.801614, -39.907136], [-71.802607, -39.910794], [-71.802134, -39.913908], [-71.798766, -39.918809], [-71.795, -39.920901], [-71.79209, -39.921501], [-71.792433, -39.922221], [-71.79077, -39.923456], [-71.790395, -39.924824], [-71.789348, -39.924484], [-71.78989, -39.924994], [-71.788005, -39.925206], [-71.786787, -39.926745], [-71.785553, -39.927185], [-71.780527, -39.926683], [-71.773494, -39.928588], [-71.76924, -39.926391], [-71.764825, -39.925568], [-71.761657, -39.927582], [-71.758629, -39.928222], [-71.756253, -39.929538], [-71.755528, -39.932485], [-71.752809, -39.933647], [-71.751076, -39.935539], [-71.751081, -39.936346], [-71.746881, -39.942717], [-71.747455, -39.94474], [-71.74628, -39.946241], [-71.743952, -39.947463], [-71.738185, -39.957127], [-71.740153, -39.960365], [-71.74, -39.961349], [-71.735024, -39.964727], [-71.73366, -39.96876], [-71.733827, -39.971743], [-71.729758, -39.977979], [-71.729683, -39.979915], [-71.728395, -39.981872], [-71.729723, -39.993319], [-71.728484, -39.99585], [-71.724388, -39.999795], [-71.72508, -40.003021], [-71.72699, -40.004488], [-71.724785, -40.008609], [-71.725911, -40.009361], [-71.728245, -40.008289], [-71.728245, -40.009361], [-71.726909, -40.010906], [-71.725268, -40.010319], [-71.723637, -40.011654], [-71.722553, -40.011687], [-71.723299, -40.012213]], [[-71.861397, -39.88057], [-71.86182, -39.880984], [-71.861008, -39.880969], [-71.860872, -39.880459], [-71.861397, -39.88057]], [[-71.757428, -39.942362], [-71.757798, -39.942596], [-71.75702, -39.943279], [-71.757428, -39.942362]]]]}}