{"type": "Feature", "properties": {"id": "lago-villarrica", "name": "Lago Villarrica", "type": "lake", "region": "araucania"}, "geometry": {"type": "MultiPolygon", "coordinates": [[[[-71.974633, -39.258466], [-71.975528, -39.252372], [-71.97685, -39.249819], [-71.974907, -39.248298], [-71.971718, -39.247488], [-71.967582, -39.244913], [-71.964617, -39.236055], [-71.967163, -39.233121], [-71.971627, -39.231525], [-71.980038, -39.231126], [-71.987248, -39.229531], [-71.989296, -39.230895], [-71.988934, -39.23205], [-71.992635, -39.229333], [-71.998749, -39.227802], [-72.000637, -39.227935], [-72.002011, -39.226738], [-72.008152, -39.225235], [-72.01121, -39.225034], [-72.01952, -39.222882], [-72.02879, -39.222749], [-72.032395, -39.221286], [-72.036171, -39.218227], [-72.041473, -39.215589], [-72.049515, -39.216225], [-72.059346, -39.212907], [-72.067807, -39.206559], [-72.070353, -39.205534], [-72.077097, -39.205073], [-72.081234, -39.206931], [-72.086738, -39.208016], [-72.088927, -39.20782], [-72.092476, -39.211045], [-72.09488, -39.211178], [-72.098747, -39.2138], [-72.102609, -39.21434], [-72.105008, -39.216498], [-72.105543, -39.216108], [-72.111016, -39.21703], [-72.120801, -39.215301], [-72.124405, -39.21437], [-72.12492, -39.213705], [-72.137108, -39.211843], [-72.14392, -39.20825], [-72.149811, -39.206789], [-72.153073, -39.207454], [-72.15605, -39.207002], [-72.158223, -39.208119], [-72.164059, -39.208784], [-72.176419, -39.206257], [-72.187233, -39.206257], [-72.188483, -39.206793], [-72.190135, -39.20961], [-72.190669, -39.212876], [-72.188559, -39.215281], [-72.186433, -39.215907], [-72.184524, -39.215581], [-72.183528, -39.21706], [-72.188372, -39.224125], [-72.191173, -39.233281], [-72.191182, -39.237509], [-72.193833, -39.241472], [-72.19468, -39.244929], [-72.195134, -39.24798], [-72.19459, -39.2493], [-72.192336, -39.250983], [-72.191868, -39.252265], [-72.192325, -39.253434], [-72.193337, -39.254687], [-72.205509, -39.25719], [-72.206207, -39.258212], [-72.210442, -39.259542], [-72.211718, -39.26088], [-72.21392, -39.260423], [-72.214631, -39.26094], [-72.216276, -39.260268], [-72.221243, -39.262478], [-72.223699, -39.265667], [-72.223629, -39.268042], [-72.222792, -39.269006], [-72.225155, -39.26997], [-72.226948, -39.271588], [-72.229409, -39.275455], [-72.22561, -39.275772], [-72.224812, -39.27652], [-72.224059, -39.275933], [-72.219686, -39.278694], [-72.219148, -39.279693], [-72.220052, -39.280514], [-72.2209, -39.280214], [-72.221891, -39.281761], [-72.221653, -39.283215], [-72.220848, -39.283838], [-72.221403, -39.284251], [-72.22036, -39.284847], [-72.219979, -39.287248], [-72.218756, -39.287398], [-72.219416, -39.288477], [-72.216296, -39.291285], [-72.215514, -39.291008], [-72.215067, -39.291613], [-72.203238, -39.289123], [-72.199784, -39.287145], [-72.198368, -39.287843], [-72.198459, -39.289173], [-72.197703, -39.290337], [-72.195157, -39.291817], [-72.190624, -39.291765], [-72.184558, -39.290068], [-72.182004, -39.290722], [-72.177874, -39.290512], [-72.162085, -39.287698], [-72.145072, -39.295023], [-72.135114, -39.295484], [-72.130272, -39.297173], [-72.129958, -39.296704], [-72.127344, -39.298493], [-72.126596, -39.299994], [-72.124062, -39.300721], [-72.118136, -39.299498], [-72.111053, -39.296451], [-72.107265, -39.292717], [-72.105849, -39.292192], [-72.098369, -39.294894], [-72.096506, -39.298398], [-72.093598, -39.300941], [-72.08738, -39.300278], [-72.081993, -39.302831], [-72.077117, -39.301416], [-72.068081, -39.300401], [-72.063728, -39.302007], [-72.059088, -39.305655], [-72.05684, -39.305911], [-72.04578, -39.302697], [-72.030787, -39.301845], [-72.02111, -39.29925], [-72.009999, -39.293233], [-72.007407, -39.289835], [-71.999124, -39.288072], [-71.996962, -39.284488], [-71.995152, -39.283369], [-71.992228, -39.283687], [-71.990169, -39.280904], [-71.987815, -39.279003], [-71.984226, -39.278169], [-71.983812, -39.279192], [-71.982255, -39.279908], [-71.980487, -39.279555], [-71.97968, -39.278056], [-71.981757, -39.274912], [-71.989307, -39.277188], [-71.992741, -39.274594], [-71.994227, -39.274663], [-71.99486, -39.273733], [-71.997017, -39.273152], [-71.996686, -39.272557], [-71.99751, -39.271806], [-72.000144, -39.272334], [-72.001307, -39.271588], [-72.001734, -39.270456], [-72.004972, -39.269983], [-72.00531, -39.268027], [-72.006609, -39.268042], [-72.007848, -39.266411], [-72.005906, -39.265016], [-72.003325, -39.264916], [-71.996099, -39.267134], [-71.991198, -39.26937], [-71.980062, -39.27214], [-71.976038, -39.26775], [-71.973308, -39.262837], [-71.972969, -39.261132], [-71.974633, -39.258466]], [[-72.151332, -39.251432], [-72.150685, -39.252019], [-72.149012, -39.25189], [-72.148073, -39.250618], [-72.149233, -39.249613], [-72.151112, -39.249893], [-72.151332, -39.251432]]]]}}