{"type": "Feature", "properties": {"id": "lago-castor", "name": "Lago Castor", "type": "lake", "region": "aysen"}, "geometry": {"type": "MultiPolygon", "coordinates": [[[[-71.803596, -45.61245], [-71.80317, -45.614019], [-71.805595, -45.615767], [-71.801121, -45.616221], [-71.799683, -45.613553], [-71.800391, -45.612219], [-71.789131, -45.605215], [-71.788241, -45.603935], [-71.785693, -45.602963], [-71.779025, -45.59763], [-71.778526, -45.596646], [-71.77189, -45.593185], [-71.768113, -45.593077], [-71.767749, -45.595562], [-71.765404, -45.598197], [-71.761547, -45.598639], [-71.749016, -45.595171], [-71.747332, -45.594203], [-71.745089, -45.594034], [-71.741441, -45.590948], [-71.743367, -45.589274], [-71.745497, -45.590524], [-71.746811, -45.590513], [-71.747873, -45.591845], [-71.752519, -45.591887], [-71.753801, -45.590775], [-71.757921, -45.590761], [-71.760861, -45.589893], [-71.765233, -45.587686], [-71.766627, -45.58632], [-71.769385, -45.585572], [-71.771944, -45.586064], [-71.776933, -45.585122], [-71.780021, -45.585463], [-71.78242, -45.587694], [-71.7844, -45.588166], [-71.784947, -45.589233], [-71.783579, -45.590272], [-71.784405, -45.590873], [-71.784389, -45.591853], [-71.783332, -45.5925], [-71.784486, -45.594297], [-71.781742, -45.594724], [-71.781613, -45.595554], [-71.786116, -45.596789], [-71.791749, -45.597239], [-71.792586, -45.598174], [-71.791513, -45.599705], [-71.794732, -45.601548], [-71.79692, -45.601319], [-71.796454, -45.60052], [-71.797591, -45.599446], [-71.79957, -45.59918], [-71.803476, -45.601803], [-71.804409, -45.603597], [-71.804205, -45.604419], [-71.805884, -45.605774], [-71.810229, -45.606574], [-71.810154, -45.607895], [-71.808033, -45.608549], [-71.805766, -45.607859], [-71.805428, -45.608621], [-71.803384, -45.60717], [-71.803143, -45.608349], [-71.802076, -45.608956], [-71.80266, -45.609403], [-71.802236, -45.609853], [-71.8042, -45.610912], [-71.803596, -45.61245]], [[-71.804634, -45.605554], [-71.804634, -45.605554]], [[-71.800013, -45.603169], [-71.799577, -45.602986], [-71.800013, -45.603169]], [[-71.800004, -45.603665], [-71.799447, -45.603413], [-71.800004, -45.603665]], [[-71.797599, -45.602124], [-71.798567, -45.603712], [-71.796821, -45.603571], [-71.797599, -45.602124]], [[-71.797371, -45.601839], [-71.797371, -45.601839]], [[-71.797097, -45.601658], [-71.797097, -45.601658]], [[-71.797509, -45.60189], [-71.797509, -45.60189]], [[-71.774213, -45.587802], [-71.77278, -45.587859], [-71.772587, -45.589064], [-71.773333, -45.589064], [-71.774213, -45.587802]]]]}}