{"type": "Feature", "properties": {"id": "lago-puyehue", "name": "Lago Puyehue", "type": "lake", "region": "los-lagos"}, "geometry": {"type": "MultiPolygon", "coordinates": [[[[-72.412923, -40.64662], [-72.411517, -40.646779], [-72.41147, -40.644844], [-72.40968, -40.639355], [-72.407806, -40.637339], [-72.403087, -40.634643], [-72.401367, -40.630903], [-72.399044, -40.628208], [-72.391475, -40.630186], [-72.384241, -40.633046], [-72.380706, -40.633463], [-72.377126, -40.635218], [-72.372521, -40.635542], [-72.364239, -40.638258], [-72.357968, -40.63823], [-72.353884, -40.640994], [-72.344174, -40.641867], [-72.343528, -40.64108], [-72.341816, -40.640944], [-72.338367, -40.64166], [-72.339026, -40.640975], [-72.338173, -40.640301], [-72.335941, -40.641805], [-72.335699, -40.642921], [-72.331686, -40.645065], [-72.330709, -40.649405], [-72.330652, -40.653286], [-72.328518, -40.658302], [-72.328842, -40.659592], [-72.327124, -40.659596], [-72.328761, -40.660873], [-72.327741, -40.661672], [-72.329391, -40.661649], [-72.332545, -40.664318], [-72.335747, -40.664609], [-72.336912, -40.663348], [-72.338222, -40.663008], [-72.341133, -40.665822], [-72.341855, -40.66836], [-72.341327, -40.668764], [-72.34173, -40.66982], [-72.340763, -40.670845], [-72.340612, -40.672815], [-72.341521, -40.674255], [-72.34055, -40.675573], [-72.33937, -40.675939], [-72.340315, -40.677136], [-72.339027, -40.678156], [-72.34027, -40.679113], [-72.340038, -40.681588], [-72.346024, -40.686356], [-72.348471, -40.687317], [-72.350046, -40.690598], [-72.352858, -40.692344], [-72.354648, -40.692441], [-72.355073, -40.693829], [-72.358117, -40.69444], [-72.360289, -40.693858], [-72.362613, -40.694137], [-72.370508, -40.697338], [-72.379043, -40.699666], [-72.379285, -40.700248], [-72.382825, -40.701605], [-72.383492, -40.703189], [-72.387259, -40.703916], [-72.388759, -40.705219], [-72.394832, -40.707365], [-72.394965, -40.709351], [-72.397989, -40.709254], [-72.398862, -40.709913], [-72.398885, -40.710779], [-72.401616, -40.711145], [-72.406782, -40.713269], [-72.40778, -40.715899], [-72.41634, -40.718602], [-72.423389, -40.718803], [-72.428099, -40.715798], [-72.427315, -40.710935], [-72.427875, -40.708506], [-72.429814, -40.704628], [-72.43055, -40.704271], [-72.433988, -40.706132], [-72.434755, -40.711801], [-72.438886, -40.716713], [-72.441937, -40.719224], [-72.442458, -40.721198], [-72.444003, -40.723426], [-72.449816, -40.725181], [-72.454509, -40.725758], [-72.460725, -40.725859], [-72.465284, -40.724515], [-72.466362, -40.723631], [-72.464705, -40.714102], [-72.468653, -40.711346], [-72.476324, -40.709435], [-72.486081, -40.709509], [-72.486148, -40.710533], [-72.484187, -40.713769], [-72.484642, -40.713965], [-72.486251, -40.712434], [-72.493152, -40.713425], [-72.494353, -40.712678], [-72.496667, -40.712472], [-72.497235, -40.712992], [-72.49648, -40.715394], [-72.49761, -40.715874], [-72.519224, -40.705286], [-72.524784, -40.701702], [-72.523972, -40.699562], [-72.526314, -40.700079], [-72.527932, -40.701177], [-72.530227, -40.700528], [-72.536514, -40.695661], [-72.540477, -40.693462], [-72.544875, -40.692605], [-72.55356, -40.68934], [-72.557514, -40.684825], [-72.560309, -40.683482], [-72.566019, -40.682771], [-72.572213, -40.680197], [-72.576251, -40.679908], [-72.580387, -40.681351], [-72.583917, -40.684048], [-72.594553, -40.682154], [-72.600385, -40.679987], [-72.603212, -40.679923], [-72.605547, -40.680886], [-72.60573, -40.680406], [-72.602045, -40.677453], [-72.604018, -40.675412], [-72.604986, -40.671987], [-72.60504, -40.666012], [-72.603785, -40.663641], [-72.601792, -40.661462], [-72.598327, -40.659733], [-72.594019, -40.655102], [-72.591208, -40.650429], [-72.589223, -40.648842], [-72.581933, -40.646005], [-72.579954, -40.644015], [-72.570748, -40.638218], [-72.56754, -40.637286], [-72.56629, -40.637355], [-72.564864, -40.639175], [-72.558292, -40.641324], [-72.554049, -40.641853], [-72.551034, -40.641483], [-72.545584, -40.643066], [-72.54096, -40.643575], [-72.538331, -40.642704], [-72.533589, -40.639598], [-72.52359, -40.638117], [-72.520419, -40.636175], [-72.514753, -40.634109], [-72.510713, -40.633723], [-72.506253, -40.635801], [-72.505698, -40.636829], [-72.50165, -40.637515], [-72.496343, -40.636892], [-72.493178, -40.633696], [-72.489518, -40.631489], [-72.483317, -40.629987], [-72.481147, -40.628504], [-72.463094, -40.624036], [-72.452712, -40.622406], [-72.442042, -40.623486], [-72.439676, -40.624439], [-72.436454, -40.627796], [-72.434398, -40.631299], [-72.42697, -40.636161], [-72.425905, -40.638661], [-72.427495, -40.640992], [-72.428062, -40.641], [-72.42756, -40.641784], [-72.429032, -40.643819], [-72.428234, -40.644499], [-72.42622, -40.644329], [-72.423519, -40.647866], [-72.421727, -40.646993], [-72.415641, -40.647937], [-72.412585, -40.647752], [-72.412923, -40.64662]], [[-72.507457, -40.710192], [-72.505443, -40.710097], [-72.506951, -40.709516], [-72.507457, -40.710192]], [[-72.442298, -40.663849], [-72.440484, -40.665661], [-72.440873, -40.666312], [-72.439219, -40.666273], [-72.438841, -40.667449], [-72.435086, -40.668503], [-72.433447, -40.669779], [-72.433456, -40.670801], [-72.432086, -40.67106], [-72.431054, -40.672683], [-72.428988, -40.67283], [-72.428841, -40.674109], [-72.426087, -40.675486], [-72.418956, -40.674945], [-72.415513, -40.673224], [-72.412907, -40.673519], [-72.412218, -40.674207], [-72.407055, -40.673322], [-72.405677, -40.672535], [-72.405481, -40.673765], [-72.404497, -40.673863], [-72.4073, -40.674896], [-72.407694, -40.675978], [-72.410005, -40.676273], [-72.410399, -40.67706], [-72.402776, -40.677945], [-72.401728, -40.677311], [-72.402676, -40.675978], [-72.402819, -40.67376], [-72.403589, -40.673625], [-72.403566, -40.671883], [-72.404896, -40.671408], [-72.404636, -40.670791], [-72.405399, -40.669938], [-72.404378, -40.667277], [-72.403273, -40.667301], [-72.402987, -40.666263], [-72.40631, -40.664941], [-72.409659, -40.661032], [-72.412187, -40.660632], [-72.414102, -40.661217], [-72.417106, -40.660862], [-72.419248, -40.661659], [-72.424481, -40.661564], [-72.429311, -40.659574], [-72.43125, -40.660192], [-72.43262, -40.660019], [-72.433056, -40.659294], [-72.434124, -40.65987], [-72.436159, -40.659551], [-72.438824, -40.660339], [-72.442298, -40.663849]], [[-72.401003, -40.667986], [-72.399602, -40.668182], [-72.398456, -40.667534], [-72.400751, -40.666998], [-72.401715, -40.667428], [-72.401003, -40.667986]], [[-72.391807, -40.684916], [-72.386293, -40.685271], [-72.382726, -40.683425], [-72.382231, -40.682741], [-72.382501, -40.680026], [-72.383747, -40.679107], [-72.385225, -40.679154], [-72.384994, -40.678307], [-72.386091, -40.676557], [-72.390285, -40.675675], [-72.391418, -40.676707], [-72.392984, -40.676536], [-72.392195, -40.677927], [-72.393282, -40.67864], [-72.392412, -40.679001], [-72.392118, -40.681091], [-72.389317, -40.681936], [-72.389405, -40.683181], [-72.391807, -40.684916]], [[-72.383754, -40.68726], [-72.381205, -40.686962], [-72.380816, -40.688069], [-72.379364, -40.687601], [-72.379259, -40.687033], [-72.380319, -40.686707], [-72.379583, -40.685234], [-72.380674, -40.683931], [-72.382694, -40.684211], [-72.38503, -40.685464], [-72.384802, -40.686774], [-72.383754, -40.68726]], [[-72.381411, -40.687655], [-72.385502, -40.688918], [-72.386281, -40.692031], [-72.3856, -40.6923], [-72.382774, -40.691108], [-72.383169, -40.690648], [-72.382167, -40.690609], [-72.381411, -40.687655]]]]}}