{"type": "Feature", "properties": {"id": "lago-pollux", "name": "Lago Pollux", "type": "lake", "region": "aysen"}, "geometry": {"type": "MultiPolygon", "coordinates": [[[[-71.883405, -45.711751], [-71.883575, -45.71117], [-71.885433, -45.712409], [-71.887085, -45.712057], [-71.886993, -45.710472], [-71.887812, -45.709519], [-71.887219, -45.707254], [-71.890009, -45.703863], [-71.888217, -45.702497], [-71.88599, -45.702204], [-71.889519, -45.701147], [-71.889309, -45.700638], [-71.890831, -45.699079], [-71.889904, -45.698104], [-71.889923, -45.696219], [-71.886096, -45.6947], [-71.886449, -45.692123], [-71.884148, -45.691612], [-71.884605, -45.690663], [-71.883564, -45.689257], [-71.881282, -45.688347], [-71.87967, -45.686792], [-71.881227, -45.684192], [-71.876968, -45.681831], [-71.87552, -45.68031], [-71.870601, -45.679189], [-71.869361, -45.678357], [-71.869356, -45.676011], [-71.870965, -45.675246], [-71.871663, -45.674054], [-71.874139, -45.673619], [-71.874819, -45.67226], [-71.874381, -45.670854], [-71.870831, -45.669595], [-71.867993, -45.670489], [-71.864916, -45.669223], [-71.862809, -45.667842], [-71.858899, -45.663332], [-71.860542, -45.658932], [-71.859848, -45.657727], [-71.852655, -45.6532], [-71.848949, -45.652396], [-71.848, -45.650228], [-71.841853, -45.647112], [-71.8363, -45.642567], [-71.833978, -45.641779], [-71.831633, -45.639829], [-71.826494, -45.638164], [-71.82467, -45.639101], [-71.824059, -45.640313], [-71.824762, -45.641843], [-71.82746, -45.643362], [-71.829592, -45.646055], [-71.83431, -45.649572], [-71.834928, -45.652287], [-71.834192, -45.655321], [-71.834834, -45.656616], [-71.836499, -45.657428], [-71.835546, -45.659196], [-71.836126, -45.661321], [-71.83835, -45.662283], [-71.840007, -45.662122], [-71.84108, -45.661151], [-71.840769, -45.660153], [-71.842827, -45.65937], [-71.845259, -45.660427], [-71.846024, -45.661771], [-71.842676, -45.661693], [-71.842228, -45.663008], [-71.84535, -45.664637], [-71.846187, -45.665886], [-71.848687, -45.666797], [-71.850747, -45.668757], [-71.850296, -45.671243], [-71.850677, -45.672866], [-71.849132, -45.672682], [-71.847491, -45.673591], [-71.846999, -45.67593], [-71.84739, -45.676683], [-71.84934, -45.676924], [-71.851499, -45.679254], [-71.858934, -45.68106], [-71.861454, -45.68224], [-71.863965, -45.684706], [-71.865397, -45.684458], [-71.866084, -45.683297], [-71.868789, -45.683129], [-71.874157, -45.687265], [-71.876636, -45.692365], [-71.87692, -45.694885], [-71.87615, -45.697849], [-71.877773, -45.701242], [-71.880056, -45.701314], [-71.878377, -45.702389], [-71.878471, -45.703531], [-71.880278, -45.704546], [-71.878229, -45.704816], [-71.878127, -45.705527], [-71.879221, -45.706071], [-71.878079, -45.706531], [-71.878138, -45.70815], [-71.880273, -45.711439], [-71.882032, -45.712054], [-71.883405, -45.711751]], [[-71.880605, -45.698499], [-71.880546, -45.697866], [-71.879205, -45.698383], [-71.880605, -45.698499]]]]}}