{"type": "Feature", "properties": {"id": "lago-rapel", "name": "Lago Rapel", "type": "lake", "region": "ohiggins"}, "geometry": {"type": "MultiPolygon", "coordinates": [[[[-71.49391, -34.124884], [-71.492617, -34.123717], [-71.492426, -34.121394], [-71.492107, -34.124173], [-71.490998, -34.124354], [-71.490476, -34.122111], [-71.490416, -34.123678], [-71.488467, -34.124506], [-71.488358, -34.1255], [-71.485374, -34.125948], [-71.484674, -34.125343], [-71.484733, -34.126408], [-71.482966, -34.128236], [-71.483062, -34.128915], [-71.480202, -34.130601], [-71.480173, -34.13138], [-71.472802, -34.135633], [-71.470374, -34.135932], [-71.470645, -34.136784], [-71.468378, -34.13884], [-71.465656, -34.137551], [-71.464612, -34.138418], [-71.462463, -34.13811], [-71.462011, -34.136829], [-71.459407, -34.134461], [-71.459794, -34.133634], [-71.458685, -34.130408], [-71.457686, -34.131599], [-71.45616, -34.131974], [-71.457371, -34.133586], [-71.455987, -34.135809], [-71.44887, -34.137881], [-71.446367, -34.13727], [-71.446142, -34.135343], [-71.445006, -34.136291], [-71.445221, -34.137302], [-71.442881, -34.137582], [-71.442152, -34.136179], [-71.442388, -34.135327], [-71.440671, -34.135851], [-71.440124, -34.135127], [-71.439148, -34.135256], [-71.43767, -34.131661], [-71.437131, -34.131219], [-71.436423, -34.132512], [-71.434768, -34.130359], [-71.433832, -34.130553], [-71.433226, -34.132023], [-71.430763, -34.133311], [-71.431721, -34.134203], [-71.433869, -34.133373], [-71.434878, -34.134456], [-71.433376, -34.135931], [-71.431375, -34.135602], [-71.430833, -34.136197], [-71.430908, -34.135717], [-71.429857, -34.135362], [-71.430329, -34.134385], [-71.428054, -34.132911], [-71.429545, -34.131875], [-71.429138, -34.129687], [-71.426306, -34.131091], [-71.425613, -34.132187], [-71.42576, -34.128217], [-71.426526, -34.127617], [-71.424943, -34.127085], [-71.423697, -34.127431], [-71.42217, -34.125029], [-71.41968, -34.123644], [-71.418986, -34.122182], [-71.419398, -34.125965], [-71.417956, -34.126364], [-71.41581, -34.124881], [-71.416423, -34.120426], [-71.415012, -34.124516], [-71.414712, -34.123788], [-71.411348, -34.124095], [-71.407806, -34.120937], [-71.407398, -34.122234], [-71.406025, -34.122403], [-71.406712, -34.124268], [-71.408085, -34.124907], [-71.409362, -34.126568], [-71.410928, -34.126986], [-71.411091, -34.127823], [-71.410113, -34.128593], [-71.410303, -34.129726], [-71.409271, -34.130798], [-71.408031, -34.130661], [-71.406343, -34.129774], [-71.404689, -34.12746], [-71.40334, -34.127626], [-71.402908, -34.126284], [-71.403437, -34.124904], [-71.401697, -34.124369], [-71.400148, -34.125025], [-71.398464, -34.123213], [-71.395812, -34.124382], [-71.395654, -34.123737], [-71.394569, -34.124103], [-71.39478, -34.123015], [-71.392628, -34.121739], [-71.39231, -34.120269], [-71.389665, -34.119424], [-71.386487, -34.116825], [-71.386122, -34.114604], [-71.385062, -34.115965], [-71.385359, -34.119565], [-71.386676, -34.1217], [-71.386426, -34.127655], [-71.385656, -34.128691], [-71.386936, -34.133365], [-71.386609, -34.135044], [-71.3844, -34.137391], [-71.382556, -34.137179], [-71.383012, -34.134103], [-71.382229, -34.132073], [-71.378152, -34.127295], [-71.378406, -34.123464], [-71.377522, -34.11987], [-71.377132, -34.119313], [-71.375906, -34.119835], [-71.376914, -34.119843], [-71.376791, -34.123967], [-71.376329, -34.126047], [-71.375406, -34.126265], [-71.376371, -34.128929], [-71.37987, -34.13404], [-71.37864, -34.136566], [-71.379611, -34.137321], [-71.383329, -34.144381], [-71.381029, -34.145736], [-71.378971, -34.145817], [-71.378235, -34.145103], [-71.377698, -34.142651], [-71.376459, -34.146222], [-71.375483, -34.14561], [-71.375677, -34.144065], [-71.373112, -34.146311], [-71.370161, -34.146391], [-71.36446, -34.147821], [-71.360648, -34.151107], [-71.360243, -34.152323], [-71.360761, -34.152711], [-71.353071, -34.155873], [-71.353543, -34.158395], [-71.352631, -34.159158], [-71.351496, -34.158257], [-71.350785, -34.158537], [-71.349853, -34.159866], [-71.350347, -34.160531], [-71.351489, -34.160438], [-71.353768, -34.162816], [-71.353773, -34.165461], [-71.356686, -34.164378], [-71.358025, -34.162991], [-71.360043, -34.163292], [-71.362662, -34.162184], [-71.363815, -34.162719], [-71.363905, -34.163825], [-71.362358, -34.165382], [-71.36389, -34.165515], [-71.36734, -34.160459], [-71.368423, -34.160694], [-71.369679, -34.162217], [-71.371621, -34.162479], [-71.372522, -34.160277], [-71.370784, -34.159531], [-71.370955, -34.158271], [-71.374217, -34.154577], [-71.376931, -34.154044], [-71.377406, -34.154895], [-71.376896, -34.156034], [-71.378428, -34.156202], [-71.378728, -34.155439], [-71.379113, -34.15585], [-71.379488, -34.155147], [-71.380134, -34.155387], [-71.38099, -34.153334], [-71.384109, -34.150866], [-71.380902, -34.146059], [-71.384792, -34.150801], [-71.386406, -34.1501], [-71.394672, -34.150043], [-71.395402, -34.151524], [-71.391232, -34.153518], [-71.396542, -34.154409], [-71.396569, -34.155746], [-71.397789, -34.155728], [-71.398984, -34.157248], [-71.399406, -34.158231], [-71.397304, -34.160486], [-71.396874, -34.161436], [-71.397507, -34.161782], [-71.396907, -34.162253], [-71.39873, -34.162599], [-71.398001, -34.162945], [-71.398559, -34.164765], [-71.401037, -34.164091], [-71.405039, -34.166807], [-71.405232, -34.168689], [-71.404138, -34.170668], [-71.406788, -34.167979], [-71.406691, -34.166434], [-71.407485, -34.166363], [-71.40888, -34.161294], [-71.408483, -34.160211], [-71.409148, -34.158373], [-71.410436, -34.157095], [-71.411058, -34.15745], [-71.411562, -34.159385], [-71.412828, -34.157778], [-71.414459, -34.157912], [-71.416068, -34.156429], [-71.418364, -34.155772], [-71.418128, -34.15523], [-71.424383, -34.154662], [-71.424791, -34.156775], [-71.425917, -34.157334], [-71.427366, -34.154662], [-71.426582, -34.15333], [-71.428441, -34.153015], [-71.429844, -34.153419], [-71.430638, -34.154875], [-71.430853, -34.157574], [-71.431861, -34.158107], [-71.432569, -34.153384], [-71.43332, -34.152869], [-71.435094, -34.153346], [-71.43435, -34.152087], [-71.434629, -34.150596], [-71.435831, -34.150063], [-71.43729, -34.150401], [-71.438191, -34.149477], [-71.439607, -34.149193], [-71.44038, -34.149495], [-71.440787, -34.150702], [-71.439758, -34.152372], [-71.442424, -34.158237], [-71.442912, -34.156864], [-71.442192, -34.156244], [-71.443019, -34.154804], [-71.442458, -34.152722], [-71.443405, -34.152478], [-71.443577, -34.150241], [-71.446474, -34.148198], [-71.447568, -34.148287], [-71.447783, -34.148838], [-71.44656, -34.150223], [-71.445894, -34.152709], [-71.446222, -34.153894], [-71.447144, -34.153783], [-71.44716, -34.154378], [-71.44789, -34.151981], [-71.449784, -34.150043], [-71.450293, -34.148518], [-71.451366, -34.148287], [-71.452096, -34.150915], [-71.452954, -34.150862], [-71.453705, -34.149797], [-71.455678, -34.149566], [-71.456588, -34.150097], [-71.458296, -34.149015], [-71.459176, -34.149175], [-71.460914, -34.146672], [-71.46218, -34.146566], [-71.462845, -34.145589], [-71.466114, -34.146944], [-71.467091, -34.146571], [-71.470119, -34.149637], [-71.469919, -34.145272], [-71.469386, -34.14492], [-71.468694, -34.145461], [-71.469317, -34.144657], [-71.471428, -34.144932], [-71.472158, -34.146619], [-71.47305, -34.144362], [-71.474348, -34.145037], [-71.474302, -34.144044], [-71.475011, -34.143476], [-71.476664, -34.144239], [-71.47823, -34.14637], [-71.480869, -34.148394], [-71.479003, -34.15056], [-71.477565, -34.150827], [-71.477586, -34.15159], [-71.475483, -34.152922], [-71.478449, -34.152251], [-71.480118, -34.153615], [-71.481049, -34.155987], [-71.480032, -34.156917], [-71.4821, -34.157015], [-71.482791, -34.158956], [-71.479518, -34.160184], [-71.482393, -34.159918], [-71.483573, -34.160415], [-71.482629, -34.164872], [-71.478166, -34.168529], [-71.478402, -34.169364], [-71.474904, -34.174512], [-71.468145, -34.176962], [-71.46572, -34.178595], [-71.46366, -34.182447], [-71.46233, -34.183352], [-71.460828, -34.188376], [-71.461386, -34.191606], [-71.459523, -34.192253], [-71.460862, -34.192771], [-71.460186, -34.193738], [-71.458866, -34.193694], [-71.457591, -34.195279], [-71.459288, -34.196993], [-71.462166, -34.19415], [-71.46361, -34.194125], [-71.463736, -34.19621], [-71.462657, -34.197827], [-71.463344, -34.197827], [-71.464146, -34.196757], [-71.46506, -34.197126], [-71.464953, -34.198705], [-71.466378, -34.197893], [-71.468021, -34.198634], [-71.470787, -34.201474], [-71.47056, -34.203342], [-71.46847, -34.205733], [-71.462995, -34.207792], [-71.460635, -34.206798], [-71.460927, -34.205474], [-71.460348, -34.204054], [-71.460163, -34.206922], [-71.457309, -34.205147], [-71.458511, -34.207064], [-71.457138, -34.209832], [-71.454328, -34.21024], [-71.453469, -34.209584], [-71.453641, -34.210648], [-71.450079, -34.21308], [-71.450862, -34.213647], [-71.453641, -34.21205], [-71.4548, -34.212441], [-71.459755, -34.208785], [-71.461365, -34.208643], [-71.46161, -34.209758], [-71.457138, -34.213257], [-71.456086, -34.217995], [-71.45083, -34.222555], [-71.448148, -34.222661], [-71.443513, -34.224063], [-71.44244, -34.223406], [-71.44332, -34.222005], [-71.44274, -34.2222], [-71.442333, -34.221472], [-71.441517, -34.223761], [-71.44156, -34.224364], [-71.442697, -34.224613], [-71.442161, -34.225553], [-71.437204, -34.225429], [-71.438535, -34.226174], [-71.438591, -34.226855], [-71.439457, -34.226742], [-71.4395, -34.227416], [-71.441024, -34.227309], [-71.440949, -34.229298], [-71.441851, -34.231911], [-71.44457, -34.233132], [-71.445095, -34.235442], [-71.446614, -34.23451], [-71.448942, -34.235495], [-71.451099, -34.23521], [-71.451142, -34.231642], [-71.452733, -34.228943], [-71.456343, -34.226257], [-71.459639, -34.226601], [-71.460798, -34.223535], [-71.461122, -34.218838], [-71.462894, -34.211816], [-71.465732, -34.208937], [-71.468946, -34.207359], [-71.467534, -34.209474], [-71.468551, -34.210233], [-71.470042, -34.210184], [-71.470811, -34.210989], [-71.471203, -34.213204], [-71.468166, -34.218228], [-71.468453, -34.220476], [-71.463891, -34.23509], [-71.459627, -34.238705], [-71.458739, -34.240901], [-71.462955, -34.238001], [-71.461199, -34.240419], [-71.461178, -34.241879], [-71.46166, -34.240173], [-71.466429, -34.236091], [-71.466922, -34.232188], [-71.468553, -34.232082], [-71.467587, -34.231603], [-71.467793, -34.229818], [-71.470583, -34.227458], [-71.472136, -34.228853], [-71.470733, -34.22666], [-71.473703, -34.2222], [-71.475312, -34.222253], [-71.476578, -34.223424], [-71.477479, -34.223442], [-71.47572, -34.221579], [-71.477222, -34.219858], [-71.480355, -34.22149], [-71.479217, -34.219911], [-71.477479, -34.219361], [-71.480247, -34.216114], [-71.480634, -34.214836], [-71.480805, -34.21111], [-71.480317, -34.210392], [-71.481289, -34.206217], [-71.480902, -34.204691], [-71.481473, -34.203923], [-71.481374, -34.203094], [-71.478855, -34.200835], [-71.477847, -34.198865], [-71.480776, -34.196233], [-71.481913, -34.196251], [-71.481302, -34.194891], [-71.482643, -34.19129], [-71.487556, -34.191148], [-71.492374, -34.194263], [-71.494852, -34.19484], [-71.498666, -34.194473], [-71.502701, -34.195857], [-71.497379, -34.193594], [-71.49571, -34.193793], [-71.491097, -34.192373], [-71.487728, -34.189675], [-71.485582, -34.190101], [-71.483866, -34.188912], [-71.485947, -34.186587], [-71.486827, -34.184297], [-71.48835, -34.184741], [-71.487469, -34.183244], [-71.487712, -34.182233], [-71.492127, -34.181705], [-71.489702, -34.181492], [-71.488565, -34.180534], [-71.487342, -34.176844], [-71.488619, -34.17609], [-71.487549, -34.174974], [-71.487763, -34.172744], [-71.49187, -34.17289], [-71.496196, -34.174636], [-71.496714, -34.175528], [-71.496011, -34.173498], [-71.49309, -34.170529], [-71.494439, -34.169781], [-71.496682, -34.166561], [-71.494555, -34.166969], [-71.493914, -34.168039], [-71.492522, -34.168314], [-71.491502, -34.16941], [-71.490245, -34.169157], [-71.490607, -34.168456], [-71.490156, -34.167606], [-71.490564, -34.16615], [-71.491602, -34.165769], [-71.491355, -34.164916], [-71.492951, -34.163913], [-71.491795, -34.163272], [-71.492377, -34.161845], [-71.491798, -34.160719], [-71.493611, -34.160014], [-71.494228, -34.158875], [-71.495896, -34.159048], [-71.494027, -34.157295], [-71.494466, -34.155865], [-71.49629, -34.155666], [-71.494506, -34.154846], [-71.494253, -34.153254], [-71.494382, -34.151741], [-71.495976, -34.151731], [-71.496189, -34.150753], [-71.493731, -34.149721], [-71.495699, -34.147201], [-71.493114, -34.14822], [-71.4919, -34.147709], [-71.49168, -34.148556], [-71.489458, -34.147792], [-71.489262, -34.146975], [-71.488334, -34.147008], [-71.487998, -34.146182], [-71.488945, -34.145084], [-71.48746, -34.144659], [-71.488818, -34.143629], [-71.487874, -34.143295], [-71.487924, -34.142412], [-71.489001, -34.141828], [-71.490232, -34.142851], [-71.490838, -34.142232], [-71.489452, -34.140499], [-71.490891, -34.138883], [-71.493019, -34.138302], [-71.492572, -34.137727], [-71.493767, -34.13762], [-71.493866, -34.138556], [-71.49451, -34.137148], [-71.496098, -34.1372], [-71.497609, -34.138539], [-71.498179, -34.137076], [-71.499607, -34.136088], [-71.500834, -34.13731], [-71.501561, -34.137156], [-71.501831, -34.138205], [-71.50464, -34.136573], [-71.505854, -34.136979], [-71.504836, -34.140513], [-71.507862, -34.137529], [-71.508909, -34.137595], [-71.510413, -34.139276], [-71.51032, -34.139897], [-71.510807, -34.139621], [-71.510841, -34.137287], [-71.517144, -34.13436], [-71.520065, -34.130361], [-71.519543, -34.127707], [-71.51769, -34.124944], [-71.517994, -34.124052], [-71.516845, -34.123607], [-71.516144, -34.121095], [-71.517654, -34.118493], [-71.520198, -34.116456], [-71.519891, -34.121629], [-71.523392, -34.125824], [-71.523973, -34.127955], [-71.523562, -34.131601], [-71.522733, -34.132806], [-71.523722, -34.132106], [-71.5255, -34.135736], [-71.525634, -34.135093], [-71.526061, -34.135563], [-71.525367, -34.134637], [-71.525723, -34.13342], [-71.524718, -34.132746], [-71.524641, -34.131589], [-71.525749, -34.127597], [-71.525276, -34.125243], [-71.52684, -34.124384], [-71.524951, -34.124849], [-71.524264, -34.124399], [-71.522537, -34.122154], [-71.522129, -34.1206], [-71.52316, -34.117714], [-71.523265, -34.115191], [-71.524407, -34.11376], [-71.525065, -34.114808], [-71.526639, -34.113548], [-71.530226, -34.113585], [-71.531482, -34.114803], [-71.5335, -34.113695], [-71.534376, -34.114793], [-71.533095, -34.116492], [-71.533976, -34.1171], [-71.533163, -34.11818], [-71.532901, -34.120142], [-71.534275, -34.120851], [-71.533925, -34.121408], [-71.535043, -34.121128], [-71.53597, -34.122718], [-71.536603, -34.122781], [-71.536088, -34.120243], [-71.534607, -34.120231], [-71.534134, -34.11963], [-71.53499, -34.118685], [-71.535519, -34.116212], [-71.537766, -34.119054], [-71.538864, -34.118597], [-71.539884, -34.118979], [-71.541136, -34.120993], [-71.541243, -34.119702], [-71.540539, -34.118989], [-71.541874, -34.118539], [-71.538186, -34.117583], [-71.536426, -34.114821], [-71.536493, -34.114091], [-71.53742, -34.114294], [-71.535491, -34.112828], [-71.535989, -34.11097], [-71.538011, -34.111727], [-71.536631, -34.109461], [-71.53905, -34.109638], [-71.535661, -34.107568], [-71.535063, -34.104186], [-71.53742, -34.103541], [-71.538403, -34.102303], [-71.539977, -34.103163], [-71.539404, -34.102116], [-71.539806, -34.1007], [-71.538116, -34.098878], [-71.539104, -34.097288], [-71.538033, -34.09707], [-71.537314, -34.095014], [-71.537526, -34.093681], [-71.539819, -34.094803], [-71.543693, -34.094813], [-71.545543, -34.093548], [-71.549391, -34.092501], [-71.548328, -34.095745], [-71.547598, -34.095924], [-71.548247, -34.097056], [-71.54657, -34.098517], [-71.547064, -34.099568], [-71.54614, -34.100375], [-71.54734, -34.101383], [-71.547248, -34.102807], [-71.548598, -34.101969], [-71.551948, -34.103321], [-71.551513, -34.105224], [-71.553307, -34.10584], [-71.552486, -34.106561], [-71.552486, -34.107489], [-71.554771, -34.109595], [-71.553186, -34.11064], [-71.553115, -34.111608], [-71.556165, -34.112944], [-71.557165, -34.115932], [-71.556679, -34.113885], [-71.557874, -34.113437], [-71.556739, -34.113468], [-71.556473, -34.112344], [-71.554365, -34.111627], [-71.55548, -34.109658], [-71.553507, -34.107405], [-71.553604, -34.106767], [-71.554676, -34.106494], [-71.553044, -34.104701], [-71.55437, -34.103347], [-71.55008, -34.101536], [-71.549086, -34.100359], [-71.549446, -34.09973], [-71.548931, -34.098775], [-71.550015, -34.097906], [-71.550668, -34.095294], [-71.551745, -34.094306], [-71.553453, -34.094474], [-71.552553, -34.093645], [-71.553274, -34.092391], [-71.552871, -34.091382], [-71.554091, -34.090634], [-71.555147, -34.091386], [-71.556332, -34.090181], [-71.557809, -34.090355], [-71.558166, -34.089529], [-71.558871, -34.089757], [-71.559663, -34.088835], [-71.560557, -34.089306], [-71.560776, -34.088179], [-71.562114, -34.087577], [-71.563001, -34.087903], [-71.563287, -34.087103], [-71.564136, -34.086926], [-71.565033, -34.087343], [-71.564604, -34.088241], [-71.565355, -34.089114], [-71.564504, -34.090996], [-71.565382, -34.090962], [-71.567329, -34.092672], [-71.567112, -34.093983], [-71.56773, -34.094146], [-71.567161, -34.095444], [-71.56792, -34.094931], [-71.569049, -34.095677], [-71.568474, -34.094746], [-71.568634, -34.091666], [-71.567198, -34.091178], [-71.566373, -34.090089], [-71.566486, -34.088958], [-71.567233, -34.089019], [-71.566454, -34.087131], [-71.568247, -34.087453], [-71.568445, -34.086784], [-71.571897, -34.085846], [-71.572778, -34.084219], [-71.574045, -34.083387], [-71.57394, -34.082462], [-71.575557, -34.081573], [-71.575126, -34.080771], [-71.575707, -34.080859], [-71.575556, -34.078958], [-71.5765, -34.077219], [-71.577547, -34.076951], [-71.579459, -34.078011], [-71.578475, -34.075831], [-71.579947, -34.0773], [-71.582047, -34.078066], [-71.582078, -34.078861], [-71.583388, -34.078554], [-71.589821, -34.082143], [-71.581507, -34.076805], [-71.580473, -34.075808], [-71.580286, -34.074476], [-71.578005, -34.073692], [-71.576747, -34.069724], [-71.577792, -34.069037], [-71.578982, -34.06948], [-71.580158, -34.071011], [-71.580291, -34.068309], [-71.578603, -34.068379], [-71.578959, -34.067228], [-71.577335, -34.065849], [-71.578328, -34.065326], [-71.577711, -34.063966], [-71.578237, -34.06188], [-71.579887, -34.062442], [-71.581636, -34.064979], [-71.582125, -34.064987], [-71.582095, -34.063676], [-71.58315, -34.063382], [-71.583602, -34.06452], [-71.585988, -34.065423], [-71.5876, -34.065134], [-71.585837, -34.064822], [-71.584468, -34.063634], [-71.584301, -34.061902], [-71.585886, -34.061911], [-71.584216, -34.060537], [-71.581592, -34.061822], [-71.580828, -34.0608], [-71.579438, -34.060398], [-71.581716, -34.059967], [-71.58098, -34.059352], [-71.582039, -34.058976], [-71.582291, -34.057383], [-71.579927, -34.053692], [-71.580797, -34.053523], [-71.580668, -34.052131], [-71.581615, -34.051383], [-71.587329, -34.054121], [-71.583214, -34.051075], [-71.582697, -34.050009], [-71.584944, -34.050126], [-71.582547, -34.04869], [-71.582373, -34.047764], [-71.584586, -34.044504], [-71.586397, -34.044492], [-71.586456, -34.043687], [-71.587755, -34.043903], [-71.588411, -34.043027], [-71.590784, -34.043671], [-71.590517, -34.041661], [-71.588574, -34.041519], [-71.587384, -34.040621], [-71.586738, -34.04144], [-71.583409, -34.042658], [-71.581246, -34.044255], [-71.581142, -34.045067], [-71.579813, -34.045247], [-71.577843, -34.044493], [-71.578291, -34.045744], [-71.576904, -34.045572], [-71.578819, -34.047031], [-71.577966, -34.047148], [-71.57774, -34.048314], [-71.578694, -34.048832], [-71.578304, -34.049438], [-71.578842, -34.050054], [-71.578051, -34.050403], [-71.578102, -34.051697], [-71.574738, -34.050409], [-71.57584, -34.051711], [-71.57509, -34.052049], [-71.574887, -34.05359], [-71.576279, -34.052706], [-71.5771, -34.053017], [-71.576268, -34.055482], [-71.578717, -34.057648], [-71.577864, -34.058024], [-71.577618, -34.058962], [-71.57457, -34.059441], [-71.575126, -34.060593], [-71.573817, -34.061019], [-71.575174, -34.061675], [-71.575131, -34.062715], [-71.573696, -34.063957], [-71.569222, -34.063514], [-71.570207, -34.064552], [-71.569796, -34.065359], [-71.567149, -34.063519], [-71.56687, -34.064734], [-71.565827, -34.064768], [-71.566435, -34.065928], [-71.565271, -34.06607], [-71.56566, -34.067181], [-71.56374, -34.067063], [-71.559963, -34.065432], [-71.56029, -34.066383], [-71.558641, -34.06719], [-71.553569, -34.067942], [-71.549494, -34.0661], [-71.545966, -34.062648], [-71.548512, -34.06594], [-71.554358, -34.069364], [-71.554799, -34.068584], [-71.556999, -34.068435], [-71.557523, -34.067803], [-71.560362, -34.067932], [-71.56146, -34.067132], [-71.563067, -34.067907], [-71.563232, -34.068852], [-71.564672, -34.068111], [-71.566769, -34.068847], [-71.566667, -34.068162], [-71.567909, -34.067802], [-71.567347, -34.066945], [-71.567658, -34.066044], [-71.57027, -34.067066], [-71.570582, -34.067867], [-71.571804, -34.067733], [-71.571724, -34.065682], [-71.57394, -34.066005], [-71.57366, -34.067336], [-71.572104, -34.067842], [-71.571399, -34.069161], [-71.572032, -34.070687], [-71.570858, -34.07091], [-71.57347, -34.073313], [-71.574717, -34.07311], [-71.575032, -34.074715], [-71.573951, -34.075348], [-71.574263, -34.076682], [-71.572912, -34.078979], [-71.572852, -34.081096], [-71.570732, -34.084291], [-71.568906, -34.085231], [-71.567308, -34.085027], [-71.566582, -34.084336], [-71.567115, -34.082052], [-71.566385, -34.082552], [-71.565736, -34.082108], [-71.565882, -34.083061], [-71.564793, -34.083076], [-71.565061, -34.083575], [-71.564219, -34.084066], [-71.561866, -34.082885], [-71.562592, -34.084618], [-71.560596, -34.085542], [-71.55683, -34.084723], [-71.559012, -34.086725], [-71.555274, -34.086913], [-71.554325, -34.086132], [-71.551749, -34.085933], [-71.553794, -34.08781], [-71.552841, -34.088554], [-71.545286, -34.087457], [-71.544392, -34.086403], [-71.544338, -34.084417], [-71.543662, -34.086415], [-71.545065, -34.08887], [-71.544621, -34.089318], [-71.541146, -34.089291], [-71.53935, -34.087265], [-71.53899, -34.085533], [-71.537987, -34.086978], [-71.535728, -34.087384], [-71.533556, -34.085505], [-71.532388, -34.085301], [-71.52964, -34.085806], [-71.527715, -34.08728], [-71.526392, -34.087504], [-71.526328, -34.086412], [-71.525948, -34.08704], [-71.522698, -34.087725], [-71.521585, -34.087258], [-71.521325, -34.088114], [-71.519454, -34.088689], [-71.519595, -34.08933], [-71.51753, -34.090852], [-71.516614, -34.089398], [-71.516987, -34.091479], [-71.522147, -34.088635], [-71.525162, -34.088326], [-71.52524, -34.089019], [-71.526087, -34.088396], [-71.526853, -34.0893], [-71.526909, -34.088702], [-71.528722, -34.088085], [-71.529086, -34.089539], [-71.529902, -34.087546], [-71.531018, -34.087214], [-71.537136, -34.089112], [-71.537299, -34.089602], [-71.534436, -34.091209], [-71.532943, -34.093635], [-71.532212, -34.093783], [-71.531274, -34.096653], [-71.53322, -34.098692], [-71.532261, -34.099305], [-71.533768, -34.09932], [-71.533668, -34.099752], [-71.531074, -34.102376], [-71.531182, -34.10485], [-71.529965, -34.107165], [-71.529027, -34.107345], [-71.528243, -34.106682], [-71.529278, -34.108125], [-71.530988, -34.107389], [-71.53197, -34.10766], [-71.532656, -34.108402], [-71.532672, -34.1102], [-71.53098, -34.110722], [-71.527627, -34.110121], [-71.52316, -34.110482], [-71.521874, -34.109856], [-71.521678, -34.108247], [-71.52007, -34.10895], [-71.520946, -34.109464], [-71.521207, -34.110581], [-71.520445, -34.111172], [-71.514409, -34.111999], [-71.511805, -34.115316], [-71.512201, -34.115938], [-71.511645, -34.116406], [-71.512198, -34.116935], [-71.51166, -34.122149], [-71.509797, -34.122095], [-71.508679, -34.120405], [-71.508767, -34.122999], [-71.510642, -34.124009], [-71.506009, -34.126573], [-71.506327, -34.127358], [-71.505096, -34.128743], [-71.504226, -34.128876], [-71.504274, -34.127113], [-71.503718, -34.126875], [-71.500426, -34.128349], [-71.498066, -34.128331], [-71.495777, -34.126643], [-71.498691, -34.125193], [-71.496959, -34.125594], [-71.495925, -34.124933], [-71.495146, -34.125391], [-71.49391, -34.124884]], [[-71.410861, -34.137337], [-71.410351, -34.138043], [-71.40911, -34.137467], [-71.410861, -34.137337]], [[-71.408048, -34.135175], [-71.408407, -34.135521], [-71.407581, -34.13553], [-71.40668, -34.133825], [-71.408048, -34.135175]], [[-71.422388, -34.130737], [-71.422399, -34.132265], [-71.421841, -34.132505], [-71.42167, -34.131048], [-71.422388, -34.130737]], [[-71.551496, -34.091878], [-71.552139, -34.091372], [-71.552888, -34.092128], [-71.55175, -34.092427], [-71.551496, -34.091878]], [[-71.515433, -34.129759], [-71.515913, -34.128802], [-71.515929, -34.130397], [-71.514105, -34.13186], [-71.515433, -34.129759]]]]}}