{"type": "Feature", "properties": {"id": "lago-neltume", "name": "Lago Neltume", "type": "lake", "region": "los-rios"}, "geometry": {"type": "MultiPolygon", "coordinates": [[[[-71.971242, -39.766721], [-71.97165, -39.771084], [-71.973882, -39.774819], [-71.977004, -39.776237], [-71.977637, -39.777697], [-71.980222, -39.779346], [-71.981821, -39.779412], [-71.986231, -39.781918], [-71.991788, -39.786585], [-71.996101, -39.789058], [-71.998215, -39.791177], [-71.998687, -39.793666], [-72.001659, -39.794977], [-72.003204, -39.798563], [-72.002893, -39.79947], [-72.001723, -39.800879], [-72.000039, -39.801052], [-71.998848, -39.80247], [-71.999835, -39.803615], [-71.999545, -39.805066], [-72.001648, -39.809982], [-72.003906, -39.813712], [-72.003847, -39.815109], [-72.002273, -39.814155], [-72.000162, -39.814746], [-71.988596, -39.811416], [-71.987931, -39.806925], [-71.986037, -39.805046], [-71.981065, -39.80383], [-71.979557, -39.80411], [-71.978098, -39.806096], [-71.977071, -39.80614], [-71.974611, -39.803137], [-71.974227, -39.800448], [-71.972527, -39.800032], [-71.97164, -39.79793], [-71.968141, -39.793406], [-71.966343, -39.792403], [-71.961834, -39.786912], [-71.960651, -39.78358], [-71.95873, -39.780646], [-71.958406, -39.777372], [-71.959444, -39.776631], [-71.959021, -39.774847], [-71.959942, -39.774085], [-71.959297, -39.772908], [-71.960836, -39.772931], [-71.961159, -39.774105], [-71.960589, -39.775023], [-71.962626, -39.776441], [-71.961484, -39.774561], [-71.96311, -39.773351], [-71.962413, -39.772605], [-71.962783, -39.771302], [-71.963609, -39.770572], [-71.965122, -39.770494], [-71.965127, -39.767744], [-71.968067, -39.766779], [-71.967756, -39.766082], [-71.96462, -39.765318], [-71.963708, -39.763671], [-71.967037, -39.763719], [-71.967374, -39.76489], [-71.969653, -39.765217], [-71.971242, -39.766721]]]]}}