{"type": "Feature", "properties": {"id": "lago-pehoe", "name": "Lago Pehoé", "type": "lake", "region": "magallanes"}, "geometry": {"type": "MultiPolygon", "coordinates": [[[[-73.018615, -51.09905], [-73.021174, -51.098683], [-73.022949, -51.099955], [-73.02703, -51.099542], [-73.030213, -51.098383], [-73.034585, -51.098324], [-73.036369, -51.099401], [-73.037498, -51.098991], [-73.038912, -51.099542], [-73.043311, -51.099013], [-73.04278, -51.099646], [-73.043565, -51.10094], [-73.04198, -51.101754], [-73.042021, -51.102372], [-73.045837, -51.104563], [-73.042332, -51.106397], [-73.040891, -51.108135], [-73.040875, -51.109637], [-73.042755, -51.111282], [-73.044432, -51.111632], [-73.049727, -51.109332], [-73.050783, -51.109667], [-73.050654, -51.11092], [-73.049134, -51.112545], [-73.049595, -51.114097], [-73.048042, -51.116229], [-73.047814, -51.117871], [-73.044271, -51.121756], [-73.044545, -51.122975], [-73.046328, -51.123086], [-73.046736, -51.12185], [-73.048755, -51.120806], [-73.051593, -51.117751], [-73.054941, -51.113023], [-73.055359, -51.111077], [-73.056722, -51.10973], [-73.062655, -51.105018], [-73.068566, -51.103478], [-73.069532, -51.101016], [-73.071662, -51.100019], [-73.076183, -51.095725], [-73.078474, -51.094666], [-73.080347, -51.094672], [-73.083737, -51.096141], [-73.08614, -51.09541], [-73.092497, -51.095447], [-73.094282, -51.091658], [-73.093739, -51.089482], [-73.094149, -51.088645], [-73.093098, -51.087524], [-73.093953, -51.085752], [-73.093318, -51.08392], [-73.09444, -51.081993], [-73.093382, -51.080139], [-73.091623, -51.080145], [-73.090475, -51.079386], [-73.09121, -51.07562], [-73.093095, -51.07357], [-73.088314, -51.071165], [-73.085744, -51.071169], [-73.082948, -51.071834], [-73.077922, -51.075047], [-73.070219, -51.075967], [-73.068942, -51.073982], [-73.066453, -51.0729], [-73.068373, -51.071801], [-73.067837, -51.069455], [-73.066281, -51.068299], [-73.063873, -51.07052], [-73.063524, -51.072175], [-73.066201, -51.073139], [-73.064014, -51.07381], [-73.060584, -51.076752], [-73.058594, -51.081915], [-73.054394, -51.084271], [-73.054092, -51.085981], [-73.055056, -51.088195], [-73.05066, -51.089209], [-73.048628, -51.089297], [-73.047932, -51.088411], [-73.04304, -51.089046], [-73.041452, -51.089861], [-73.038998, -51.089789], [-73.035597, -51.088252], [-73.033567, -51.088503], [-73.030439, -51.08725], [-73.028597, -51.087748], [-73.026576, -51.087327], [-73.025656, -51.086645], [-73.025616, -51.085046], [-73.019069, -51.084087], [-73.016872, -51.084369], [-73.016899, -51.085214], [-73.015954, -51.085388], [-73.015469, -51.086401], [-73.013401, -51.086972], [-73.012688, -51.085619], [-73.009201, -51.084906], [-73.008018, -51.082866], [-73.006571, -51.082477], [-73.003771, -51.082877], [-73.003271, -51.083155], [-73.003563, -51.08392], [-73.002034, -51.085306], [-73.000189, -51.085513], [-73.00002, -51.084439], [-72.996418, -51.082974], [-72.996726, -51.0825], [-72.995759, -51.081346], [-72.997496, -51.080321], [-72.99944, -51.082068], [-73.000349, -51.081772], [-73.001519, -51.082389], [-73.002522, -51.081652], [-73.001034, -51.080217], [-72.998363, -51.079847], [-72.997458, -51.078902], [-72.99989, -51.075654], [-73.001747, -51.075055], [-73.001516, -51.073643], [-73.002976, -51.071364], [-73.000889, -51.069516], [-73.001068, -51.068672], [-72.999092, -51.067274], [-72.997415, -51.066588], [-72.995503, -51.066871], [-72.994588, -51.065851], [-72.993207, -51.065729], [-72.992343, -51.064312], [-72.992625, -51.062085], [-72.991411, -51.061341], [-72.990016, -51.061662], [-72.990334, -51.063513], [-72.988116, -51.064413], [-72.987348, -51.065519], [-72.990137, -51.067087], [-72.992338, -51.06667], [-72.99494, -51.067474], [-72.995044, -51.068909], [-72.996884, -51.071091], [-72.996182, -51.073019], [-72.997169, -51.075116], [-72.994551, -51.076437], [-72.994162, -51.079265], [-72.992354, -51.079468], [-72.990589, -51.082337], [-72.989291, -51.082219], [-72.988323, -51.08289], [-72.9877, -51.085477], [-72.985434, -51.087014], [-72.985089, -51.091346], [-72.983728, -51.093402], [-72.984493, -51.094371], [-72.984532, -51.097366], [-72.98304, -51.098779], [-72.984863, -51.102495], [-72.984872, -51.105631], [-72.987757, -51.106401], [-72.988343, -51.106104], [-72.98799, -51.104998], [-72.988457, -51.104812], [-72.991185, -51.106139], [-72.990946, -51.108426], [-72.987641, -51.109044], [-72.990226, -51.110765], [-72.992101, -51.113454], [-72.992212, -51.114652], [-72.991273, -51.113187], [-72.990366, -51.113628], [-72.991622, -51.114335], [-72.991622, -51.115423], [-72.994036, -51.116066], [-72.995436, -51.115273], [-72.996021, -51.113864], [-72.999221, -51.112772], [-73.000023, -51.111447], [-73.000312, -51.108893], [-73.001538, -51.106894], [-72.99884, -51.106331], [-72.997826, -51.105312], [-72.999076, -51.104551], [-72.999593, -51.102833], [-72.998821, -51.101026], [-73.000964, -51.10078], [-73.005937, -51.097731], [-73.010515, -51.096769], [-73.014069, -51.09694], [-73.018615, -51.09905]], [[-73.00485, -51.083321], [-73.005886, -51.083587], [-73.005406, -51.083924], [-73.00485, -51.083321]], [[-72.999494, -51.085577], [-73.000497, -51.086037], [-72.999494, -51.085577]], [[-72.985995, -51.099119], [-72.986502, -51.09841], [-72.986462, -51.099309], [-72.985995, -51.099119]], [[-73.012904, -51.0956], [-73.013281, -51.095365], [-73.012904, -51.0956]], [[-73.089477, -51.085882], [-73.089477, -51.085882]], [[-72.992799, -51.109874], [-72.991788, -51.111073], [-72.990643, -51.110901], [-72.991329, -51.109376], [-72.992579, -51.109325], [-72.992799, -51.109874]], [[-73.081425, -51.092353], [-73.081248, -51.091667], [-73.083066, -51.091834], [-73.081425, -51.092353]], [[-72.986469, -51.094809], [-72.986485, -51.094135], [-72.985592, -51.093857], [-72.987065, -51.092942], [-72.9885, -51.093325], [-72.987975, -51.093933], [-72.988572, -51.094079], [-72.98852, -51.094811], [-72.98688, -51.095218], [-72.986469, -51.094809]], [[-73.045528, -51.100087], [-73.045406, -51.099574], [-73.046414, -51.09936], [-73.04613, -51.100241], [-73.045528, -51.100087]], [[-73.048664, -51.104234], [-73.046803, -51.10412], [-73.046553, -51.103402], [-73.048798, -51.102868], [-73.048664, -51.104234]], [[-73.020582, -51.089059], [-73.019198, -51.087661], [-73.020356, -51.087637], [-73.020582, -51.089059]], [[-72.991136, -51.100445], [-72.990128, -51.10013], [-72.990603, -51.098676], [-72.992362, -51.098789], [-72.992888, -51.09807], [-72.994425, -51.098546], [-72.993615, -51.099587], [-72.991984, -51.099156], [-72.991136, -51.100445]], [[-73.087813, -51.092035], [-73.086744, -51.09137], [-73.086618, -51.088811], [-73.089571, -51.087101], [-73.090205, -51.087457], [-73.090214, -51.088557], [-73.087813, -51.092035]], [[-73.080868, -51.093396], [-73.081382, -51.093145], [-73.080868, -51.093396]], [[-73.080618, -51.089147], [-73.082149, -51.087118], [-73.082278, -51.087583], [-73.082914, -51.087155], [-73.084598, -51.087694], [-73.083157, -51.089005], [-73.080618, -51.089147]]]]}}