{"type": "Feature", "properties": {"id": "lago-ranco", "name": "Lago Ranco", "type": "lake", "region": "los-rios"}, "geometry": {"type": "MultiPolygon", "coordinates": [[[[-72.430621, -40.142615], [-72.427717, -40.143833], [-72.42658, -40.142853], [-72.425528, -40.139212], [-72.426377, -40.13493], [-72.425053, -40.132878], [-72.422963, -40.132463], [-72.415804, -40.137407], [-72.41331, -40.136616], [-72.412757, -40.131842], [-72.411121, -40.130898], [-72.410365, -40.12799], [-72.407747, -40.127457], [-72.403794, -40.127915], [-72.398984, -40.130876], [-72.396497, -40.135725], [-72.392985, -40.137373], [-72.393521, -40.138526], [-72.395638, -40.139741], [-72.395117, -40.141197], [-72.395978, -40.141348], [-72.39523, -40.141765], [-72.396735, -40.142023], [-72.397231, -40.142882], [-72.399001, -40.143641], [-72.397665, -40.147007], [-72.394683, -40.149328], [-72.394576, -40.151214], [-72.393063, -40.153367], [-72.393433, -40.154445], [-72.395144, -40.154827], [-72.390112, -40.156622], [-72.386395, -40.155954], [-72.380124, -40.15365], [-72.378675, -40.151594], [-72.379005, -40.150782], [-72.378351, -40.150476], [-72.371667, -40.153045], [-72.357438, -40.155688], [-72.355673, -40.15537], [-72.35607, -40.154531], [-72.355413, -40.149417], [-72.357373, -40.147048], [-72.357926, -40.144875], [-72.357464, -40.139946], [-72.358142, -40.130306], [-72.360985, -40.127038], [-72.363465, -40.12126], [-72.360937, -40.120606], [-72.359478, -40.121776], [-72.358493, -40.123706], [-72.35508, -40.125781], [-72.347168, -40.125924], [-72.344575, -40.125651], [-72.341011, -40.123709], [-72.333952, -40.123663], [-72.326281, -40.12596], [-72.322955, -40.126083], [-72.321174, -40.127035], [-72.320868, -40.128524], [-72.319779, -40.129192], [-72.320305, -40.130821], [-72.318712, -40.131953], [-72.319795, -40.134807], [-72.327344, -40.135844], [-72.333514, -40.134341], [-72.336049, -40.135754], [-72.33829, -40.13825], [-72.337452, -40.141546], [-72.333357, -40.144949], [-72.332053, -40.14727], [-72.331667, -40.149993], [-72.326748, -40.157045], [-72.326748, -40.158008], [-72.324672, -40.158906], [-72.324151, -40.160357], [-72.318594, -40.164477], [-72.317779, -40.166548], [-72.31405, -40.169893], [-72.310654, -40.17193], [-72.309399, -40.173828], [-72.307532, -40.175377], [-72.30573, -40.175877], [-72.305537, -40.176533], [-72.303654, -40.177215], [-72.297142, -40.177217], [-72.296208, -40.178218], [-72.294824, -40.177603], [-72.291332, -40.178013], [-72.288403, -40.176763], [-72.287389, -40.175525], [-72.28799, -40.172742], [-72.28788, -40.166097], [-72.286308, -40.161774], [-72.28763, -40.157037], [-72.290645, -40.152914], [-72.290522, -40.15061], [-72.289149, -40.1493], [-72.281687, -40.151458], [-72.278543, -40.156094], [-72.278913, -40.158082], [-72.276961, -40.162973], [-72.272288, -40.168122], [-72.270829, -40.168474], [-72.272696, -40.176185], [-72.271631, -40.178304], [-72.268418, -40.179631], [-72.262525, -40.179761], [-72.260664, -40.179123], [-72.258165, -40.179568], [-72.254757, -40.180769], [-72.253156, -40.184068], [-72.253025, -40.185918], [-72.256396, -40.187957], [-72.255697, -40.188864], [-72.256038, -40.190107], [-72.260739, -40.190633], [-72.2644, -40.193616], [-72.267718, -40.194405], [-72.268871, -40.196253], [-72.269155, -40.198894], [-72.268276, -40.200322], [-72.269104, -40.202262], [-72.269016, -40.204735], [-72.271677, -40.207803], [-72.27232, -40.210622], [-72.26848, -40.213664], [-72.267852, -40.215947], [-72.266806, -40.216386], [-72.265634, -40.218995], [-72.266913, -40.219527], [-72.266146, -40.220678], [-72.266757, -40.221227], [-72.268447, -40.220961], [-72.272347, -40.22375], [-72.272551, -40.225102], [-72.271913, -40.225733], [-72.273002, -40.226814], [-72.272508, -40.226916], [-72.272857, -40.229611], [-72.272342, -40.230373], [-72.271398, -40.228686], [-72.271644, -40.227637], [-72.270582, -40.226245], [-72.270668, -40.227703], [-72.269332, -40.226568], [-72.267836, -40.226396], [-72.26937, -40.226728], [-72.27099, -40.228391], [-72.271446, -40.231972], [-72.270301, -40.233309], [-72.272066, -40.232695], [-72.269965, -40.233463], [-72.269067, -40.235318], [-72.267557, -40.234923], [-72.267036, -40.235871], [-72.265207, -40.236076], [-72.264864, -40.236659], [-72.25966, -40.236172], [-72.258177, -40.236612], [-72.257429, -40.239479], [-72.256082, -40.239915], [-72.255637, -40.241534], [-72.252888, -40.241825], [-72.252788, -40.243086], [-72.251917, -40.243733], [-72.24799, -40.244368], [-72.24696, -40.245781], [-72.24383, -40.246688], [-72.243707, -40.248577], [-72.244699, -40.250589], [-72.251222, -40.256329], [-72.252579, -40.258974], [-72.252402, -40.260272], [-72.249876, -40.264125], [-72.24927, -40.267514], [-72.251203, -40.269203], [-72.253109, -40.26889], [-72.255248, -40.269889], [-72.25784, -40.269743], [-72.259947, -40.268824], [-72.263403, -40.263992], [-72.26505, -40.263737], [-72.267108, -40.264616], [-72.270059, -40.263874], [-72.272133, -40.264198], [-72.26775, -40.268234], [-72.26768, -40.27017], [-72.263574, -40.274245], [-72.263941, -40.276786], [-72.267659, -40.277739], [-72.269162, -40.277162], [-72.268497, -40.274529], [-72.269995, -40.275728], [-72.270651, -40.274838], [-72.270623, -40.273072], [-72.271366, -40.273002], [-72.276095, -40.267672], [-72.277087, -40.267866], [-72.28038, -40.266233], [-72.289187, -40.264798], [-72.29084, -40.263573], [-72.290776, -40.262887], [-72.30303, -40.258882], [-72.307422, -40.258654], [-72.308679, -40.258951], [-72.311207, -40.261216], [-72.31403, -40.260181], [-72.312798, -40.261066], [-72.312274, -40.262492], [-72.314274, -40.26216], [-72.315114, -40.262953], [-72.312852, -40.265698], [-72.3152, -40.266807], [-72.31596, -40.266472], [-72.317219, -40.267985], [-72.31891, -40.268561], [-72.322969, -40.26475], [-72.323923, -40.264668], [-72.324256, -40.263698], [-72.326909, -40.262888], [-72.328486, -40.261185], [-72.329806, -40.262286], [-72.329417, -40.263526], [-72.331476, -40.263743], [-72.332182, -40.262892], [-72.334263, -40.262602], [-72.335299, -40.26343], [-72.33408, -40.264124], [-72.332464, -40.264024], [-72.333388, -40.266258], [-72.332696, -40.267295], [-72.333089, -40.268212], [-72.331976, -40.269186], [-72.334719, -40.269451], [-72.335482, -40.268973], [-72.336259, -40.270266], [-72.333614, -40.271039], [-72.332021, -40.272603], [-72.329781, -40.273155], [-72.329776, -40.274752], [-72.331085, -40.275537], [-72.328422, -40.277547], [-72.328625, -40.278075], [-72.329738, -40.278042], [-72.329612, -40.278767], [-72.328961, -40.279485], [-72.327582, -40.279511], [-72.327271, -40.280706], [-72.323623, -40.281152], [-72.322419, -40.281936], [-72.321276, -40.281621], [-72.320512, -40.2823], [-72.317261, -40.282319], [-72.3132, -40.283663], [-72.310176, -40.285732], [-72.304906, -40.285876], [-72.304006, -40.286481], [-72.302085, -40.285568], [-72.300508, -40.285938], [-72.30091, -40.287483], [-72.299403, -40.288218], [-72.298904, -40.289237], [-72.299561, -40.289887], [-72.299059, -40.290571], [-72.300449, -40.291411], [-72.300553, -40.292201], [-72.297539, -40.293238], [-72.298244, -40.294007], [-72.297608, -40.294564], [-72.298968, -40.294977], [-72.296007, -40.297956], [-72.291992, -40.298631], [-72.291136, -40.299296], [-72.28965, -40.298267], [-72.284256, -40.297569], [-72.283199, -40.298461], [-72.281413, -40.298265], [-72.281384, -40.298975], [-72.279055, -40.299756], [-72.275003, -40.299224], [-72.273369, -40.299836], [-72.272342, -40.298567], [-72.271942, -40.295961], [-72.270883, -40.295411], [-72.266181, -40.298054], [-72.263086, -40.298979], [-72.260771, -40.297563], [-72.261082, -40.295746], [-72.263845, -40.294339], [-72.264719, -40.292882], [-72.262959, -40.292488], [-72.261384, -40.290976], [-72.259022, -40.291049], [-72.25303, -40.295096], [-72.251641, -40.297424], [-72.249967, -40.298079], [-72.249393, -40.299204], [-72.243878, -40.301298], [-72.241602, -40.305076], [-72.240132, -40.30653], [-72.237861, -40.307091], [-72.236943, -40.308659], [-72.232914, -40.307558], [-72.229234, -40.308552], [-72.226881, -40.311264], [-72.227063, -40.313937], [-72.227986, -40.315655], [-72.227645, -40.316242], [-72.231379, -40.320005], [-72.233418, -40.325596], [-72.235614, -40.328456], [-72.239243, -40.330327], [-72.242349, -40.330998], [-72.241813, -40.331644], [-72.242172, -40.332204], [-72.243664, -40.331984], [-72.243809, -40.333104], [-72.242553, -40.335161], [-72.241931, -40.334985], [-72.242162, -40.333971], [-72.241083, -40.334838], [-72.243363, -40.335406], [-72.245407, -40.337107], [-72.247806, -40.335884], [-72.256801, -40.335456], [-72.260395, -40.333922], [-72.263391, -40.334313], [-72.267459, -40.331696], [-72.270749, -40.332805], [-72.277486, -40.333047], [-72.281322, -40.332507], [-72.286354, -40.333362], [-72.290758, -40.332254], [-72.293306, -40.332777], [-72.297801, -40.331023], [-72.299282, -40.331284], [-72.301744, -40.33009], [-72.307089, -40.329341], [-72.314963, -40.32965], [-72.316387, -40.329111], [-72.318892, -40.325619], [-72.323738, -40.325346], [-72.325725, -40.323901], [-72.326031, -40.322541], [-72.329731, -40.321283], [-72.331276, -40.318235], [-72.331463, -40.31577], [-72.335458, -40.314829], [-72.338541, -40.315696], [-72.339713, -40.315205], [-72.341765, -40.315603], [-72.342101, -40.316799], [-72.344492, -40.318573], [-72.346779, -40.318909], [-72.348328, -40.317573], [-72.353994, -40.317754], [-72.355557, -40.317198], [-72.356245, -40.316111], [-72.358359, -40.315549], [-72.358314, -40.313091], [-72.359555, -40.312118], [-72.361906, -40.311674], [-72.363173, -40.31214], [-72.365986, -40.311192], [-72.367901, -40.312411], [-72.365809, -40.313017], [-72.365829, -40.313656], [-72.36842, -40.315414], [-72.37507, -40.315027], [-72.377383, -40.313665], [-72.377645, -40.312111], [-72.380558, -40.311477], [-72.383804, -40.312037], [-72.384662, -40.311477], [-72.384002, -40.312409], [-72.384543, -40.312933], [-72.389528, -40.31326], [-72.390885, -40.312589], [-72.391668, -40.313064], [-72.391668, -40.314107], [-72.393535, -40.31364], [-72.394801, -40.31452], [-72.395611, -40.314262], [-72.395257, -40.313117], [-72.395954, -40.312487], [-72.397108, -40.312593], [-72.39861, -40.31173], [-72.400466, -40.313775], [-72.403287, -40.314229], [-72.404061, -40.315287], [-72.408657, -40.317817], [-72.42092, -40.320942], [-72.426353, -40.320451], [-72.430022, -40.318971], [-72.432028, -40.316909], [-72.432769, -40.314502], [-72.436828, -40.312897], [-72.440069, -40.312827], [-72.444357, -40.314938], [-72.451264, -40.315252], [-72.455627, -40.312393], [-72.456663, -40.310863], [-72.460258, -40.31014], [-72.461185, -40.310225], [-72.46217, -40.311544], [-72.469375, -40.316692], [-72.474039, -40.31763], [-72.476682, -40.319296], [-72.504111, -40.325121], [-72.513302, -40.324096], [-72.515651, -40.323528], [-72.520236, -40.320834], [-72.522503, -40.31825], [-72.523735, -40.314957], [-72.527162, -40.313436], [-72.529034, -40.309674], [-72.530194, -40.30876], [-72.530287, -40.30564], [-72.527376, -40.301717], [-72.527271, -40.300459], [-72.530618, -40.2988], [-72.532002, -40.297284], [-72.53275, -40.295416], [-72.531824, -40.292489], [-72.532286, -40.292003], [-72.536213, -40.291836], [-72.538522, -40.28941], [-72.538796, -40.287487], [-72.536952, -40.28532], [-72.537776, -40.283312], [-72.539022, -40.282757], [-72.544222, -40.283293], [-72.546292, -40.282331], [-72.5491, -40.279695], [-72.551955, -40.28092], [-72.554836, -40.278551], [-72.558527, -40.278943], [-72.560457, -40.277738], [-72.562947, -40.277959], [-72.563424, -40.277336], [-72.563081, -40.275446], [-72.564792, -40.274219], [-72.564937, -40.27311], [-72.57027, -40.271675], [-72.570791, -40.270336], [-72.569853, -40.269652], [-72.569858, -40.267952], [-72.570659, -40.267823], [-72.570652, -40.26664], [-72.572329, -40.265882], [-72.572253, -40.262034], [-72.574258, -40.260925], [-72.573536, -40.256092], [-72.57095, -40.25012], [-72.568013, -40.247363], [-72.565684, -40.246346], [-72.561609, -40.246816], [-72.558302, -40.242779], [-72.55401, -40.240372], [-72.551154, -40.23531], [-72.550893, -40.231891], [-72.551919, -40.229602], [-72.550086, -40.225759], [-72.551005, -40.224457], [-72.550514, -40.22277], [-72.550926, -40.220432], [-72.549798, -40.216935], [-72.548347, -40.215153], [-72.543975, -40.212627], [-72.535929, -40.210865], [-72.535986, -40.206067], [-72.536447, -40.205582], [-72.535911, -40.20241], [-72.534219, -40.200857], [-72.534051, -40.201346], [-72.529514, -40.200628], [-72.526844, -40.196762], [-72.528617, -40.195181], [-72.536291, -40.191971], [-72.537429, -40.189743], [-72.537776, -40.187351], [-72.536295, -40.18338], [-72.532428, -40.177165], [-72.527106, -40.17434], [-72.525149, -40.171601], [-72.518775, -40.165888], [-72.513181, -40.165867], [-72.507554, -40.167013], [-72.504365, -40.164592], [-72.499318, -40.163424], [-72.49506, -40.158496], [-72.487672, -40.151937], [-72.484521, -40.150461], [-72.473919, -40.150529], [-72.470539, -40.149113], [-72.468009, -40.145239], [-72.463475, -40.141397], [-72.460772, -40.140092], [-72.457369, -40.140161], [-72.454251, -40.142333], [-72.453661, -40.143667], [-72.451402, -40.144777], [-72.451375, -40.142581], [-72.447689, -40.143814], [-72.439769, -40.144218], [-72.437179, -40.144127], [-72.43375, -40.14216], [-72.430621, -40.142615]], [[-72.397971, -40.140598], [-72.398518, -40.140229], [-72.397971, -40.140598]], [[-72.391048, -40.212398], [-72.391448, -40.212779], [-72.390724, -40.213072], [-72.391048, -40.212398]], [[-72.37057, -40.216982], [-72.371516, -40.21631], [-72.37057, -40.216982]], [[-72.394655, -40.223409], [-72.395289, -40.223341], [-72.394655, -40.223409]], [[-72.43698, -40.224954], [-72.437921, -40.224995], [-72.43698, -40.224954]], [[-72.43159, -40.226986], [-72.432087, -40.227131], [-72.431309, -40.227719], [-72.43159, -40.226986]], [[-72.34743, -40.16583], [-72.348189, -40.165205], [-72.34743, -40.16583]], [[-72.549952, -40.223173], [-72.548438, -40.22258], [-72.549043, -40.223861], [-72.549952, -40.223173]], [[-72.337008, -40.267919], [-72.337669, -40.267693], [-72.33781, -40.268156], [-72.336698, -40.269279], [-72.337008, -40.267919]], [[-72.347358, -40.167804], [-72.345832, -40.168644], [-72.346923, -40.166406], [-72.348793, -40.166546], [-72.347358, -40.167804]], [[-72.33189, -40.171735], [-72.327472, -40.174209], [-72.324983, -40.173996], [-72.325337, -40.173053], [-72.324666, -40.172545], [-72.327429, -40.169442], [-72.32943, -40.168593], [-72.333056, -40.165476], [-72.340754, -40.163127], [-72.341441, -40.164246], [-72.343343, -40.164902], [-72.340776, -40.16863], [-72.33583, -40.17269], [-72.334902, -40.172541], [-72.333915, -40.170862], [-72.33189, -40.171735]], [[-72.324221, -40.249746], [-72.326426, -40.250414], [-72.321239, -40.252784], [-72.31927, -40.252755], [-72.318572, -40.252141], [-72.32104, -40.249103], [-72.324221, -40.249746]], [[-72.450697, -40.218933], [-72.452066, -40.21761], [-72.455161, -40.216994], [-72.455423, -40.217427], [-72.453138, -40.217994], [-72.451089, -40.219509], [-72.450697, -40.218933]], [[-72.435933, -40.214436], [-72.436785, -40.213731], [-72.438755, -40.213773], [-72.438849, -40.214341], [-72.435933, -40.214436]], [[-72.391174, -40.206691], [-72.392328, -40.20757], [-72.390676, -40.209077], [-72.391979, -40.209673], [-72.391212, -40.210015], [-72.391317, -40.21071], [-72.392601, -40.21053], [-72.392676, -40.210952], [-72.390085, -40.21249], [-72.389785, -40.213381], [-72.387435, -40.213493], [-72.387502, -40.214221], [-72.38843, -40.214094], [-72.388777, -40.214677], [-72.386733, -40.214704], [-72.386306, -40.21546], [-72.387374, -40.217766], [-72.386652, -40.219005], [-72.388999, -40.221412], [-72.391113, -40.221383], [-72.389388, -40.222485], [-72.389466, -40.223814], [-72.391062, -40.225051], [-72.393114, -40.225016], [-72.392923, -40.225946], [-72.394876, -40.22691], [-72.400114, -40.223478], [-72.4023, -40.223386], [-72.403977, -40.224727], [-72.404317, -40.225751], [-72.407059, -40.227344], [-72.405119, -40.228364], [-72.405948, -40.229489], [-72.401665, -40.230615], [-72.39961, -40.232114], [-72.399648, -40.232712], [-72.397357, -40.233136], [-72.395415, -40.23272], [-72.394626, -40.233742], [-72.394302, -40.236764], [-72.391142, -40.236645], [-72.388143, -40.240595], [-72.385555, -40.240523], [-72.385266, -40.241858], [-72.38305, -40.241487], [-72.380738, -40.238998], [-72.368349, -40.236361], [-72.367142, -40.23351], [-72.367399, -40.232294], [-72.370543, -40.227082], [-72.3698, -40.225176], [-72.370047, -40.224191], [-72.369596, -40.223363], [-72.368545, -40.223118], [-72.369207, -40.222255], [-72.368923, -40.221528], [-72.374191, -40.21589], [-72.371728, -40.216091], [-72.368907, -40.214327], [-72.368832, -40.213653], [-72.370157, -40.212199], [-72.370232, -40.207545], [-72.371398, -40.204573], [-72.373729, -40.203319], [-72.375886, -40.204362], [-72.379222, -40.201125], [-72.381612, -40.20034], [-72.384244, -40.200455], [-72.386684, -40.201281], [-72.386542, -40.201975], [-72.388801, -40.203571], [-72.388098, -40.204233], [-72.390786, -40.205861], [-72.391174, -40.206691]], [[-72.35364, -40.278462], [-72.353286, -40.279164], [-72.351113, -40.27972], [-72.35364, -40.278462]], [[-72.382239, -40.264512], [-72.383407, -40.266269], [-72.383422, -40.267099], [-72.382293, -40.267472], [-72.384163, -40.268788], [-72.382743, -40.268767], [-72.380631, -40.267192], [-72.379717, -40.263745], [-72.38151, -40.263473], [-72.382239, -40.264512]], [[-72.413663, -40.269365], [-72.418463, -40.268057], [-72.418635, -40.265945], [-72.415406, -40.266846], [-72.413045, -40.266789], [-72.416092, -40.264971], [-72.413775, -40.264447], [-72.411039, -40.266044], [-72.411114, -40.265176], [-72.409419, -40.264054], [-72.411007, -40.262859], [-72.4137, -40.262065], [-72.411125, -40.261353], [-72.412273, -40.259748], [-72.414118, -40.25879], [-72.417862, -40.259191], [-72.419987, -40.263039], [-72.418517, -40.265282], [-72.420298, -40.26597], [-72.422154, -40.268287], [-72.425265, -40.26931], [-72.42592, -40.270317], [-72.425147, -40.270202], [-72.424611, -40.270923], [-72.424815, -40.273288], [-72.423967, -40.274377], [-72.424182, -40.27522], [-72.422497, -40.27576], [-72.422122, -40.276505], [-72.422055, -40.278022], [-72.422937, -40.278388], [-72.421854, -40.27928], [-72.421789, -40.280704], [-72.418023, -40.280494], [-72.41547, -40.27811], [-72.414687, -40.278281], [-72.415009, -40.279067], [-72.413367, -40.281531], [-72.411929, -40.280868], [-72.41121, -40.27919], [-72.409987, -40.279902], [-72.409312, -40.278142], [-72.410674, -40.276399], [-72.409473, -40.273992], [-72.412122, -40.27012], [-72.413663, -40.269365]], [[-72.455841, -40.24814], [-72.452894, -40.24669], [-72.454966, -40.243868], [-72.454986, -40.242954], [-72.456548, -40.244306], [-72.460358, -40.24393], [-72.461708, -40.246112], [-72.461186, -40.246811], [-72.459242, -40.247222], [-72.460378, -40.248425], [-72.459898, -40.248897], [-72.455841, -40.24814]]]]}}