{"type": "Feature", "properties": {"id": "lago-chapo", "name": "Lago Chapo", "type": "lake", "region": "los-lagos"}, "geometry": {"type": "MultiPolygon", "coordinates": [[[[-72.497441, -41.477557], [-72.498393, -41.473538], [-72.500743, -41.469615], [-72.502363, -41.468795], [-72.501773, -41.466045], [-72.50836, -41.458673], [-72.508295, -41.45599], [-72.509207, -41.454236], [-72.508809, -41.453031], [-72.50534, -41.451428], [-72.505059, -41.450538], [-72.508278, -41.447391], [-72.509911, -41.441317], [-72.511631, -41.439886], [-72.51432, -41.440731], [-72.514989, -41.44279], [-72.516112, -41.443888], [-72.518779, -41.444264], [-72.519894, -41.445019], [-72.525676, -41.445058], [-72.527822, -41.446247], [-72.534655, -41.447348], [-72.538004, -41.446659], [-72.540911, -41.446965], [-72.545623, -41.445428], [-72.551635, -41.446884], [-72.55443, -41.445469], [-72.555481, -41.445445], [-72.5562, -41.446362], [-72.556071, -41.445774], [-72.5587, -41.444596], [-72.559853, -41.445099], [-72.564011, -41.444789], [-72.570797, -41.441094], [-72.573307, -41.440631], [-72.577465, -41.43741], [-72.577915, -41.436139], [-72.584674, -41.435532], [-72.581142, -41.435439], [-72.576178, -41.434294], [-72.57246, -41.434994], [-72.570743, -41.433707], [-72.568122, -41.435151], [-72.567074, -41.434453], [-72.567009, -41.432723], [-72.565852, -41.432431], [-72.563538, -41.430148], [-72.561324, -41.429618], [-72.556533, -41.426484], [-72.55705, -41.425845], [-72.556275, -41.424313], [-72.553054, -41.42332], [-72.552282, -41.420965], [-72.551121, -41.420441], [-72.550744, -41.419415], [-72.548875, -41.419178], [-72.548022, -41.418033], [-72.54661, -41.418575], [-72.545884, -41.417073], [-72.54463, -41.417637], [-72.546022, -41.415264], [-72.541591, -41.415536], [-72.540052, -41.413778], [-72.537773, -41.412908], [-72.533017, -41.413382], [-72.525976, -41.411718], [-72.523744, -41.410559], [-72.518938, -41.411203], [-72.518251, -41.410688], [-72.517392, -41.411461], [-72.515333, -41.411332], [-72.513273, -41.409787], [-72.506749, -41.410044], [-72.505376, -41.411332], [-72.503316, -41.411847], [-72.502801, -41.411332], [-72.500398, -41.411461], [-72.497308, -41.414679], [-72.498868, -41.414807], [-72.498759, -41.416486], [-72.493275, -41.416052], [-72.49124, -41.417311], [-72.490553, -41.416144], [-72.488061, -41.416231], [-72.487338, -41.417381], [-72.490125, -41.418231], [-72.491238, -41.419289], [-72.494598, -41.417505], [-72.495577, -41.420308], [-72.493045, -41.42059], [-72.491113, -41.421551], [-72.482718, -41.430163], [-72.482665, -41.434165], [-72.480657, -41.446855], [-72.474305, -41.463966], [-72.4701, -41.465671], [-72.468984, -41.46834], [-72.465036, -41.470141], [-72.459977, -41.475402], [-72.457577, -41.476585], [-72.450012, -41.473942], [-72.449971, -41.474716], [-72.450923, -41.474798], [-72.451126, -41.47543], [-72.447183, -41.478372], [-72.444436, -41.486217], [-72.43654, -41.496246], [-72.432763, -41.497018], [-72.423837, -41.501261], [-72.414867, -41.502423], [-72.413426, -41.505757], [-72.411818, -41.505235], [-72.414289, -41.506407], [-72.41422, -41.509903], [-72.415947, -41.511847], [-72.420389, -41.51337], [-72.42285, -41.512881], [-72.426893, -41.513498], [-72.436954, -41.513281], [-72.438934, -41.512751], [-72.439421, -41.51318], [-72.439674, -41.512606], [-72.441347, -41.512702], [-72.443922, -41.510388], [-72.448385, -41.509488], [-72.453019, -41.505632], [-72.460058, -41.506274], [-72.463351, -41.5103], [-72.465209, -41.51105], [-72.46526, -41.512784], [-72.466518, -41.512086], [-72.46522, -41.509943], [-72.465318, -41.508617], [-72.466709, -41.50772], [-72.468903, -41.510596], [-72.47095, -41.509975], [-72.474085, -41.511505], [-72.474081, -41.51024], [-72.475323, -41.509471], [-72.475433, -41.508344], [-72.472074, -41.503446], [-72.473104, -41.495861], [-72.470701, -41.487631], [-72.474992, -41.488146], [-72.481687, -41.483516], [-72.488668, -41.48055], [-72.489499, -41.478811], [-72.495358, -41.476969], [-72.497441, -41.477557]]]]}}