{"type": "Feature", "properties": {"id": "lago-general-carrera", "name": "Lago General Carrera", "type": "lake", "region": "aysen"}, "geometry": {"type": "MultiPolygon", "coordinates": [[[[-71.747258, -46.509881], [-71.747817, -46.509312], [-71.746906, -46.509068], [-71.74615, -46.507616], [-71.750187, -46.506242], [-71.749791, -46.505724], [-71.750793, -46.505412], [-71.750698, -46.504879], [-71.749135, -46.5051], [-71.748401, -46.50451], [-71.749668, -46.503677], [-71.748769, -46.503158], [-71.749823, -46.502405], [-71.751384, -46.502622], [-71.750675, -46.501958], [-71.751122, -46.501607], [-71.755512, -46.500746], [-71.757718, -46.500958], [-71.759923, -46.499854], [-71.768592, -46.500714], [-71.768355, -46.499439], [-71.765671, -46.498324], [-71.764251, -46.498746], [-71.764883, -46.498143], [-71.764369, -46.49774], [-71.765715, -46.495902], [-71.767663, -46.495165], [-71.768276, -46.494209], [-71.77123, -46.493187], [-71.773208, -46.493321], [-71.773592, -46.492766], [-71.780157, -46.493071], [-71.783958, -46.49509], [-71.784475, -46.494849], [-71.784011, -46.494228], [-71.785127, -46.494709], [-71.786356, -46.493644], [-71.788607, -46.49337], [-71.791081, -46.491822], [-71.791725, -46.493178], [-71.794474, -46.492564], [-71.796816, -46.49326], [-71.796847, -46.494939], [-71.801577, -46.49479], [-71.801195, -46.496016], [-71.801695, -46.496658], [-71.803206, -46.496381], [-71.804519, -46.497514], [-71.804003, -46.498639], [-71.802876, -46.49919], [-71.805145, -46.500011], [-71.805589, -46.499566], [-71.807877, -46.499882], [-71.808487, -46.501174], [-71.810168, -46.500891], [-71.812025, -46.501847], [-71.812988, -46.500882], [-71.816006, -46.50179], [-71.818261, -46.500636], [-71.819723, -46.503925], [-71.82108, -46.504328], [-71.822698, -46.503432], [-71.822906, -46.502264], [-71.825644, -46.502895], [-71.828082, -46.502668], [-71.830633, -46.501007], [-71.834141, -46.495967], [-71.840061, -46.49366], [-71.842285, -46.49048], [-71.844441, -46.489963], [-71.843572, -46.489067], [-71.845514, -46.487435], [-71.846179, -46.485762], [-71.845943, -46.484109], [-71.843255, -46.483184], [-71.842028, -46.483392], [-71.838018, -46.481246], [-71.837682, -46.478186], [-71.836626, -46.47741], [-71.83968, -46.475036], [-71.846007, -46.476207], [-71.845741, -46.475218], [-71.846445, -46.475029], [-71.845617, -46.473837], [-71.850343, -46.473386], [-71.852517, -46.475108], [-71.855594, -46.475382], [-71.854836, -46.475766], [-71.85624, -46.476019], [-71.867006, -46.474874], [-71.871408, -46.476863], [-71.871196, -46.477497], [-71.873936, -46.478513], [-71.874285, -46.479238], [-71.877305, -46.480305], [-71.878092, -46.483067], [-71.880033, -46.482816], [-71.881045, -46.483791], [-71.883058, -46.484057], [-71.88304, -46.485019], [-71.885533, -46.485101], [-71.885079, -46.486281], [-71.886243, -46.486998], [-71.890146, -46.48641], [-71.890236, -46.485192], [-71.891803, -46.484436], [-71.894293, -46.484559], [-71.892426, -46.485941], [-71.892906, -46.486325], [-71.896263, -46.486373], [-71.898148, -46.484444], [-71.89993, -46.484761], [-71.903334, -46.488988], [-71.906145, -46.4905], [-71.90659, -46.492873], [-71.905319, -46.494475], [-71.905952, -46.496188], [-71.909739, -46.497019], [-71.910044, -46.497406], [-71.909531, -46.497505], [-71.915314, -46.500443], [-71.917148, -46.500552], [-71.920486, -46.504846], [-71.922249, -46.504306], [-71.923333, -46.505552], [-71.922558, -46.506062], [-71.922768, -46.506705], [-71.926073, -46.507531], [-71.927592, -46.507254], [-71.931353, -46.505017], [-71.931919, -46.503062], [-71.939438, -46.502268], [-71.940335, -46.500567], [-71.945225, -46.501727], [-71.946378, -46.502702], [-71.943087, -46.50303], [-71.942944, -46.504185], [-71.946191, -46.505513], [-71.94736, -46.507826], [-71.949204, -46.508479], [-71.948446, -46.509497], [-71.948704, -46.510643], [-71.950573, -46.511404], [-71.95085, -46.513194], [-71.953105, -46.514741], [-71.952891, -46.515623], [-71.953787, -46.517071], [-71.959063, -46.519744], [-71.962435, -46.519898], [-71.966913, -46.518713], [-71.970115, -46.516483], [-71.971057, -46.514419], [-71.972321, -46.514104], [-71.972189, -46.511483], [-71.976851, -46.512796], [-71.982634, -46.517528], [-71.98375, -46.520086], [-71.98813, -46.524883], [-71.989999, -46.525798], [-71.996833, -46.526504], [-71.99847, -46.528037], [-71.998148, -46.529017], [-72.000328, -46.529989], [-72.001627, -46.531709], [-72.005465, -46.533111], [-72.007462, -46.534872], [-72.010912, -46.536545], [-72.012232, -46.538137], [-72.014399, -46.538126], [-72.015886, -46.539893], [-72.020005, -46.540543], [-72.02122, -46.541801], [-72.024071, -46.543017], [-72.025886, -46.542466], [-72.0263, -46.544689], [-72.028897, -46.545334], [-72.029956, -46.547487], [-72.031716, -46.547773], [-72.032198, -46.549061], [-72.033419, -46.549182], [-72.035493, -46.552553], [-72.037713, -46.553222], [-72.043254, -46.552718], [-72.04654, -46.553792], [-72.046588, -46.554768], [-72.047172, -46.554893], [-72.053735, -46.553764], [-72.054683, -46.554771], [-72.057449, -46.554521], [-72.062062, -46.553174], [-72.066303, -46.553357], [-72.067558, -46.55287], [-72.071857, -46.553873], [-72.076305, -46.553998], [-72.07775, -46.55475], [-72.077812, -46.556529], [-72.083893, -46.557639], [-72.089844, -46.562106], [-72.091965, -46.562896], [-72.099589, -46.560365], [-72.104575, -46.561055], [-72.11135, -46.563584], [-72.117498, -46.559591], [-72.122009, -46.559312], [-72.126922, -46.561509], [-72.128809, -46.561162], [-72.12978, -46.561436], [-72.12954, -46.561867], [-72.131022, -46.561487], [-72.131875, -46.562198], [-72.134055, -46.562444], [-72.139653, -46.562299], [-72.14428, -46.563594], [-72.144911, -46.56444], [-72.143961, -46.564765], [-72.150089, -46.566076], [-72.153971, -46.56835], [-72.156564, -46.57119], [-72.157415, -46.571466], [-72.15772, -46.57099], [-72.161427, -46.57247], [-72.159576, -46.572541], [-72.159806, -46.573197], [-72.16147, -46.573757], [-72.16235, -46.573292], [-72.167451, -46.575261], [-72.170565, -46.575606], [-72.173626, -46.576766], [-72.175313, -46.578185], [-72.181821, -46.577795], [-72.188424, -46.57945], [-72.192932, -46.575375], [-72.196698, -46.570279], [-72.199946, -46.564331], [-72.199154, -46.562938], [-72.196594, -46.561512], [-72.194707, -46.561702], [-72.193429, -46.562862], [-72.193917, -46.563535], [-72.192986, -46.563766], [-72.18817, -46.560266], [-72.187117, -46.560563], [-72.188012, -46.561256], [-72.185017, -46.560508], [-72.186359, -46.559946], [-72.183369, -46.558799], [-72.183401, -46.558293], [-72.181549, -46.557798], [-72.181172, -46.557115], [-72.190095, -46.55817], [-72.191151, -46.555667], [-72.192804, -46.555396], [-72.192, -46.555049], [-72.192175, -46.554528], [-72.193482, -46.555138], [-72.194375, -46.554471], [-72.192518, -46.552459], [-72.196779, -46.55313], [-72.203342, -46.551536], [-72.217931, -46.543181], [-72.22078, -46.543796], [-72.225341, -46.543644], [-72.226178, -46.543109], [-72.226715, -46.541016], [-72.227422, -46.541031], [-72.230414, -46.542835], [-72.232186, -46.544888], [-72.245217, -46.550723], [-72.249894, -46.555485], [-72.250938, -46.557855], [-72.252245, -46.558977], [-72.256667, -46.560207], [-72.258217, -46.561518], [-72.25875, -46.563314], [-72.259831, -46.563314], [-72.260232, -46.563928], [-72.263468, -46.564292], [-72.263762, -46.56298], [-72.266012, -46.564348], [-72.267036, -46.563548], [-72.274236, -46.567117], [-72.277508, -46.567572], [-72.283329, -46.56958], [-72.284535, -46.569047], [-72.286515, -46.570534], [-72.28777, -46.570189], [-72.287692, -46.569333], [-72.288706, -46.568786], [-72.291981, -46.568551], [-72.294329, -46.569931], [-72.295658, -46.569691], [-72.297973, -46.570888], [-72.301036, -46.570836], [-72.304479, -46.571972], [-72.307385, -46.571769], [-72.310113, -46.573202], [-72.310958, -46.572784], [-72.314157, -46.573569], [-72.317316, -46.57503], [-72.320917, -46.574789], [-72.32302, -46.575927], [-72.325955, -46.580163], [-72.330535, -46.582822], [-72.330781, -46.58385], [-72.332732, -46.583847], [-72.333327, -46.584794], [-72.332087, -46.585747], [-72.334034, -46.587334], [-72.332488, -46.588693], [-72.333002, -46.589657], [-72.333817, -46.589423], [-72.332842, -46.590254], [-72.333418, -46.593937], [-72.332321, -46.595231], [-72.332021, -46.597747], [-72.3327, -46.599558], [-72.334312, -46.60094], [-72.335768, -46.603539], [-72.338801, -46.604795], [-72.342001, -46.607477], [-72.344619, -46.607788], [-72.346454, -46.609028], [-72.347663, -46.608785], [-72.346671, -46.609804], [-72.348181, -46.611335], [-72.347296, -46.612597], [-72.352524, -46.616884], [-72.352827, -46.618117], [-72.353425, -46.618053], [-72.352899, -46.620042], [-72.357786, -46.622669], [-72.359801, -46.625278], [-72.35931, -46.625935], [-72.360012, -46.626764], [-72.361312, -46.626836], [-72.362963, -46.628691], [-72.365656, -46.629503], [-72.365482, -46.631129], [-72.367362, -46.63278], [-72.367252, -46.633772], [-72.368885, -46.635839], [-72.369389, -46.640443], [-72.371264, -46.644181], [-72.371803, -46.648832], [-72.374027, -46.652406], [-72.380886, -46.654669], [-72.390208, -46.655628], [-72.393481, -46.656992], [-72.395442, -46.6569], [-72.399457, -46.664771], [-72.398786, -46.66548], [-72.401112, -46.66664], [-72.402756, -46.666159], [-72.405693, -46.668418], [-72.409788, -46.668049], [-72.410296, -46.66768], [-72.409719, -46.666991], [-72.410631, -46.667225], [-72.410265, -46.666557], [-72.411322, -46.666127], [-72.411001, -46.665029], [-72.415105, -46.665276], [-72.415652, -46.663868], [-72.417722, -46.664021], [-72.418082, -46.663237], [-72.419889, -46.663768], [-72.4222, -46.66694], [-72.423463, -46.666649], [-72.424626, -46.667887], [-72.423441, -46.668222], [-72.423838, -46.668729], [-72.425402, -46.668764], [-72.427816, -46.667155], [-72.429085, -46.667536], [-72.432945, -46.672182], [-72.43248, -46.674421], [-72.433022, -46.674493], [-72.432762, -46.675279], [-72.433357, -46.675206], [-72.433464, -46.675937], [-72.435356, -46.676616], [-72.435667, -46.675583], [-72.436602, -46.675802], [-72.43687, -46.675163], [-72.439653, -46.67799], [-72.439996, -46.677233], [-72.438993, -46.675621], [-72.43911, -46.673789], [-72.440667, -46.674716], [-72.440825, -46.674238], [-72.441755, -46.674587], [-72.445106, -46.676674], [-72.446058, -46.679845], [-72.44399, -46.68135], [-72.446415, -46.682356], [-72.447745, -46.68223], [-72.449504, -46.683494], [-72.446635, -46.688877], [-72.445709, -46.688153], [-72.444843, -46.68856], [-72.445476, -46.689876], [-72.444896, -46.690726], [-72.445252, -46.691336], [-72.447918, -46.693012], [-72.451088, -46.692965], [-72.451275, -46.691851], [-72.454024, -46.69096], [-72.453654, -46.690235], [-72.454249, -46.690044], [-72.455358, -46.690175], [-72.456273, -46.691485], [-72.460324, -46.689798], [-72.462355, -46.690542], [-72.462878, -46.689936], [-72.462505, -46.689238], [-72.463144, -46.688949], [-72.464387, -46.689692], [-72.464348, -46.688366], [-72.465576, -46.688422], [-72.464523, -46.686604], [-72.466396, -46.686374], [-72.466707, -46.687586], [-72.468609, -46.688313], [-72.468427, -46.686149], [-72.4676, -46.684933], [-72.469347, -46.683834], [-72.47391, -46.682851], [-72.473593, -46.68206], [-72.474481, -46.681684], [-72.47425, -46.68056], [-72.4804, -46.679506], [-72.480281, -46.678837], [-72.48137, -46.67821], [-72.481616, -46.677163], [-72.48389, -46.679236], [-72.483685, -46.675584], [-72.489157, -46.675303], [-72.489176, -46.674296], [-72.491505, -46.675001], [-72.493163, -46.676913], [-72.494315, -46.676668], [-72.493511, -46.67422], [-72.491811, -46.67393], [-72.491838, -46.672327], [-72.493638, -46.67377], [-72.494325, -46.673313], [-72.493676, -46.671986], [-72.495863, -46.671709], [-72.494858, -46.671016], [-72.498449, -46.671935], [-72.501335, -46.676866], [-72.501513, -46.678235], [-72.500403, -46.678817], [-72.501289, -46.680249], [-72.502168, -46.680474], [-72.503172, -46.683707], [-72.502627, -46.684855], [-72.503167, -46.685014], [-72.503646, -46.687323], [-72.50187, -46.691157], [-72.499868, -46.691971], [-72.501036, -46.692505], [-72.501899, -46.693959], [-72.502472, -46.693462], [-72.503798, -46.693918], [-72.504651, -46.695159], [-72.504515, -46.695751], [-72.503569, -46.695258], [-72.502397, -46.695641], [-72.503944, -46.697429], [-72.503768, -46.702766], [-72.505057, -46.703392], [-72.505262, -46.704836], [-72.506011, -46.705426], [-72.508471, -46.706186], [-72.509591, -46.70904], [-72.520147, -46.713367], [-72.525272, -46.712404], [-72.532827, -46.713137], [-72.536216, -46.71408], [-72.54129, -46.714453], [-72.550671, -46.717568], [-72.551461, -46.720269], [-72.554883, -46.726001], [-72.55487, -46.7294], [-72.555833, -46.731803], [-72.554736, -46.735764], [-72.553164, -46.737833], [-72.553091, -46.739426], [-72.554182, -46.741482], [-72.558526, -46.746371], [-72.560427, -46.750938], [-72.56213, -46.753162], [-72.568098, -46.75578], [-72.577714, -46.758162], [-72.583304, -46.758707], [-72.592198, -46.756095], [-72.597233, -46.756067], [-72.60699, -46.759871], [-72.610134, -46.762193], [-72.612518, -46.767294], [-72.612341, -46.768475], [-72.610069, -46.771412], [-72.610373, -46.774265], [-72.611794, -46.777829], [-72.613535, -46.780325], [-72.616842, -46.781974], [-72.618655, -46.783883], [-72.623585, -46.791001], [-72.626285, -46.799296], [-72.626959, -46.803531], [-72.630151, -46.80762], [-72.634373, -46.81056], [-72.641211, -46.812682], [-72.645001, -46.813013], [-72.647902, -46.811822], [-72.649509, -46.811842], [-72.651498, -46.812883], [-72.651451, -46.814908], [-72.654272, -46.816876], [-72.660527, -46.817709], [-72.664478, -46.817121], [-72.66924, -46.818869], [-72.671792, -46.821325], [-72.67438, -46.821544], [-72.680097, -46.823661], [-72.681568, -46.825686], [-72.681065, -46.827196], [-72.683085, -46.829513], [-72.689007, -46.83381], [-72.689736, -46.835311], [-72.690316, -46.834653], [-72.690799, -46.835004], [-72.690805, -46.835481], [-72.689569, -46.835496], [-72.69167, -46.838327], [-72.692051, -46.839649], [-72.691369, -46.840732], [-72.694, -46.845425], [-72.695251, -46.84603], [-72.696067, -46.845596], [-72.696304, -46.844102], [-72.696274, -46.845006], [-72.697947, -46.846379], [-72.699371, -46.845738], [-72.699902, -46.84342], [-72.699276, -46.841579], [-72.699646, -46.841116], [-72.701249, -46.841627], [-72.701946, -46.841007], [-72.700947, -46.838703], [-72.707286, -46.84082], [-72.709231, -46.839377], [-72.709175, -46.837854], [-72.709805, -46.838374], [-72.711605, -46.837596], [-72.712744, -46.838024], [-72.713781, -46.836696], [-72.71387, -46.834247], [-72.716159, -46.826385], [-72.725602, -46.821653], [-72.728147, -46.821819], [-72.72928, -46.822894], [-72.731753, -46.823562], [-72.733215, -46.822852], [-72.734605, -46.823066], [-72.735849, -46.821963], [-72.735648, -46.82135], [-72.742442, -46.822582], [-72.743869, -46.821835], [-72.745306, -46.823046], [-72.752479, -46.825419], [-72.756395, -46.830075], [-72.75824, -46.830983], [-72.761633, -46.836585], [-72.762518, -46.836879], [-72.762691, -46.836183], [-72.763728, -46.835895], [-72.765426, -46.83809], [-72.766324, -46.843062], [-72.767381, -46.845366], [-72.766936, -46.846761], [-72.765882, -46.846687], [-72.765509, -46.847656], [-72.765702, -46.848995], [-72.76641, -46.849197], [-72.765868, -46.849806], [-72.767032, -46.852653], [-72.766963, -46.856211], [-72.768379, -46.860873], [-72.768588, -46.867483], [-72.771989, -46.873306], [-72.773083, -46.87756], [-72.773043, -46.880763], [-72.771974, -46.882923], [-72.768883, -46.885057], [-72.769103, -46.88658], [-72.768459, -46.887346], [-72.766641, -46.887196], [-72.767327, -46.889341], [-72.769428, -46.891491], [-72.768926, -46.892948], [-72.771555, -46.89517], [-72.771595, -46.896672], [-72.772823, -46.897517], [-72.778244, -46.897539], [-72.778968, -46.894491], [-72.780568, -46.891481], [-72.788212, -46.889143], [-72.789252, -46.883101], [-72.790405, -46.881033], [-72.787768, -46.880516], [-72.785432, -46.881388], [-72.784339, -46.882617], [-72.783903, -46.880574], [-72.784539, -46.879759], [-72.785754, -46.87998], [-72.786513, -46.877879], [-72.789659, -46.876759], [-72.789857, -46.875444], [-72.790708, -46.875048], [-72.790904, -46.872441], [-72.792508, -46.870567], [-72.794321, -46.869658], [-72.794866, -46.868411], [-72.794198, -46.86475], [-72.7932, -46.863877], [-72.791679, -46.85901], [-72.792111, -46.857132], [-72.795585, -46.852676], [-72.795416, -46.850624], [-72.794312, -46.849087], [-72.794382, -46.847127], [-72.795724, -46.845335], [-72.796965, -46.845226], [-72.796863, -46.843917], [-72.797533, -46.843168], [-72.798269, -46.843759], [-72.798696, -46.846215], [-72.800552, -46.846457], [-72.801586, -46.845368], [-72.802664, -46.845766], [-72.802875, -46.84476], [-72.801959, -46.844212], [-72.801923, -46.843447], [-72.804168, -46.840351], [-72.802963, -46.838394], [-72.803123, -46.837285], [-72.801754, -46.836745], [-72.800793, -46.837544], [-72.798348, -46.837221], [-72.795385, -46.83502], [-72.795102, -46.831613], [-72.792795, -46.826073], [-72.793669, -46.822541], [-72.797205, -46.8208], [-72.79878, -46.821602], [-72.799342, -46.822919], [-72.800935, -46.82345], [-72.802521, -46.827348], [-72.802041, -46.83191], [-72.802454, -46.832481], [-72.801365, -46.834402], [-72.801786, -46.835163], [-72.803173, -46.835494], [-72.803768, -46.835428], [-72.803839, -46.834652], [-72.80557, -46.835042], [-72.80763, -46.834615], [-72.808462, -46.831767], [-72.809808, -46.83097], [-72.810165, -46.8294], [-72.811514, -46.828405], [-72.812165, -46.826767], [-72.812976, -46.826896], [-72.813051, -46.824074], [-72.814293, -46.822949], [-72.812598, -46.82008], [-72.812544, -46.817984], [-72.811777, -46.817199], [-72.811474, -46.815414], [-72.81259, -46.813637], [-72.813585, -46.80657], [-72.811578, -46.80062], [-72.80792, -46.799143], [-72.796577, -46.797917], [-72.791033, -46.795271], [-72.790424, -46.793631], [-72.791432, -46.790379], [-72.793576, -46.788399], [-72.796102, -46.788223], [-72.79956, -46.789383], [-72.801046, -46.78914], [-72.80244, -46.787488], [-72.803213, -46.783144], [-72.805278, -46.780301], [-72.806834, -46.779361], [-72.811718, -46.779545], [-72.812472, -46.778486], [-72.815776, -46.776767], [-72.818652, -46.772992], [-72.81686, -46.772248], [-72.806525, -46.774792], [-72.801799, -46.7739], [-72.796204, -46.771299], [-72.792924, -46.767911], [-72.789091, -46.765129], [-72.784456, -46.760793], [-72.784912, -46.755692], [-72.784343, -46.752844], [-72.779134, -46.748069], [-72.779269, -46.738456], [-72.776415, -46.739416], [-72.773252, -46.742315], [-72.765407, -46.742987], [-72.762309, -46.742263], [-72.760373, -46.741053], [-72.758852, -46.737559], [-72.755738, -46.737431], [-72.755121, -46.738764], [-72.752715, -46.740116], [-72.751822, -46.74243], [-72.749697, -46.744897], [-72.747501, -46.746108], [-72.744035, -46.745569], [-72.740677, -46.743175], [-72.738696, -46.743], [-72.735897, -46.740699], [-72.734212, -46.741497], [-72.732062, -46.739913], [-72.731842, -46.743143], [-72.729205, -46.743996], [-72.728934, -46.74574], [-72.726987, -46.745939], [-72.727741, -46.746644], [-72.726638, -46.746902], [-72.72673, -46.747988], [-72.723547, -46.748134], [-72.722789, -46.749021], [-72.721246, -46.749155], [-72.721275, -46.749924], [-72.720442, -46.750214], [-72.719615, -46.749721], [-72.718562, -46.75017], [-72.717441, -46.749364], [-72.714649, -46.750646], [-72.711205, -46.748586], [-72.7079, -46.745384], [-72.70572, -46.742086], [-72.701817, -46.741248], [-72.699282, -46.73994], [-72.69912, -46.738321], [-72.697003, -46.736331], [-72.693559, -46.735089], [-72.690475, -46.73834], [-72.688982, -46.738611], [-72.689943, -46.735559], [-72.689635, -46.734794], [-72.688378, -46.734578], [-72.688505, -46.733837], [-72.687878, -46.733533], [-72.684458, -46.733638], [-72.684056, -46.730855], [-72.684807, -46.728969], [-72.68257, -46.726139], [-72.679721, -46.723353], [-72.678962, -46.723966], [-72.678581, -46.723095], [-72.675078, -46.722263], [-72.675502, -46.720614], [-72.677566, -46.719831], [-72.675545, -46.718446], [-72.675831, -46.717279], [-72.674958, -46.715267], [-72.674032, -46.714742], [-72.67315, -46.71191], [-72.670577, -46.708589], [-72.673215, -46.707292], [-72.675694, -46.707483], [-72.675719, -46.706509], [-72.679413, -46.707483], [-72.679515, -46.706972], [-72.67787, -46.705941], [-72.678679, -46.705811], [-72.679131, -46.704924], [-72.67944, -46.701865], [-72.676948, -46.701485], [-72.673343, -46.699848], [-72.669019, -46.699182], [-72.666592, -46.697568], [-72.665572, -46.698021], [-72.664642, -46.697449], [-72.664588, -46.69571], [-72.660479, -46.692064], [-72.654602, -46.685284], [-72.654315, -46.683475], [-72.650195, -46.680608], [-72.647301, -46.679271], [-72.64585, -46.679234], [-72.645349, -46.678275], [-72.643234, -46.676999], [-72.641919, -46.674797], [-72.642929, -46.674793], [-72.643519, -46.673481], [-72.638785, -46.669576], [-72.638391, -46.667798], [-72.637337, -46.66768], [-72.6365, -46.666595], [-72.635797, -46.664311], [-72.636331, -46.663104], [-72.632592, -46.660458], [-72.623781, -46.656134], [-72.617215, -46.654208], [-72.61873, -46.653693], [-72.615445, -46.65146], [-72.614839, -46.650036], [-72.613425, -46.649674], [-72.61136, -46.650219], [-72.608297, -46.64679], [-72.608313, -46.645446], [-72.610552, -46.645155], [-72.607682, -46.643222], [-72.608401, -46.641813], [-72.610853, -46.64317], [-72.611201, -46.642314], [-72.613361, -46.64245], [-72.615697, -46.641028], [-72.625704, -46.638868], [-72.62579, -46.637375], [-72.626581, -46.636997], [-72.628054, -46.637949], [-72.630637, -46.638327], [-72.632847, -46.638075], [-72.634167, -46.637113], [-72.638689, -46.637552], [-72.639831, -46.63699], [-72.640507, -46.6352], [-72.642598, -46.634034], [-72.643565, -46.634576], [-72.645405, -46.633551], [-72.645904, -46.634008], [-72.646658, -46.633368], [-72.648345, -46.633417], [-72.651987, -46.631055], [-72.65291, -46.631943], [-72.652942, -46.634323], [-72.662646, -46.635222], [-72.664496, -46.632837], [-72.666656, -46.63133], [-72.668674, -46.627325], [-72.670489, -46.62621], [-72.671015, -46.623284], [-72.672713, -46.622822], [-72.674442, -46.620917], [-72.674569, -46.61956], [-72.673126, -46.619478], [-72.672989, -46.618664], [-72.674011, -46.616872], [-72.682516, -46.615118], [-72.684536, -46.613802], [-72.684039, -46.612649], [-72.681293, -46.611844], [-72.680276, -46.610261], [-72.68073, -46.60879], [-72.677173, -46.608969], [-72.678485, -46.607937], [-72.680381, -46.608144], [-72.682057, -46.607444], [-72.684278, -46.604919], [-72.684313, -46.603266], [-72.683728, -46.602859], [-72.68611, -46.597793], [-72.688365, -46.595168], [-72.690758, -46.594466], [-72.692019, -46.593366], [-72.692, -46.591716], [-72.692778, -46.591118], [-72.692419, -46.590566], [-72.693701, -46.589204], [-72.692692, -46.587445], [-72.692842, -46.585957], [-72.696001, -46.582944], [-72.695782, -46.581751], [-72.69696, -46.580409], [-72.696431, -46.579518], [-72.697609, -46.578737], [-72.69722, -46.575755], [-72.693602, -46.5732], [-72.693781, -46.570585], [-72.696368, -46.568], [-72.705065, -46.564528], [-72.706229, -46.563196], [-72.70661, -46.561396], [-72.71039, -46.55983], [-72.713359, -46.556432], [-72.712441, -46.554473], [-72.710617, -46.554609], [-72.710293, -46.55408], [-72.712073, -46.546814], [-72.713587, -46.545598], [-72.713796, -46.54413], [-72.710465, -46.541988], [-72.707141, -46.541089], [-72.705563, -46.536681], [-72.705698, -46.534464], [-72.706881, -46.532561], [-72.709723, -46.530819], [-72.710086, -46.529567], [-72.712506, -46.52881], [-72.715578, -46.525924], [-72.72005, -46.524384], [-72.723727, -46.521851], [-72.722772, -46.516884], [-72.720469, -46.513362], [-72.720383, -46.511871], [-72.721857, -46.509801], [-72.721014, -46.507518], [-72.722214, -46.505998], [-72.721906, -46.503782], [-72.720316, -46.501723], [-72.719069, -46.501224], [-72.717975, -46.501237], [-72.717492, -46.502929], [-72.716371, -46.503571], [-72.713973, -46.502838], [-72.715708, -46.498719], [-72.712423, -46.496406], [-72.712921, -46.495476], [-72.714611, -46.495327], [-72.719235, -46.492683], [-72.719901, -46.487163], [-72.720998, -46.485184], [-72.720601, -46.484125], [-72.722234, -46.479374], [-72.721712, -46.477537], [-72.722091, -46.47582], [-72.719914, -46.47349], [-72.71617, -46.471336], [-72.712862, -46.470317], [-72.710904, -46.47069], [-72.705092, -46.470178], [-72.698175, -46.470886], [-72.694141, -46.472611], [-72.692413, -46.472535], [-72.689581, -46.470919], [-72.68787, -46.467111], [-72.679059, -46.461999], [-72.675084, -46.462818], [-72.671696, -46.465218], [-72.670733, -46.469291], [-72.671589, -46.470688], [-72.670859, -46.475249], [-72.671929, -46.480103], [-72.671664, -46.482419], [-72.6705, -46.48453], [-72.671503, -46.485076], [-72.670025, -46.49079], [-72.670725, -46.492736], [-72.669518, -46.495517], [-72.671232, -46.500116], [-72.675038, -46.501834], [-72.677019, -46.503451], [-72.677164, -46.504706], [-72.676582, -46.505152], [-72.680327, -46.508349], [-72.677634, -46.51178], [-72.677763, -46.514301], [-72.676738, -46.515509], [-72.674949, -46.515616], [-72.674579, -46.517021], [-72.672474, -46.518837], [-72.671846, -46.522698], [-72.672568, -46.525649], [-72.67087, -46.528114], [-72.67095, -46.5311], [-72.667694, -46.536143], [-72.667804, -46.537958], [-72.669116, -46.539802], [-72.668464, -46.541093], [-72.670181, -46.543421], [-72.670618, -46.546893], [-72.671664, -46.549147], [-72.672015, -46.55391], [-72.670824, -46.55588], [-72.666624, -46.556935], [-72.662426, -46.559849], [-72.664475, -46.559801], [-72.667125, -46.55857], [-72.66859, -46.558549], [-72.668922, -46.559314], [-72.66789, -46.559982], [-72.668041, -46.560708], [-72.667041, -46.560606], [-72.66713, -46.561568], [-72.665019, -46.563739], [-72.665949, -46.565273], [-72.66575, -46.567311], [-72.664272, -46.568732], [-72.664615, -46.570239], [-72.66207, -46.57322], [-72.662179, -46.574777], [-72.661015, -46.575444], [-72.660071, -46.579173], [-72.658407, -46.582134], [-72.656673, -46.583604], [-72.652929, -46.584178], [-72.649988, -46.586603], [-72.650166, -46.587167], [-72.652745, -46.587888], [-72.652829, -46.589807], [-72.652169, -46.590929], [-72.652821, -46.591275], [-72.652908, -46.592254], [-72.652148, -46.593852], [-72.650421, -46.595659], [-72.648272, -46.596337], [-72.648331, -46.597067], [-72.647346, -46.597842], [-72.645534, -46.598241], [-72.644467, -46.602637], [-72.642097, -46.603815], [-72.64167, -46.606078], [-72.639945, -46.606687], [-72.639961, -46.609327], [-72.639252, -46.609483], [-72.637994, -46.611717], [-72.636669, -46.612052], [-72.635465, -46.613285], [-72.631082, -46.614834], [-72.627623, -46.612856], [-72.626863, -46.611268], [-72.623796, -46.61014], [-72.623659, -46.608604], [-72.622668, -46.607583], [-72.620014, -46.607577], [-72.618214, -46.606208], [-72.618552, -46.60556], [-72.617759, -46.605012], [-72.617759, -46.603858], [-72.618426, -46.602943], [-72.617497, -46.601635], [-72.617743, -46.600874], [-72.617039, -46.600453], [-72.617253, -46.597974], [-72.616257, -46.594781], [-72.615359, -46.594269], [-72.614427, -46.594636], [-72.612572, -46.59336], [-72.614428, -46.592328], [-72.616504, -46.593369], [-72.618883, -46.592997], [-72.619012, -46.59047], [-72.617993, -46.589434], [-72.61814, -46.588675], [-72.616979, -46.58833], [-72.617432, -46.587296], [-72.617046, -46.586187], [-72.616032, -46.586861], [-72.615894, -46.587948], [-72.615096, -46.588057], [-72.613076, -46.586979], [-72.611628, -46.587108], [-72.609844, -46.58565], [-72.606837, -46.586004], [-72.605201, -46.587629], [-72.603069, -46.587502], [-72.602136, -46.590693], [-72.600105, -46.591196], [-72.597501, -46.593097], [-72.594708, -46.592088], [-72.591605, -46.591906], [-72.588236, -46.593814], [-72.581037, -46.594971], [-72.578095, -46.594245], [-72.573178, -46.594409], [-72.568581, -46.599302], [-72.56397, -46.599991], [-72.55918, -46.602557], [-72.556313, -46.606174], [-72.556368, -46.612402], [-72.555618, -46.614016], [-72.553083, -46.615332], [-72.552363, -46.616496], [-72.55127, -46.61661], [-72.550856, -46.617462], [-72.547754, -46.615661], [-72.544833, -46.616794], [-72.537695, -46.616833], [-72.533365, -46.614797], [-72.52977, -46.615729], [-72.528756, -46.616544], [-72.525052, -46.622634], [-72.523815, -46.622197], [-72.523241, -46.622739], [-72.522313, -46.622043], [-72.520736, -46.622785], [-72.519295, -46.622036], [-72.51944, -46.621262], [-72.518166, -46.621299], [-72.518056, -46.620447], [-72.5169, -46.620145], [-72.513094, -46.619797], [-72.509055, -46.62096], [-72.505069, -46.621063], [-72.500142, -46.620048], [-72.496282, -46.622857], [-72.492178, -46.624156], [-72.486709, -46.624585], [-72.481707, -46.622282], [-72.481407, -46.620821], [-72.480737, -46.620472], [-72.481106, -46.619803], [-72.480501, -46.619475], [-72.475106, -46.618863], [-72.470576, -46.620296], [-72.464667, -46.619695], [-72.464809, -46.619237], [-72.460689, -46.617876], [-72.458203, -46.617946], [-72.453815, -46.616203], [-72.450639, -46.616247], [-72.449419, -46.615081], [-72.447061, -46.614338], [-72.444076, -46.614366], [-72.441214, -46.61354], [-72.440302, -46.612009], [-72.438041, -46.610465], [-72.438105, -46.609918], [-72.435737, -46.609093], [-72.433489, -46.606725], [-72.431225, -46.607458], [-72.430042, -46.607195], [-72.427953, -46.608335], [-72.425649, -46.607438], [-72.42493, -46.606207], [-72.42408, -46.606371], [-72.424855, -46.605197], [-72.423865, -46.603931], [-72.424418, -46.602361], [-72.422497, -46.600876], [-72.422771, -46.596103], [-72.420271, -46.59165], [-72.417524, -46.590016], [-72.415883, -46.587008], [-72.414622, -46.587156], [-72.413662, -46.585445], [-72.401077, -46.576002], [-72.402142, -46.575681], [-72.400471, -46.574949], [-72.40082, -46.574365], [-72.397885, -46.571286], [-72.397864, -46.569822], [-72.396276, -46.568452], [-72.396308, -46.567611], [-72.392618, -46.565422], [-72.391872, -46.563899], [-72.39252, -46.562555], [-72.391242, -46.560363], [-72.386199, -46.558241], [-72.384659, -46.555255], [-72.377195, -46.550372], [-72.373869, -46.549592], [-72.372799, -46.550328], [-72.372466, -46.549548], [-72.370757, -46.549317], [-72.364889, -46.549743], [-72.358242, -46.547461], [-72.35578, -46.547719], [-72.35217, -46.546465], [-72.344174, -46.548129], [-72.344279, -46.546707], [-72.342321, -46.543687], [-72.335604, -46.54184], [-72.332085, -46.539776], [-72.320882, -46.537254], [-72.316327, -46.53449], [-72.311078, -46.536248], [-72.306333, -46.539088], [-72.305419, -46.538922], [-72.30529, -46.539968], [-72.304051, -46.541134], [-72.301844, -46.541947], [-72.29535, -46.541377], [-72.293365, -46.5406], [-72.293207, -46.53973], [-72.288403, -46.539285], [-72.286367, -46.538184], [-72.28277, -46.537894], [-72.278527, -46.536388], [-72.270513, -46.535661], [-72.266575, -46.533558], [-72.266866, -46.532746], [-72.264545, -46.530428], [-72.264896, -46.528109], [-72.261533, -46.527291], [-72.259687, -46.526108], [-72.258153, -46.524455], [-72.257447, -46.522471], [-72.255465, -46.521006], [-72.251206, -46.519776], [-72.245925, -46.519848], [-72.237516, -46.517779], [-72.235022, -46.518248], [-72.234265, -46.517565], [-72.234308, -46.516281], [-72.229657, -46.513903], [-72.230049, -46.513305], [-72.229346, -46.512268], [-72.227737, -46.51171], [-72.226468, -46.509814], [-72.218896, -46.506896], [-72.210477, -46.507239], [-72.204997, -46.506235], [-72.199979, -46.506635], [-72.196371, -46.505635], [-72.189609, -46.512139], [-72.189083, -46.513802], [-72.19003, -46.514667], [-72.188088, -46.516528], [-72.186141, -46.522919], [-72.184234, -46.524669], [-72.179009, -46.52692], [-72.16577, -46.52677], [-72.157036, -46.524524], [-72.15232, -46.519338], [-72.149792, -46.518093], [-72.149927, -46.517642], [-72.147733, -46.51749], [-72.144054, -46.516005], [-72.147469, -46.508245], [-72.147702, -46.504902], [-72.146485, -46.504038], [-72.146353, -46.503239], [-72.142561, -46.501936], [-72.142174, -46.500905], [-72.144071, -46.500765], [-72.14403, -46.497876], [-72.142225, -46.497656], [-72.139197, -46.495855], [-72.136422, -46.492085], [-72.131545, -46.491457], [-72.12849, -46.489405], [-72.126376, -46.488861], [-72.119453, -46.488783], [-72.117525, -46.490442], [-72.11175, -46.491594], [-72.106343, -46.490384], [-72.103321, -46.49047], [-72.100227, -46.493325], [-72.099075, -46.493453], [-72.098673, -46.492936], [-72.09933, -46.492586], [-72.095532, -46.489784], [-72.096235, -46.489101], [-72.098799, -46.489405], [-72.09975, -46.486941], [-72.098701, -46.48564], [-72.095748, -46.483745], [-72.0914, -46.482343], [-72.088753, -46.480064], [-72.085942, -46.479198], [-72.083996, -46.477254], [-72.073802, -46.473956], [-72.069832, -46.470592], [-72.066981, -46.469642], [-72.065814, -46.468613], [-72.061644, -46.468946], [-72.054989, -46.46741], [-72.052476, -46.46585], [-72.048133, -46.461354], [-72.042452, -46.457572], [-72.042224, -46.456854], [-72.039647, -46.455755], [-72.036863, -46.454963], [-72.035235, -46.455248], [-72.032365, -46.454216], [-72.031311, -46.45435], [-72.03129, -46.455016], [-72.027094, -46.455508], [-72.023307, -46.455141], [-72.020372, -46.453642], [-72.018785, -46.451206], [-72.017688, -46.451352], [-72.016848, -46.450323], [-72.013645, -46.448721], [-72.010432, -46.449129], [-72.005521, -46.44752], [-72.002493, -46.445379], [-72.003289, -46.443958], [-72.001525, -46.442221], [-71.996965, -46.440565], [-71.995001, -46.438546], [-71.994846, -46.43716], [-71.993583, -46.435596], [-71.989135, -46.433805], [-71.987617, -46.431685], [-71.986477, -46.431431], [-71.985992, -46.430498], [-71.986534, -46.429893], [-71.985831, -46.429654], [-71.985005, -46.427839], [-71.985152, -46.425811], [-71.983004, -46.422537], [-71.978184, -46.420936], [-71.972726, -46.414519], [-71.968208, -46.413693], [-71.964784, -46.409972], [-71.957829, -46.409162], [-71.957502, -46.408219], [-71.955739, -46.407446], [-71.952327, -46.40692], [-71.943223, -46.410243], [-71.942122, -46.411109], [-71.94322, -46.412189], [-71.942545, -46.412652], [-71.939909, -46.412313], [-71.939284, -46.410279], [-71.938273, -46.409842], [-71.934754, -46.410387], [-71.933857, -46.409404], [-71.931421, -46.409003], [-71.927705, -46.409521], [-71.925902, -46.409031], [-71.925329, -46.408215], [-71.924305, -46.408342], [-71.923023, -46.409543], [-71.921406, -46.409611], [-71.922268, -46.410799], [-71.918698, -46.409706], [-71.908184, -46.409633], [-71.905477, -46.408903], [-71.904796, -46.407316], [-71.903392, -46.407385], [-71.904281, -46.40652], [-71.903612, -46.405677], [-71.899059, -46.4058], [-71.896044, -46.404583], [-71.895714, -46.4039], [-71.890964, -46.403375], [-71.888778, -46.401488], [-71.887855, -46.397069], [-71.886809, -46.395438], [-71.883287, -46.393823], [-71.883322, -46.390646], [-71.885103, -46.387016], [-71.88438, -46.386837], [-71.88487, -46.386648], [-71.884596, -46.385422], [-71.882495, -46.384523], [-71.882727, -46.383705], [-71.881236, -46.38042], [-71.879605, -46.379612], [-71.871448, -46.378383], [-71.868321, -46.377545], [-71.864838, -46.375335], [-71.863218, -46.375542], [-71.858309, -46.377304], [-71.858321, -46.378977], [-71.859011, -46.379699], [-71.858489, -46.380871], [-71.859323, -46.380853], [-71.85922, -46.381575], [-71.859915, -46.382006], [-71.859196, -46.382911], [-71.855037, -46.384876], [-71.855232, -46.385538], [-71.852836, -46.38589], [-71.852804, -46.387283], [-71.854097, -46.38909], [-71.859679, -46.388713], [-71.860027, -46.389829], [-71.859262, -46.391399], [-71.861173, -46.389851], [-71.86229, -46.390247], [-71.863241, -46.389288], [-71.864651, -46.389793], [-71.864835, -46.391779], [-71.862948, -46.39413], [-71.865301, -46.396093], [-71.866226, -46.398768], [-71.868745, -46.400423], [-71.871732, -46.400489], [-71.872497, -46.401213], [-71.872733, -46.402648], [-71.870281, -46.403649], [-71.868067, -46.403019], [-71.868124, -46.401945], [-71.863584, -46.400569], [-71.86309, -46.399838], [-71.864625, -46.398897], [-71.863348, -46.397894], [-71.861928, -46.397559], [-71.861641, -46.398469], [-71.859732, -46.397043], [-71.859813, -46.39632], [-71.85861, -46.395139], [-71.857725, -46.395523], [-71.854431, -46.394364], [-71.853696, -46.395306], [-71.855411, -46.395769], [-71.853442, -46.396794], [-71.850312, -46.396116], [-71.848974, -46.394419], [-71.848429, -46.39588], [-71.847783, -46.395937], [-71.846431, -46.394456], [-71.8452, -46.394422], [-71.844374, -46.395103], [-71.845407, -46.395624], [-71.84398, -46.396237], [-71.842971, -46.39523], [-71.843274, -46.394872], [-71.839562, -46.394585], [-71.840167, -46.398056], [-71.840831, -46.398575], [-71.840257, -46.399476], [-71.838138, -46.399744], [-71.835637, -46.398806], [-71.834958, -46.399679], [-71.832442, -46.400332], [-71.829759, -46.399483], [-71.826513, -46.400301], [-71.82522, -46.399458], [-71.824664, -46.400685], [-71.823225, -46.399099], [-71.821044, -46.398569], [-71.818685, -46.396638], [-71.819244, -46.396367], [-71.818517, -46.396155], [-71.819923, -46.395879], [-71.817929, -46.393698], [-71.81801, -46.39252], [-71.816546, -46.391876], [-71.817001, -46.389182], [-71.814778, -46.389287], [-71.813686, -46.387356], [-71.812095, -46.386309], [-71.809226, -46.38682], [-71.805654, -46.388561], [-71.800313, -46.388106], [-71.80004, -46.386916], [-71.798366, -46.386417], [-71.796682, -46.383174], [-71.793176, -46.382684], [-71.792023, -46.381502], [-71.788868, -46.380238], [-71.787106, -46.377237], [-71.784826, -46.376338], [-71.784062, -46.375076], [-71.781589, -46.373477], [-71.779424, -46.37278], [-71.777687, -46.373591], [-71.776584, -46.373262], [-71.775567, -46.374048], [-71.776218, -46.374614], [-71.775951, -46.376249], [-71.77656, -46.376958], [-71.775708, -46.377235], [-71.775066, -46.379403], [-71.773384, -46.380572], [-71.771221, -46.380734], [-71.76915, -46.380038], [-71.767986, -46.381195], [-71.767247, -46.380581], [-71.76585, -46.38097], [-71.76475, -46.382317], [-71.762054, -46.381968], [-71.759176, -46.382982], [-71.757194, -46.382366], [-71.758592, -46.378388], [-71.758272, -46.376742], [-71.757201, -46.376524], [-71.757403, -46.375065], [-71.756184, -46.375264], [-71.755774, -46.374515], [-71.759795, -46.374351], [-71.761105, -46.375566], [-71.764299, -46.375416], [-71.765454, -46.376537], [-71.766511, -46.375974], [-71.765749, -46.375234], [-71.766334, -46.374761], [-71.769946, -46.375926], [-71.771405, -46.373169], [-71.771221, -46.371835], [-71.766331, -46.369848], [-71.764435, -46.371504], [-71.763662, -46.371462], [-71.762306, -46.370244], [-71.762726, -46.369224], [-71.761591, -46.367717], [-71.75872, -46.366984], [-71.757752, -46.3655], [-71.758609, -46.364825], [-71.760299, -46.365462], [-71.761074, -46.365087], [-71.760086, -46.363267], [-71.760104, -46.361426], [-71.759031, -46.360415], [-71.759725, -46.359556], [-71.763729, -46.357884], [-71.767145, -46.357421], [-71.76697, -46.356338], [-71.764707, -46.354504], [-71.762929, -46.354268], [-71.76413, -46.352998], [-71.76517, -46.353266], [-71.765629, -46.352457], [-71.766314, -46.354033], [-71.767144, -46.35408], [-71.768248, -46.352456], [-71.768428, -46.350662], [-71.767531, -46.349255], [-71.766995, -46.346299], [-71.767439, -46.345022], [-71.770806, -46.346419], [-71.77193, -46.35067], [-71.773558, -46.351313], [-71.777058, -46.347504], [-71.779389, -46.346665], [-71.785118, -46.345867], [-71.789614, -46.346285], [-71.790647, -46.34461], [-71.79199, -46.345437], [-71.794652, -46.34554], [-71.795003, -46.345903], [-71.793631, -46.346171], [-71.794501, -46.346223], [-71.794044, -46.346789], [-71.795391, -46.347607], [-71.7992, -46.346928], [-71.800372, -46.349333], [-71.803012, -46.35009], [-71.803057, -46.352511], [-71.803846, -46.353337], [-71.806772, -46.35334], [-71.808011, -46.351276], [-71.814406, -46.352065], [-71.813889, -46.352219], [-71.815723, -46.353933], [-71.820982, -46.356268], [-71.826607, -46.356518], [-71.829042, -46.358363], [-71.830534, -46.3582], [-71.833227, -46.35994], [-71.837263, -46.361258], [-71.840817, -46.361564], [-71.84472, -46.362793], [-71.846458, -46.362413], [-71.851324, -46.364771], [-71.854035, -46.367133], [-71.85422, -46.368014], [-71.858764, -46.368876], [-71.861558, -46.366], [-71.864264, -46.364396], [-71.865754, -46.362012], [-71.864319, -46.359342], [-71.862789, -46.359466], [-71.862506, -46.358883], [-71.866939, -46.356729], [-71.872296, -46.355858], [-71.873599, -46.355001], [-71.875435, -46.350783], [-71.877826, -46.350327], [-71.877023, -46.34716], [-71.877651, -46.346856], [-71.877813, -46.34498], [-71.879768, -46.344653], [-71.881143, -46.343061], [-71.881158, -46.338504], [-71.883912, -46.33819], [-71.885473, -46.338878], [-71.886758, -46.342918], [-71.889117, -46.343229], [-71.889784, -46.340201], [-71.888762, -46.338355], [-71.889055, -46.336988], [-71.890175, -46.337429], [-71.890497, -46.335341], [-71.891364, -46.334987], [-71.891425, -46.334162], [-71.892133, -46.334208], [-71.89484, -46.336869], [-71.895867, -46.336606], [-71.897216, -46.334167], [-71.898587, -46.336178], [-71.899518, -46.335975], [-71.900757, -46.33898], [-71.902204, -46.338712], [-71.904085, -46.343284], [-71.906987, -46.343573], [-71.90764, -46.343182], [-71.907042, -46.34127], [-71.90624, -46.341296], [-71.906261, -46.34018], [-71.908512, -46.337155], [-71.909495, -46.338475], [-71.907944, -46.340209], [-71.908711, -46.34136], [-71.910968, -46.339719], [-71.912501, -46.340139], [-71.914205, -46.33918], [-71.913434, -46.337687], [-71.914341, -46.336051], [-71.915935, -46.336947], [-71.916995, -46.335693], [-71.918764, -46.335114], [-71.918725, -46.333975], [-71.919347, -46.334674], [-71.920482, -46.334632], [-71.920767, -46.330947], [-71.921243, -46.330923], [-71.921576, -46.332103], [-71.922413, -46.332175], [-71.922939, -46.330702], [-71.92443, -46.330024], [-71.924959, -46.330552], [-71.924513, -46.330764], [-71.927772, -46.332125], [-71.931393, -46.330762], [-71.932611, -46.327787], [-71.933785, -46.326917], [-71.934032, -46.325448], [-71.934987, -46.325003], [-71.934469, -46.324744], [-71.934864, -46.323785], [-71.935422, -46.323655], [-71.936773, -46.325125], [-71.937634, -46.32452], [-71.937669, -46.322965], [-71.938739, -46.323197], [-71.938866, -46.321928], [-71.940014, -46.320422], [-71.939705, -46.318878], [-71.940853, -46.319472], [-71.941247, -46.31854], [-71.942937, -46.319507], [-71.942859, -46.317573], [-71.943766, -46.317755], [-71.945807, -46.319796], [-71.947703, -46.319763], [-71.949023, -46.319041], [-71.949275, -46.317518], [-71.950289, -46.317195], [-71.951131, -46.315788], [-71.954025, -46.314294], [-71.954433, -46.313207], [-71.953572, -46.312621], [-71.953009, -46.310222], [-71.950581, -46.310048], [-71.950069, -46.308651], [-71.946207, -46.305616], [-71.942865, -46.305887], [-71.943181, -46.303782], [-71.941019, -46.300924], [-71.937988, -46.299535], [-71.936111, -46.297064], [-71.93423, -46.296056], [-71.93128, -46.295834], [-71.929507, -46.295013], [-71.926321, -46.295402], [-71.924517, -46.294684], [-71.919399, -46.295252], [-71.918524, -46.296699], [-71.919312, -46.298195], [-71.91817, -46.298398], [-71.917672, -46.301775], [-71.916837, -46.301619], [-71.916867, -46.300906], [-71.914567, -46.300575], [-71.913024, -46.303501], [-71.910997, -46.304296], [-71.910417, -46.305631], [-71.907582, -46.305662], [-71.905168, -46.307328], [-71.900798, -46.306559], [-71.899273, -46.307442], [-71.896619, -46.307692], [-71.894854, -46.306241], [-71.892117, -46.307827], [-71.888557, -46.306368], [-71.887725, -46.306563], [-71.884511, -46.308825], [-71.884977, -46.310195], [-71.883378, -46.310508], [-71.882731, -46.311476], [-71.884128, -46.312766], [-71.884469, -46.313981], [-71.882253, -46.315395], [-71.880867, -46.315353], [-71.880079, -46.316633], [-71.875546, -46.317132], [-71.873049, -46.318561], [-71.86975, -46.318124], [-71.869398, -46.317237], [-71.868082, -46.31673], [-71.86217, -46.316866], [-71.858922, -46.318005], [-71.858496, -46.319542], [-71.856192, -46.320997], [-71.85345, -46.32043], [-71.852321, -46.319267], [-71.84991, -46.319624], [-71.84774, -46.318589], [-71.84355, -46.319004], [-71.841253, -46.31785], [-71.848058, -46.309959], [-71.850612, -46.312357], [-71.85311, -46.312399], [-71.852463, -46.30949], [-71.850986, -46.309168], [-71.85179, -46.308551], [-71.849807, -46.307129], [-71.850792, -46.305312], [-71.849198, -46.304331], [-71.846054, -46.30479], [-71.841293, -46.303955], [-71.833755, -46.306031], [-71.833294, -46.306885], [-71.828336, -46.307332], [-71.824198, -46.306116], [-71.823646, -46.305299], [-71.820395, -46.305039], [-71.814532, -46.302935], [-71.806838, -46.301655], [-71.803382, -46.303844], [-71.800521, -46.304786], [-71.798897, -46.307567], [-71.796326, -46.309463], [-71.784239, -46.313009], [-71.777375, -46.313739], [-71.772947, -46.319307], [-71.773653, -46.323269], [-71.770421, -46.323747], [-71.76935, -46.325641], [-71.768325, -46.326119], [-71.767935, -46.327685], [-71.763391, -46.327978], [-71.762382, -46.32865], [-71.761968, -46.331275], [-71.762868, -46.33642], [-71.761824, -46.337629], [-71.76276, -46.340308], [-71.761547, -46.341445], [-71.758558, -46.34203], [-71.758955, -46.345708], [-71.756851, -46.346567], [-71.755204, -46.345986], [-71.753347, -46.346235], [-71.754287, -46.34514], [-71.755229, -46.345086], [-71.755436, -46.343274], [-71.752739, -46.341918], [-71.75104, -46.342668], [-71.750507, -46.34672], [-71.749148, -46.346048], [-71.748227, -46.346728], [-71.746817, -46.34588], [-71.745192, -46.345945], [-71.745153, -46.344669], [-71.742948, -46.341695], [-71.743226, -46.340318], [-71.744011, -46.339861], [-71.742052, -46.338485], [-71.742287, -46.337808], [-71.743357, -46.337696], [-71.742128, -46.334378], [-71.743109, -46.330756], [-71.741033, -46.328271], [-71.740256, -46.32832], [-71.739406, -46.329715], [-71.736322, -46.328554], [-71.737279, -46.326927], [-71.736707, -46.326178], [-71.737256, -46.325923], [-71.735179, -46.323722], [-71.735554, -46.321388], [-71.734173, -46.319891], [-71.7318, -46.314957], [-71.730943, -46.312468], [-71.731355, -46.311114], [-71.729001, -46.311108], [-71.729691, -46.308853], [-71.727089, -46.307908], [-71.724957, -46.303943], [-71.721674, -46.302972], [-71.721083, -46.301851], [-71.721624, -46.30058], [-71.720949, -46.300119], [-71.71853, -46.300155], [-71.715526, -46.301145], [-71.711889, -46.3011], [-71.70962, -46.300511], [-71.708555, -46.299275], [-71.707124, -46.299114], [-71.699747, -46.301125], [-71.696566, -46.302712], [-71.693666, -46.303017], [-71.689877, -46.304939], [-71.686567, -46.305734], [-71.684935, -46.304917], [-71.684463, -46.306296], [-71.682403, -46.306402], [-71.680791, -46.308419], [-71.680569, -46.312568], [-71.682535, -46.314092], [-71.682932, -46.316031], [-71.682237, -46.317451], [-71.680483, -46.317507], [-71.660924, -46.314759], [-71.646361, -46.310446], [-71.63058, -46.303155], [-71.621895, -46.298426], [-71.610665, -46.294761], [-71.608747, -46.293571], [-71.604515, -46.292726], [-71.597887, -46.28969], [-71.596892, -46.288693], [-71.59374, -46.288294], [-71.592134, -46.287167], [-71.584425, -46.286239], [-71.576746, -46.286224], [-71.57441, -46.286344], [-71.57405, -46.287555], [-71.57147, -46.288967], [-71.568651, -46.289063], [-71.563653, -46.287962], [-71.559121, -46.29257], [-71.557361, -46.296121], [-71.557192, -46.298189], [-71.56617, -46.30231], [-71.570526, -46.303241], [-71.574656, -46.306446], [-71.585841, -46.312475], [-71.599064, -46.318626], [-71.606156, -46.323194], [-71.608855, -46.326617], [-71.611236, -46.327917], [-71.624089, -46.33164], [-71.641535, -46.334666], [-71.651126, -46.337632], [-71.658894, -46.341473], [-71.66591, -46.343317], [-71.673238, -46.344206], [-71.674295, -46.345202], [-71.673576, -46.346783], [-71.677428, -46.348498], [-71.677444, -46.349973], [-71.676218, -46.350656], [-71.67172, -46.350353], [-71.666637, -46.351664], [-71.665351, -46.353995], [-71.665378, -46.356049], [-71.66465, -46.357388], [-71.660109, -46.359396], [-71.657416, -46.361691], [-71.659712, -46.36427], [-71.659035, -46.365798], [-71.660022, -46.367399], [-71.663008, -46.368513], [-71.670995, -46.369954], [-71.668636, -46.370193], [-71.669573, -46.370879], [-71.656968, -46.368852], [-71.646931, -46.364786], [-71.646987, -46.364194], [-71.644056, -46.364443], [-71.638818, -46.366513], [-71.63404, -46.366302], [-71.621681, -46.368171], [-71.609627, -46.368749], [-71.604488, -46.370103], [-71.587279, -46.371525], [-71.581652, -46.373016], [-71.559867, -46.374845], [-71.553113, -46.376148], [-71.543816, -46.375537], [-71.532787, -46.375848], [-71.519494, -46.373494], [-71.517182, -46.372498], [-71.512258, -46.372147], [-71.501105, -46.373161], [-71.494356, -46.375034], [-71.491524, -46.377106], [-71.488997, -46.382276], [-71.489121, -46.383649], [-71.491473, -46.386559], [-71.488241, -46.389747], [-71.485366, -46.391235], [-71.474803, -46.394298], [-71.471627, -46.395985], [-71.458876, -46.39869], [-71.455293, -46.400465], [-71.450808, -46.401586], [-71.446927, -46.404684], [-71.44637, -46.404353], [-71.444891, -46.406288], [-71.445873, -46.407342], [-71.447866, -46.40781], [-71.44922, -46.409916], [-71.447445, -46.412095], [-71.441694, -46.414477], [-71.428573, -46.416807], [-71.420301, -46.419858], [-71.407759, -46.425852], [-71.395383, -46.427475], [-71.391006, -46.428625], [-71.387347, -46.428751], [-71.379617, -46.427701], [-71.365583, -46.42881], [-71.35442, -46.427838], [-71.343369, -46.428743], [-71.336203, -46.428544], [-71.331852, -46.428163], [-71.311918, -46.423937], [-71.294575, -46.422465], [-71.283884, -46.420255], [-71.275087, -46.419725], [-71.26999, -46.420982], [-71.268046, -46.422616], [-71.268134, -46.42324], [-71.261077, -46.433391], [-71.260661, -46.433324], [-71.261193, -46.43237], [-71.256682, -46.43253], [-71.256498, -46.433335], [-71.257281, -46.434295], [-71.262737, -46.435642], [-71.26389, -46.436936], [-71.263523, -46.438999], [-71.259017, -46.440417], [-71.259509, -46.441214], [-71.258488, -46.441509], [-71.259215, -46.443041], [-71.261213, -46.443498], [-71.260524, -46.443934], [-71.260897, -46.444474], [-71.265253, -46.444666], [-71.265207, -46.445415], [-71.267125, -46.445821], [-71.268845, -46.445439], [-71.269051, -46.444895], [-71.273012, -46.444509], [-71.274061, -46.445921], [-71.273219, -46.449057], [-71.273562, -46.451092], [-71.27191, -46.451959], [-71.271285, -46.453225], [-71.270604, -46.452856], [-71.270285, -46.454577], [-71.271968, -46.455943], [-71.272542, -46.455469], [-71.275563, -46.456586], [-71.275751, -46.458326], [-71.277191, -46.458853], [-71.280893, -46.4584], [-71.29458, -46.460553], [-71.297453, -46.463546], [-71.274426, -46.469714], [-71.259599, -46.475618], [-71.244514, -46.478965], [-71.227541, -46.484956], [-71.214119, -46.485551], [-71.209334, -46.487863], [-71.205241, -46.488739], [-71.195988, -46.487996], [-71.187308, -46.489511], [-71.185688, -46.490678], [-71.184599, -46.493558], [-71.184179, -46.498293], [-71.184867, -46.500375], [-71.181541, -46.504232], [-71.178167, -46.503645], [-71.168881, -46.504684], [-71.148909, -46.512046], [-71.143542, -46.515869], [-71.144865, -46.519031], [-71.144553, -46.520544], [-71.142917, -46.521884], [-71.138982, -46.522133], [-71.136786, -46.527937], [-71.13873, -46.529362], [-71.138092, -46.530589], [-71.138258, -46.533082], [-71.140562, -46.5391], [-71.142231, -46.542078], [-71.14565, -46.543641], [-71.145664, -46.545082], [-71.146487, -46.545775], [-71.145476, -46.546229], [-71.145594, -46.547078], [-71.149601, -46.553589], [-71.151533, -46.555319], [-71.161698, -46.556985], [-71.16625, -46.556526], [-71.169242, -46.554519], [-71.171561, -46.554153], [-71.170965, -46.553442], [-71.171595, -46.552836], [-71.176464, -46.55441], [-71.177554, -46.555587], [-71.180141, -46.555034], [-71.18101, -46.553705], [-71.183016, -46.553546], [-71.183555, -46.554839], [-71.183132, -46.555505], [-71.185267, -46.557953], [-71.183208, -46.559097], [-71.180763, -46.558521], [-71.18059, -46.5591], [-71.179706, -46.558864], [-71.178806, -46.561353], [-71.183156, -46.571618], [-71.186385, -46.577101], [-71.196084, -46.590216], [-71.20125, -46.59575], [-71.202752, -46.596746], [-71.206692, -46.597797], [-71.21494, -46.603572], [-71.222144, -46.605833], [-71.233219, -46.607642], [-71.24512, -46.610565], [-71.250047, -46.60978], [-71.256997, -46.606168], [-71.263775, -46.60444], [-71.273211, -46.605061], [-71.281671, -46.608892], [-71.287574, -46.610454], [-71.298075, -46.608122], [-71.306655, -46.60273], [-71.314015, -46.600246], [-71.316403, -46.598867], [-71.31931, -46.598182], [-71.325603, -46.59831], [-71.329009, -46.596545], [-71.332257, -46.595806], [-71.334837, -46.596082], [-71.340022, -46.59855], [-71.344236, -46.599215], [-71.347677, -46.598655], [-71.351832, -46.596827], [-71.355796, -46.596423], [-71.360562, -46.597804], [-71.369398, -46.598742], [-71.375808, -46.597573], [-71.3832, -46.59249], [-71.398213, -46.591843], [-71.400187, -46.592385], [-71.40027, -46.59414], [-71.401906, -46.594604], [-71.40829, -46.59388], [-71.41186, -46.594239], [-71.412597, -46.594984], [-71.413657, -46.594993], [-71.413692, -46.595596], [-71.415381, -46.595878], [-71.415904, -46.596831], [-71.419802, -46.599114], [-71.423616, -46.5998], [-71.426727, -46.598996], [-71.428122, -46.597754], [-71.447863, -46.594355], [-71.45275, -46.592396], [-71.458361, -46.58845], [-71.460813, -46.588037], [-71.464005, -46.589194], [-71.467212, -46.589025], [-71.485461, -46.585538], [-71.507953, -46.577522], [-71.517005, -46.573475], [-71.528576, -46.571795], [-71.538868, -46.568149], [-71.551219, -46.565498], [-71.569351, -46.557994], [-71.579168, -46.556337], [-71.594108, -46.555083], [-71.597691, -46.552497], [-71.597919, -46.550737], [-71.601709, -46.54838], [-71.608282, -46.542028], [-71.6093, -46.540425], [-71.608989, -46.538137], [-71.609485, -46.537374], [-71.613467, -46.535488], [-71.61446, -46.534115], [-71.626984, -46.530279], [-71.633654, -46.529613], [-71.637407, -46.528432], [-71.642196, -46.528267], [-71.651325, -46.52671], [-71.662509, -46.527911], [-71.666452, -46.526634], [-71.669171, -46.527137], [-71.670175, -46.526148], [-71.674815, -46.526428], [-71.675544, -46.525547], [-71.682366, -46.526887], [-71.688564, -46.530783], [-71.694536, -46.533186], [-71.703711, -46.535083], [-71.716532, -46.538916], [-71.721314, -46.539156], [-71.725503, -46.537106], [-71.730426, -46.535896], [-71.732641, -46.536072], [-71.735022, -46.534742], [-71.736839, -46.531066], [-71.735758, -46.530497], [-71.736678, -46.527125], [-71.736162, -46.526883], [-71.739026, -46.521884], [-71.74153, -46.521652], [-71.743539, -46.517282], [-71.742415, -46.516644], [-71.740816, -46.517933], [-71.740371, -46.51744], [-71.739144, -46.518072], [-71.739339, -46.513258], [-71.74139, -46.511324], [-71.744806, -46.510441], [-71.746915, -46.510587], [-71.747258, -46.509881]], [[-72.129325, -46.495636], [-72.128326, -46.495165], [-72.129073, -46.494215], [-72.131415, -46.49476], [-72.130301, -46.49572], [-72.129325, -46.495636]], [[-71.877534, -46.387214], [-71.878425, -46.38744], [-71.878355, -46.389923], [-71.876743, -46.388859], [-71.876158, -46.386141], [-71.876858, -46.385793], [-71.877534, -46.387214]], [[-72.665115, -46.567801], [-72.665115, -46.567801]], [[-71.748387, -46.352489], [-71.748387, -46.352489]], [[-71.168611, -46.554138], [-71.168611, -46.554138]], [[-71.165186, -46.554525], [-71.164134, -46.554519], [-71.165186, -46.554525]], [[-71.162629, -46.553614], [-71.163089, -46.552854], [-71.164444, -46.552742], [-71.162629, -46.553614]], [[-71.157757, -46.526402], [-71.156629, -46.52669], [-71.157757, -46.526402]], [[-71.342318, -46.460667], [-71.340533, -46.463534], [-71.336994, -46.464836], [-71.333948, -46.46518], [-71.334802, -46.464372], [-71.334709, -46.462618], [-71.3364, -46.461404], [-71.342318, -46.460667]], [[-71.737219, -46.33129], [-71.737219, -46.33129]], [[-71.73766, -46.333387], [-71.738128, -46.333273], [-71.73766, -46.333387]], [[-71.738432, -46.336761], [-71.737849, -46.337298], [-71.738181, -46.337884], [-71.737178, -46.337705], [-71.737406, -46.336993], [-71.738432, -46.336761]], [[-71.737906, -46.334888], [-71.738081, -46.335413], [-71.739357, -46.335546], [-71.738954, -46.336256], [-71.739631, -46.336225], [-71.739247, -46.336663], [-71.739812, -46.337247], [-71.738049, -46.335788], [-71.736553, -46.335957], [-71.736362, -46.334925], [-71.737906, -46.334888]], [[-71.748053, -46.352032], [-71.748053, -46.352032]], [[-71.754077, -46.354952], [-71.753579, -46.356526], [-71.752776, -46.35586], [-71.751481, -46.356546], [-71.750647, -46.356074], [-71.750631, -46.355231], [-71.749289, -46.354306], [-71.749595, -46.352265], [-71.748243, -46.350943], [-71.748005, -46.351768], [-71.747222, -46.351605], [-71.746601, -46.3504], [-71.747839, -46.350288], [-71.747454, -46.349754], [-71.74806, -46.349272], [-71.749582, -46.349467], [-71.75019, -46.348903], [-71.751624, -46.349686], [-71.75253, -46.34935], [-71.753389, -46.350307], [-71.75349, -46.351765], [-71.75207, -46.352178], [-71.753482, -46.352891], [-71.754077, -46.354952]], [[-71.698346, -46.366159], [-71.700806, -46.366746], [-71.700967, -46.367979], [-71.700023, -46.368586], [-71.692647, -46.369633], [-71.691177, -46.370888], [-71.692542, -46.371009], [-71.692609, -46.371554], [-71.688715, -46.372261], [-71.689187, -46.373024], [-71.687583, -46.373727], [-71.688505, -46.374305], [-71.679997, -46.375019], [-71.675255, -46.37453], [-71.674064, -46.373842], [-71.677696, -46.37396], [-71.681864, -46.372463], [-71.673893, -46.372487], [-71.675641, -46.371307], [-71.678946, -46.371569], [-71.689895, -46.37052], [-71.690783, -46.368991], [-71.690042, -46.368654], [-71.690195, -46.370074], [-71.689602, -46.37032], [-71.689527, -46.368754], [-71.691437, -46.367418], [-71.693759, -46.366552], [-71.698346, -46.366159]], [[-71.705768, -46.359376], [-71.710162, -46.359868], [-71.71301, -46.361279], [-71.707984, -46.361845], [-71.697426, -46.360779], [-71.705768, -46.359376]], [[-72.757583, -46.803331], [-72.756247, -46.804679], [-72.754962, -46.804727], [-72.757583, -46.803331]], [[-72.683756, -46.817171], [-72.683756, -46.817171]], [[-72.685331, -46.814555], [-72.685637, -46.815304], [-72.684892, -46.816589], [-72.68268, -46.817422], [-72.681121, -46.815797], [-72.683098, -46.816114], [-72.682932, -46.81522], [-72.685331, -46.814555]], [[-72.677967, -46.807866], [-72.677967, -46.807866]], [[-72.68037, -46.810224], [-72.680641, -46.810959], [-72.679603, -46.811186], [-72.679351, -46.810325], [-72.68037, -46.810224]], [[-72.570898, -46.73835], [-72.570874, -46.738984], [-72.570389, -46.738318], [-72.570898, -46.73835]], [[-72.572583, -46.738982], [-72.573095, -46.73998], [-72.571864, -46.741013], [-72.571977, -46.739054], [-72.572583, -46.738982]], [[-72.613724, -46.5941], [-72.613446, -46.594495], [-72.613724, -46.5941]], [[-72.614463, -46.596697], [-72.614463, -46.596697]], [[-72.615367, -46.595797], [-72.615367, -46.595797]], [[-72.581127, -46.620553], [-72.580721, -46.620728], [-72.581127, -46.620553]], [[-72.581288, -46.620888], [-72.581024, -46.621506], [-72.581288, -46.620888]], [[-72.593137, -46.601718], [-72.592823, -46.601966], [-72.593137, -46.601718]], [[-72.593243, -46.601971], [-72.593243, -46.601971]], [[-72.606268, -46.604288], [-72.606268, -46.604288]], [[-72.605832, -46.608908], [-72.606306, -46.609513], [-72.604582, -46.60912], [-72.605832, -46.608908]], [[-72.602874, -46.608182], [-72.603415, -46.608676], [-72.602085, -46.608241], [-72.602874, -46.608182]], [[-72.611735, -46.595102], [-72.612245, -46.595618], [-72.610358, -46.595023], [-72.611735, -46.595102]], [[-72.597507, -46.604764], [-72.597234, -46.60533], [-72.596422, -46.604824], [-72.597507, -46.604764]], [[-72.589119, -46.600362], [-72.589071, -46.601045], [-72.587925, -46.600441], [-72.589119, -46.600362]], [[-72.614216, -46.606677], [-72.614279, -46.608207], [-72.613175, -46.608519], [-72.612312, -46.607949], [-72.612281, -46.607151], [-72.614216, -46.606677]], [[-72.607682, -46.604992], [-72.608429, -46.605585], [-72.606808, -46.605477], [-72.607682, -46.604992]], [[-72.611453, -46.599111], [-72.612006, -46.599956], [-72.610403, -46.599864], [-72.610351, -46.59899], [-72.611453, -46.599111]], [[-71.795421, -46.346015], [-71.795421, -46.346015]], [[-71.82273, -46.499515], [-71.822162, -46.499537], [-71.82273, -46.499515]], [[-71.832561, -46.493636], [-71.832561, -46.493636]], [[-71.824749, -46.492531], [-71.824345, -46.492614], [-71.824749, -46.492531]], [[-71.827174, -46.492916], [-71.825641, -46.492908], [-71.827174, -46.492916]], [[-71.827184, -46.492938], [-71.829115, -46.493243], [-71.827184, -46.492938]], [[-71.843124, -46.484589], [-71.842172, -46.484377], [-71.843124, -46.484589]], [[-71.84169, -46.483971], [-71.841829, -46.484584], [-71.841291, -46.484243], [-71.84169, -46.483971]], [[-71.835872, -46.480612], [-71.837046, -46.481952], [-71.834589, -46.482155], [-71.831882, -46.480715], [-71.833157, -46.479971], [-71.835872, -46.480612]], [[-71.834837, -46.477948], [-71.834623, -46.478306], [-71.834837, -46.477948]], [[-71.834478, -46.484295], [-71.833591, -46.484694], [-71.833549, -46.485549], [-71.831582, -46.486133], [-71.829878, -46.48454], [-71.830475, -46.483905], [-71.834478, -46.484295]], [[-71.815972, -46.477232], [-71.815972, -46.477232]], [[-71.816209, -46.477802], [-71.816209, -46.477802]], [[-71.816284, -46.477268], [-71.814937, -46.474799], [-71.815631, -46.473818], [-71.817572, -46.475781], [-71.81761, -46.476728], [-71.819855, -46.476793], [-71.818642, -46.478296], [-71.816998, -46.478101], [-71.816284, -46.477268]], [[-71.76359, -46.414702], [-71.76359, -46.414702]], [[-71.767552, -46.425355], [-71.767552, -46.425355]], [[-71.756736, -46.419221], [-71.757321, -46.419516], [-71.756736, -46.419221]], [[-71.766356, -46.405429], [-71.766614, -46.405746], [-71.766356, -46.405429]], [[-71.776082, -46.392806], [-71.775705, -46.393288], [-71.774943, -46.393025], [-71.776082, -46.392806]], [[-71.765922, -46.374657], [-71.765922, -46.374657]], [[-71.758818, -46.364479], [-71.758818, -46.364479]], [[-71.913841, -46.30268], [-71.913841, -46.30268]], [[-71.765151, -46.347538], [-71.765151, -46.347538]], [[-71.723199, -46.532319], [-71.723199, -46.532319]], [[-71.731034, -46.526516], [-71.730829, -46.526866], [-71.731034, -46.526516]], [[-71.729494, -46.529556], [-71.729494, -46.529556]], [[-71.815093, -46.468549], [-71.818083, -46.470004], [-71.818255, -46.471285], [-71.817033, -46.472427], [-71.813035, -46.471093], [-71.813786, -46.470242], [-71.812248, -46.469658], [-71.815093, -46.468549]], [[-71.737383, -46.519352], [-71.736921, -46.519785], [-71.737383, -46.519352]], [[-71.813034, -46.468499], [-71.813363, -46.468168], [-71.813034, -46.468499]], [[-71.812111, -46.468406], [-71.812111, -46.468406]], [[-71.80988, -46.469334], [-71.809407, -46.469443], [-71.80988, -46.469334]], [[-71.810017, -46.467875], [-71.811214, -46.46781], [-71.811959, -46.468876], [-71.810229, -46.46928], [-71.810351, -46.468705], [-71.809472, -46.468505], [-71.810017, -46.467875]], [[-71.982025, -46.489784], [-71.983768, -46.49197], [-71.982966, -46.493597], [-71.980115, -46.492677], [-71.979619, -46.492208], [-71.980523, -46.491462], [-71.979209, -46.491555], [-71.97968, -46.49128], [-71.978502, -46.49008], [-71.979575, -46.489283], [-71.982025, -46.489784]], [[-71.804248, -46.467479], [-71.803346, -46.467909], [-71.804248, -46.467479]], [[-71.80372, -46.468006], [-71.804176, -46.467885], [-71.80372, -46.468006]], [[-71.804842, -46.467849], [-71.805109, -46.468236], [-71.804082, -46.468395], [-71.804842, -46.467849]], [[-71.836421, -46.399779], [-71.836421, -46.399779]], [[-71.845581, -46.396387], [-71.844992, -46.396475], [-71.845581, -46.396387]], [[-71.83336, -46.403121], [-71.832412, -46.403179], [-71.83336, -46.403121]], [[-71.845013, -46.409794], [-71.843171, -46.409467], [-71.843813, -46.40917], [-71.845013, -46.409794]], [[-71.780873, -46.406695], [-71.780873, -46.406695]], [[-71.78006, -46.407399], [-71.77987, -46.40807], [-71.778308, -46.407839], [-71.776446, -46.406743], [-71.778424, -46.406427], [-71.78006, -46.407399]], [[-71.780405, -46.407793], [-71.780405, -46.407793]], [[-71.792562, -46.408689], [-71.792562, -46.408689]], [[-71.793365, -46.408426], [-71.793527, -46.408913], [-71.793365, -46.408426]], [[-71.789448, -46.417928], [-71.790119, -46.417663], [-71.789448, -46.417928]], [[-71.767514, -46.431198], [-71.766993, -46.431558], [-71.766482, -46.430874], [-71.767147, -46.430364], [-71.767514, -46.431198]], [[-71.803032, -46.408674], [-71.802681, -46.408944], [-71.803032, -46.408674]], [[-71.80302, -46.40781], [-71.803343, -46.408248], [-71.802258, -46.408884], [-71.799558, -46.408882], [-71.800305, -46.408689], [-71.800945, -46.407195], [-71.80302, -46.40781]], [[-71.766802, -46.390014], [-71.766802, -46.390014]], [[-71.768025, -46.389268], [-71.767599, -46.389322], [-71.768025, -46.389268]], [[-71.781481, -46.394666], [-71.781346, -46.395223], [-71.781481, -46.394666]], [[-71.77543, -46.394624], [-71.774845, -46.395001], [-71.77543, -46.394624]], [[-71.766817, -46.393291], [-71.766817, -46.393291]], [[-71.766776, -46.39311], [-71.766776, -46.39311]], [[-71.765211, -46.393662], [-71.765714, -46.393259], [-71.765211, -46.393662]], [[-71.765099, -46.393676], [-71.765099, -46.393676]], [[-71.765699, -46.395323], [-71.765666, -46.395724], [-71.765699, -46.395323]], [[-71.764901, -46.395674], [-71.765186, -46.396388], [-71.764068, -46.396008], [-71.764901, -46.395674]], [[-71.757449, -46.378569], [-71.757441, -46.379123], [-71.757449, -46.378569]], [[-71.755903, -46.364745], [-71.755876, -46.366334], [-71.755315, -46.366595], [-71.754287, -46.365371], [-71.755903, -46.364745]], [[-71.919538, -46.296104], [-71.919489, -46.296505], [-71.919538, -46.296104]], [[-71.895398, -46.308678], [-71.895398, -46.308678]], [[-71.895112, -46.307219], [-71.89549, -46.308404], [-71.894205, -46.308272], [-71.895112, -46.307219]], [[-71.849853, -46.310122], [-71.849198, -46.309945], [-71.849853, -46.310122]], [[-71.883099, -46.333357], [-71.882649, -46.333707], [-71.883099, -46.333357]], [[-71.881858, -46.334841], [-71.881407, -46.334792], [-71.881858, -46.334841]], [[-71.780607, -46.321374], [-71.780203, -46.321443], [-71.780607, -46.321374]], [[-71.784184, -46.341686], [-71.784184, -46.341686]], [[-71.784445, -46.341737], [-71.784445, -46.341737]], [[-71.785351, -46.341826], [-71.784618, -46.341767], [-71.785351, -46.341826]], [[-71.920478, -46.329707], [-71.920953, -46.330769], [-71.920478, -46.329707]], [[-71.948095, -46.316355], [-71.948815, -46.316092], [-71.949407, -46.31689], [-71.948095, -46.316355]], [[-71.919149, -46.331018], [-71.919543, -46.331924], [-71.919072, -46.332301], [-71.91859, -46.331729], [-71.919149, -46.331018]], [[-71.924587, -46.328876], [-71.923112, -46.32967], [-71.922627, -46.329344], [-71.923826, -46.328633], [-71.924587, -46.328876]], [[-71.929306, -46.314416], [-71.929489, -46.315289], [-71.92859, -46.315302], [-71.929306, -46.314416]], [[-71.929199, -46.315523], [-71.928831, -46.316497], [-71.927828, -46.31643], [-71.929199, -46.315523]], [[-71.78107, -46.323308], [-71.781101, -46.323877], [-71.779414, -46.324516], [-71.779733, -46.324827], [-71.778681, -46.324915], [-71.778813, -46.323327], [-71.78107, -46.323308]], [[-71.787061, -46.339181], [-71.788635, -46.340019], [-71.788833, -46.340916], [-71.786564, -46.340712], [-71.785082, -46.338905], [-71.787061, -46.339181]], [[-71.78175, -46.337438], [-71.782393, -46.33734], [-71.782571, -46.338954], [-71.781305, -46.33924], [-71.780283, -46.340599], [-71.775779, -46.339914], [-71.78175, -46.337438]], [[-72.770707, -46.808266], [-72.774768, -46.811824], [-72.77564, -46.813643], [-72.779588, -46.816446], [-72.779226, -46.818236], [-72.781015, -46.819485], [-72.780741, -46.821229], [-72.779062, -46.82122], [-72.777826, -46.81962], [-72.774516, -46.819335], [-72.77363, -46.819896], [-72.773912, -46.820739], [-72.772748, -46.820961], [-72.771117, -46.820212], [-72.769704, -46.818518], [-72.768414, -46.818968], [-72.767373, -46.818461], [-72.765879, -46.816764], [-72.765364, -46.815603], [-72.766304, -46.814544], [-72.765816, -46.812676], [-72.767158, -46.81003], [-72.768838, -46.808288], [-72.770707, -46.808266]], [[-72.601779, -46.693961], [-72.602605, -46.694134], [-72.603235, -46.696426], [-72.603823, -46.696687], [-72.602288, -46.697195], [-72.6012, -46.69636], [-72.600684, -46.69459], [-72.601779, -46.693961]], [[-72.563724, -46.690202], [-72.563431, -46.691094], [-72.561194, -46.69172], [-72.560323, -46.689244], [-72.56164, -46.688986], [-72.563724, -46.690202]], [[-72.563801, -46.693234], [-72.563447, -46.693], [-72.565161, -46.691707], [-72.564855, -46.691067], [-72.567168, -46.692351], [-72.563801, -46.693234]], [[-72.577915, -46.712618], [-72.572122, -46.71065], [-72.567243, -46.712702], [-72.561641, -46.713486], [-72.559869, -46.710946], [-72.560125, -46.709555], [-72.555902, -46.706087], [-72.556865, -46.704871], [-72.555224, -46.704076], [-72.555468, -46.703283], [-72.557828, -46.702886], [-72.557655, -46.704381], [-72.559148, -46.704974], [-72.561098, -46.704895], [-72.564164, -46.703624], [-72.565196, -46.702495], [-72.564888, -46.700525], [-72.563796, -46.699292], [-72.564172, -46.698505], [-72.567511, -46.698115], [-72.568396, -46.696349], [-72.566924, -46.695836], [-72.56786, -46.695286], [-72.567003, -46.694826], [-72.569418, -46.69515], [-72.569799, -46.694334], [-72.568568, -46.693679], [-72.569323, -46.692638], [-72.572042, -46.692287], [-72.576864, -46.695271], [-72.579275, -46.699382], [-72.58207, -46.700911], [-72.581863, -46.703755], [-72.578044, -46.706422], [-72.57766, -46.708235], [-72.578406, -46.709491], [-72.577843, -46.709914], [-72.577915, -46.712618]], [[-72.636682, -46.631872], [-72.636968, -46.630287], [-72.638423, -46.628595], [-72.642685, -46.626425], [-72.643806, -46.626974], [-72.642406, -46.629634], [-72.640427, -46.6304], [-72.642109, -46.630818], [-72.642042, -46.631382], [-72.64062, -46.632023], [-72.636682, -46.631872]], [[-72.700996, -46.534777], [-72.70422, -46.538958], [-72.704532, -46.539901], [-72.704092, -46.540239], [-72.701756, -46.53999], [-72.700205, -46.537348], [-72.696351, -46.537043], [-72.694937, -46.534658], [-72.69774, -46.532466], [-72.698995, -46.530639], [-72.699733, -46.530928], [-72.70009, -46.52995], [-72.701951, -46.531932], [-72.700841, -46.533683], [-72.700996, -46.534777]], [[-72.586984, -46.620993], [-72.584795, -46.622516], [-72.584111, -46.621989], [-72.582577, -46.622859], [-72.581544, -46.620638], [-72.581991, -46.619346], [-72.584914, -46.619023], [-72.586993, -46.620437], [-72.586984, -46.620993]], [[-72.603003, -46.619735], [-72.602389, -46.62066], [-72.602756, -46.621019], [-72.600939, -46.621718], [-72.599264, -46.620709], [-72.600062, -46.618781], [-72.602172, -46.618901], [-72.603003, -46.619735]], [[-72.61258, -46.609758], [-72.61283, -46.611294], [-72.612278, -46.611551], [-72.608727, -46.610357], [-72.607835, -46.608924], [-72.611794, -46.609081], [-72.61258, -46.609758]], [[-72.464757, -46.669729], [-72.464002, -46.670518], [-72.462215, -46.67032], [-72.462299, -46.671172], [-72.458482, -46.672531], [-72.457243, -46.671872], [-72.455708, -46.669277], [-72.457881, -46.667415], [-72.458986, -46.66768], [-72.460687, -46.666947], [-72.460763, -46.666315], [-72.464561, -46.668997], [-72.464757, -46.669729]], [[-72.166014, -46.540235], [-72.171327, -46.538835], [-72.176482, -46.539995], [-72.182681, -46.542971], [-72.18392, -46.544617], [-72.18417, -46.546417], [-72.172306, -46.545294], [-72.170354, -46.543993], [-72.166711, -46.543757], [-72.164541, -46.542183], [-72.16566, -46.541447], [-72.166014, -46.540235]], [[-72.15603, -46.540964], [-72.156913, -46.540813], [-72.16088, -46.543239], [-72.162581, -46.543512], [-72.163243, -46.544504], [-72.162103, -46.544045], [-72.162232, -46.54508], [-72.159077, -46.545642], [-72.151696, -46.545489], [-72.148335, -46.544381], [-72.150089, -46.542418], [-72.15603, -46.540964]], [[-72.17707, -46.562837], [-72.176107, -46.563325], [-72.175208, -46.56291], [-72.175495, -46.562423], [-72.17707, -46.562837]], [[-72.168119, -46.556573], [-72.173422, -46.556743], [-72.179374, -46.55898], [-72.18038, -46.559674], [-72.181099, -46.561359], [-72.179481, -46.562554], [-72.177875, -46.561641], [-72.171963, -46.560914], [-72.1717, -46.56], [-72.168548, -46.559556], [-72.167915, -46.558434], [-72.168119, -46.556573]], [[-71.75779, -46.49196], [-71.758787, -46.493416], [-71.758404, -46.494503], [-71.754737, -46.49496], [-71.753341, -46.494324], [-71.75426, -46.493413], [-71.756244, -46.493354], [-71.755723, -46.492079], [-71.75779, -46.49196]], [[-71.733165, -46.521323], [-71.73446, -46.521026], [-71.732889, -46.524021], [-71.733103, -46.524707], [-71.731386, -46.526105], [-71.729371, -46.52565], [-71.72972, -46.526117], [-71.727443, -46.527195], [-71.726121, -46.529137], [-71.725071, -46.529364], [-71.725203, -46.52779], [-71.724051, -46.527432], [-71.724752, -46.526384], [-71.724389, -46.526096], [-71.727757, -46.525238], [-71.727773, -46.524772], [-71.729148, -46.524912], [-71.73119, -46.522163], [-71.733165, -46.521323]], [[-71.72974, -46.529315], [-71.728783, -46.529296], [-71.730929, -46.527606], [-71.732013, -46.52764], [-71.73226, -46.528537], [-71.731414, -46.52975], [-71.730638, -46.530002], [-71.72974, -46.529315]], [[-71.725251, -46.531363], [-71.724694, -46.532338], [-71.722992, -46.532258], [-71.724722, -46.529882], [-71.725467, -46.530568], [-71.725251, -46.531363]], [[-71.760146, -46.419433], [-71.763345, -46.419992], [-71.763188, -46.421324], [-71.765164, -46.422398], [-71.764899, -46.423132], [-71.76322, -46.424124], [-71.759618, -46.423621], [-71.760275, -46.423549], [-71.759263, -46.422079], [-71.758398, -46.421927], [-71.759504, -46.420076], [-71.757547, -46.419567], [-71.757502, -46.418785], [-71.7589, -46.41858], [-71.760146, -46.419433]], [[-71.765756, -46.406136], [-71.769111, -46.40875], [-71.768682, -46.409988], [-71.766835, -46.410161], [-71.76588, -46.409009], [-71.762795, -46.408009], [-71.764263, -46.405804], [-71.765277, -46.405609], [-71.765756, -46.406136]], [[-71.760083, -46.35751], [-71.760527, -46.358192], [-71.759752, -46.357972], [-71.760083, -46.35751]], [[-71.885152, -46.333482], [-71.884148, -46.332487], [-71.885152, -46.333482]], [[-71.88884, -46.334195], [-71.884534, -46.335409], [-71.882394, -46.334949], [-71.883518, -46.334655], [-71.883663, -46.333603], [-71.887069, -46.333916], [-71.888351, -46.333467], [-71.88884, -46.334195]], [[-71.882949, -46.332832], [-71.879784, -46.331923], [-71.878752, -46.330465], [-71.881888, -46.330366], [-71.882405, -46.331923], [-71.883259, -46.332394], [-71.882949, -46.332832]], [[-71.797537, -46.405939], [-71.797937, -46.407757], [-71.792264, -46.407976], [-71.791882, -46.410077], [-71.789585, -46.410431], [-71.788512, -46.409824], [-71.783957, -46.409725], [-71.782875, -46.40862], [-71.782749, -46.409188], [-71.780842, -46.408758], [-71.780787, -46.407555], [-71.780198, -46.407643], [-71.781223, -46.407209], [-71.781338, -46.406452], [-71.783058, -46.406768], [-71.783308, -46.405848], [-71.781632, -46.40569], [-71.780743, -46.403508], [-71.777492, -46.403282], [-71.778032, -46.402541], [-71.775823, -46.401381], [-71.776544, -46.401003], [-71.776064, -46.399936], [-71.780592, -46.39948], [-71.781351, -46.397884], [-71.78115, -46.396817], [-71.783095, -46.394965], [-71.783733, -46.395786], [-71.787032, -46.396438], [-71.791434, -46.400202], [-71.791215, -46.401539], [-71.789805, -46.401197], [-71.788905, -46.401702], [-71.794162, -46.403764], [-71.797537, -46.405939]], [[-71.772491, -46.389224], [-71.772734, -46.387412], [-71.775291, -46.386478], [-71.776179, -46.387375], [-71.780301, -46.387924], [-71.781513, -46.388586], [-71.781409, -46.389223], [-71.78633, -46.391171], [-71.786492, -46.391963], [-71.785326, -46.39265], [-71.78004, -46.392401], [-71.778835, -46.391798], [-71.778504, -46.390791], [-71.774434, -46.390699], [-71.774171, -46.391112], [-71.775273, -46.391695], [-71.775302, -46.392366], [-71.772208, -46.393543], [-71.77276, -46.395041], [-71.772278, -46.395817], [-71.770695, -46.396199], [-71.770256, -46.397219], [-71.769154, -46.39717], [-71.769111, -46.396519], [-71.770566, -46.396145], [-71.767993, -46.395137], [-71.767608, -46.392472], [-71.769074, -46.391293], [-71.767728, -46.390647], [-71.769675, -46.389031], [-71.769892, -46.388488], [-71.769084, -46.388397], [-71.769025, -46.387751], [-71.771243, -46.386883], [-71.771425, -46.386239], [-71.772188, -46.386541], [-71.770496, -46.389023], [-71.772491, -46.389224]], [[-71.785507, -46.417378], [-71.788269, -46.41778], [-71.789221, -46.418564], [-71.791966, -46.417351], [-71.795002, -46.417884], [-71.796832, -46.41892], [-71.797662, -46.421092], [-71.797101, -46.422126], [-71.796174, -46.422295], [-71.796757, -46.423039], [-71.796342, -46.424405], [-71.795437, -46.424854], [-71.792796, -46.4239], [-71.793176, -46.424983], [-71.791371, -46.425081], [-71.791078, -46.426027], [-71.790329, -46.426083], [-71.790223, -46.425251], [-71.789535, -46.425142], [-71.788766, -46.426555], [-71.787157, -46.426112], [-71.785892, -46.426908], [-71.784875, -46.425959], [-71.784235, -46.426547], [-71.784573, -46.426993], [-71.783575, -46.427156], [-71.781925, -46.425816], [-71.77876, -46.424786], [-71.778558, -46.424133], [-71.773297, -46.423134], [-71.772691, -46.42351], [-71.770173, -46.42164], [-71.7687, -46.422019], [-71.766729, -46.419645], [-71.765277, -46.41948], [-71.763061, -46.416519], [-71.764463, -46.415201], [-71.764541, -46.413856], [-71.763496, -46.413194], [-71.764066, -46.412298], [-71.77106, -46.413494], [-71.773901, -46.412024], [-71.776862, -46.413317], [-71.779447, -46.412757], [-71.779443, -46.411609], [-71.780474, -46.4123], [-71.77999, -46.413103], [-71.780457, -46.413735], [-71.785507, -46.417378]], [[-71.746927, -46.509745], [-71.746103, -46.509807], [-71.746927, -46.509745]], [[-71.80671, -46.499471], [-71.806179, -46.498919], [-71.806789, -46.496753], [-71.807936, -46.499012], [-71.80671, -46.499471]], [[-72.177457, -46.547045], [-72.176016, -46.54695], [-72.177457, -46.547045]], [[-72.159925, -46.546259], [-72.16033, -46.545585], [-72.161583, -46.545463], [-72.161953, -46.546266], [-72.159925, -46.546259]], [[-71.936057, -46.500962], [-71.93548, -46.501208], [-71.936057, -46.500962]], [[-71.931465, -46.504188], [-71.931465, -46.504188]], [[-72.614731, -46.6055], [-72.614269, -46.605489], [-72.614731, -46.6055]], [[-72.191189, -46.565601], [-72.189663, -46.564946], [-72.191569, -46.565354], [-72.191189, -46.565601]], [[-72.564668, -46.691379], [-72.564131, -46.691243], [-72.564668, -46.691379]], [[-72.193006, -46.515832], [-72.19256, -46.515375], [-72.194059, -46.515046], [-72.190976, -46.515276], [-72.191489, -46.515859], [-72.193006, -46.515832]], [[-72.121356, -46.491366], [-72.119082, -46.490742], [-72.121356, -46.491366]], [[-71.68578, -46.305912], [-71.68578, -46.305912]], [[-71.878807, -46.330939], [-71.878807, -46.330939]], [[-71.724544, -46.30488], [-71.724544, -46.30488]], [[-71.84417, -46.48998], [-71.842896, -46.489488], [-71.84417, -46.48998]], [[-71.813086, -46.498112], [-71.811878, -46.497282], [-71.812201, -46.496791], [-71.811297, -46.496623], [-71.810272, -46.498088], [-71.812997, -46.500346], [-71.813381, -46.499496], [-71.812574, -46.499052], [-71.813305, -46.498669], [-71.813086, -46.498112]], [[-71.913071, -46.336988], [-71.913182, -46.337756], [-71.913071, -46.336988]], [[-71.918106, -46.334691], [-71.918106, -46.334691]], [[-72.527369, -46.621959], [-72.526499, -46.621758], [-72.527369, -46.621959]], [[-72.016764, -46.539835], [-72.016764, -46.539835]], [[-72.56671, -46.695834], [-72.56615, -46.695679], [-72.56671, -46.695834]], [[-72.565969, -46.693197], [-72.565475, -46.693259], [-72.565969, -46.693197]], [[-72.673051, -46.719751], [-72.673871, -46.720926], [-72.673383, -46.723037], [-72.670573, -46.725031], [-72.670185, -46.724003], [-72.672639, -46.721283], [-72.671984, -46.718609], [-72.672918, -46.718625], [-72.673051, -46.719751]], [[-72.505033, -46.68978], [-72.504488, -46.690196], [-72.504792, -46.688961], [-72.505033, -46.68978]], [[-72.496616, -46.670716], [-72.495565, -46.670397], [-72.496616, -46.670716]], [[-72.405328, -46.666735], [-72.404396, -46.666574], [-72.405328, -46.666735]], [[-72.46525, -46.688163], [-72.46525, -46.688163]], [[-71.815238, -46.471931], [-71.815238, -46.471931]], [[-72.682029, -46.816919], [-72.682029, -46.816919]], [[-72.05447, -46.467067], [-72.054042, -46.467274], [-72.05447, -46.467067]], [[-72.567484, -46.69667], [-72.567484, -46.69667]], [[-71.8675, -46.402983], [-71.866803, -46.402814], [-71.8675, -46.402983]], [[-72.702526, -46.54684], [-72.702526, -46.54684]], [[-72.701928, -46.546193], [-72.702446, -46.545561], [-72.70175, -46.545633], [-72.701928, -46.546193]], [[-72.704239, -46.545285], [-72.704997, -46.543988], [-72.704607, -46.543411], [-72.703372, -46.544625], [-72.704239, -46.545285]], [[-71.858088, -46.386905], [-71.855827, -46.385788], [-71.858088, -46.386905]], [[-72.634314, -46.663984], [-72.633992, -46.663542], [-72.634314, -46.663984]], [[-72.613302, -46.650773], [-72.613756, -46.651036], [-72.613302, -46.650773]], [[-72.608487, -46.647853], [-72.607178, -46.64751], [-72.608487, -46.647853]], [[-72.597915, -46.599501], [-72.597428, -46.600253], [-72.598527, -46.600692], [-72.598806, -46.600099], [-72.600745, -46.599657], [-72.601022, -46.59892], [-72.601983, -46.59926], [-72.603175, -46.598469], [-72.604365, -46.599187], [-72.601575, -46.59971], [-72.601941, -46.601125], [-72.601169, -46.601784], [-72.601334, -46.602553], [-72.599831, -46.603446], [-72.601097, -46.604723], [-72.604348, -46.604488], [-72.605799, -46.60655], [-72.606282, -46.60858], [-72.601347, -46.607845], [-72.602779, -46.609761], [-72.602307, -46.611925], [-72.6004, -46.6128], [-72.598407, -46.610823], [-72.596699, -46.611741], [-72.596197, -46.613518], [-72.597246, -46.61392], [-72.597908, -46.615584], [-72.595584, -46.617444], [-72.593193, -46.61638], [-72.59304, -46.615223], [-72.58936, -46.612157], [-72.587839, -46.612486], [-72.586266, -46.611072], [-72.586018, -46.610003], [-72.585248, -46.610734], [-72.583328, -46.609975], [-72.583306, -46.608873], [-72.58466, -46.608253], [-72.583833, -46.605862], [-72.582395, -46.605745], [-72.581326, -46.604895], [-72.579292, -46.601855], [-72.5803, -46.601207], [-72.583744, -46.601102], [-72.585403, -46.60271], [-72.589651, -46.603068], [-72.593506, -46.60449], [-72.594722, -46.604122], [-72.59538, -46.605239], [-72.598438, -46.606073], [-72.597537, -46.605376], [-72.597561, -46.604004], [-72.594558, -46.602488], [-72.59475, -46.601602], [-72.593915, -46.60082], [-72.590945, -46.600335], [-72.591592, -46.598909], [-72.597915, -46.599501]], [[-71.67277, -46.52665], [-71.673372, -46.525997], [-71.672308, -46.526081], [-71.67277, -46.52665]], [[-72.634032, -46.662904], [-72.634032, -46.662904]], [[-72.628153, -46.658765], [-72.628153, -46.658765]], [[-72.627743, -46.658619], [-72.627254, -46.658704], [-72.627743, -46.658619]], [[-72.526907, -46.622477], [-72.526907, -46.622477]], [[-71.837776, -46.359074], [-71.838307, -46.359165], [-71.837776, -46.359074]], [[-71.838116, -46.359341], [-71.838661, -46.359578], [-71.838116, -46.359341]]]]}}