{"type": "Feature", "properties": {"id": "lago-elizalde", "name": "Lago Elizalde", "type": "lake", "region": "aysen"}, "geometry": {"type": "MultiPolygon", "coordinates": [[[[-72.413429, -45.787607], [-72.414759, -45.78753], [-72.416453, -45.785802], [-72.416753, -45.783709], [-72.42439, -45.785752], [-72.436645, -45.78678], [-72.439764, -45.783352], [-72.439713, -45.780849], [-72.438393, -45.77905], [-72.435234, -45.777563], [-72.430002, -45.77843], [-72.428293, -45.777353], [-72.423447, -45.776102], [-72.419077, -45.776307], [-72.416986, -45.77785], [-72.41582, -45.781175], [-72.414415, -45.781415], [-72.413815, -45.780867], [-72.41354, -45.77773], [-72.410198, -45.775485], [-72.408364, -45.775365], [-72.40713, -45.774062], [-72.401217, -45.775605], [-72.39736, -45.77473], [-72.396726, -45.773016], [-72.394258, -45.772005], [-72.393452, -45.769486], [-72.394035, -45.76904], [-72.391207, -45.766435], [-72.390007, -45.766401], [-72.389305, -45.765595], [-72.385722, -45.764481], [-72.382774, -45.764515], [-72.382037, -45.763418], [-72.38094, -45.763213], [-72.372542, -45.763332], [-72.368137, -45.76131], [-72.365103, -45.760796], [-72.364418, -45.759836], [-72.360784, -45.760419], [-72.360355, -45.759219], [-72.359139, -45.760025], [-72.357167, -45.759476], [-72.354236, -45.759785], [-72.353431, -45.758996], [-72.349043, -45.757916], [-72.345769, -45.755602], [-72.34385, -45.756682], [-72.339088, -45.755297], [-72.338845, -45.753648], [-72.334253, -45.751965], [-72.331785, -45.752968], [-72.32891, -45.75323], [-72.325873, -45.751561], [-72.321099, -45.751332], [-72.318782, -45.75216], [-72.317559, -45.75146], [-72.31404, -45.753204], [-72.313042, -45.754424], [-72.309346, -45.754843], [-72.308047, -45.754525], [-72.308289, -45.753118], [-72.306958, -45.752972], [-72.302409, -45.756243], [-72.300339, -45.756468], [-72.298365, -45.757531], [-72.295382, -45.756386], [-72.28842, -45.756225], [-72.282743, -45.758287], [-72.280598, -45.76054], [-72.276285, -45.763055], [-72.272648, -45.763601], [-72.267401, -45.765614], [-72.263635, -45.765435], [-72.253969, -45.768197], [-72.249785, -45.770958], [-72.247274, -45.774887], [-72.244334, -45.77785], [-72.23875, -45.780072], [-72.235048, -45.779433], [-72.227812, -45.779897], [-72.225972, -45.780686], [-72.220629, -45.779526], [-72.214449, -45.779511], [-72.206628, -45.781685], [-72.207068, -45.782601], [-72.206124, -45.782979], [-72.199761, -45.782254], [-72.196446, -45.778961], [-72.197508, -45.777854], [-72.196173, -45.772881], [-72.194778, -45.772829], [-72.193801, -45.771673], [-72.183641, -45.766638], [-72.181115, -45.76792], [-72.179741, -45.76719], [-72.178593, -45.768367], [-72.177239, -45.767544], [-72.174822, -45.767867], [-72.171467, -45.770058], [-72.170485, -45.772696], [-72.170563, -45.773385], [-72.173612, -45.774939], [-72.175407, -45.774849], [-72.176093, -45.776376], [-72.180728, -45.776353], [-72.183743, -45.778931], [-72.186946, -45.779448], [-72.18664, -45.780555], [-72.187396, -45.781524], [-72.185192, -45.782463], [-72.18487, -45.783948], [-72.185084, -45.785673], [-72.186179, -45.786099], [-72.190674, -45.785991], [-72.1965, -45.787005], [-72.198919, -45.788426], [-72.20328, -45.788486], [-72.204997, -45.788366], [-72.206107, -45.787139], [-72.216225, -45.786503], [-72.218564, -45.787394], [-72.218574, -45.788534], [-72.227378, -45.790482], [-72.235714, -45.788682], [-72.241645, -45.789711], [-72.244815, -45.788768], [-72.251808, -45.782272], [-72.256265, -45.778947], [-72.259693, -45.777302], [-72.265777, -45.777044], [-72.271605, -45.778278], [-72.272993, -45.77749], [-72.27781, -45.777747], [-72.278513, -45.77713], [-72.282866, -45.776685], [-72.28386, -45.775073], [-72.290236, -45.772674], [-72.290922, -45.770086], [-72.292104, -45.76844], [-72.294341, -45.768354], [-72.297651, -45.769319], [-72.302238, -45.769166], [-72.3036, -45.767298], [-72.303537, -45.766263], [-72.314026, -45.76335], [-72.326898, -45.76251], [-72.331578, -45.763264], [-72.339376, -45.766675], [-72.347466, -45.768526], [-72.34918, -45.767737], [-72.351631, -45.768954], [-72.362464, -45.769006], [-72.369697, -45.772708], [-72.372816, -45.773891], [-72.377718, -45.774593], [-72.380546, -45.775896], [-72.382414, -45.77893], [-72.385722, -45.780318], [-72.386699, -45.782032], [-72.39095, -45.784929], [-72.393298, -45.784466], [-72.394875, -45.785614], [-72.39467, -45.786334], [-72.396692, -45.785871], [-72.405382, -45.786036], [-72.413429, -45.787607]]]]}}