{"type": "Feature", "properties": {"id": "lago-frio", "name": "Lago Frío", "type": "lake", "region": "aysen"}, "geometry": {"type": "MultiPolygon", "coordinates": [[[[-71.959012, -45.662454], [-71.954597, -45.66039], [-71.942351, -45.659604], [-71.938514, -45.657644], [-71.938533, -45.656611], [-71.936905, -45.653744], [-71.934896, -45.652765], [-71.935564, -45.653525], [-71.932785, -45.653414], [-71.932543, -45.652561], [-71.930689, -45.653771], [-71.931742, -45.654771], [-71.931243, -45.655114], [-71.927589, -45.653674], [-71.923994, -45.654752], [-71.921978, -45.657945], [-71.921547, -45.659962], [-71.923808, -45.663218], [-71.927077, -45.663595], [-71.932404, -45.662993], [-71.933756, -45.664653], [-71.933903, -45.665951], [-71.933182, -45.667822], [-71.931353, -45.668591], [-71.931063, -45.66973], [-71.931991, -45.671068], [-71.936148, -45.672592], [-71.937184, -45.672116], [-71.939611, -45.672506], [-71.943119, -45.67483], [-71.950801, -45.672142], [-71.952628, -45.672838], [-71.95461, -45.672592], [-71.955688, -45.67379], [-71.959535, -45.672735], [-71.961232, -45.670307], [-71.961198, -45.669164], [-71.955678, -45.666251], [-71.956418, -45.664681], [-71.958047, -45.663913], [-71.959012, -45.662454]], [[-71.955743, -45.673363], [-71.954977, -45.673094], [-71.955743, -45.673363]]]]}}