{"type": "Feature", "properties": {"id": "lago-rupanco", "name": "Lago Rupanco", "type": "lake", "region": "los-lagos"}, "geometry": {"type": "MultiPolygon", "coordinates": [[[[-72.39081, -40.826533], [-72.394428, -40.826925], [-72.398558, -40.825166], [-72.401657, -40.826615], [-72.402633, -40.826467], [-72.405864, -40.82242], [-72.406254, -40.82076], [-72.40553, -40.820138], [-72.407573, -40.817049], [-72.407422, -40.814609], [-72.425876, -40.804697], [-72.429643, -40.80322], [-72.436391, -40.801872], [-72.440565, -40.799695], [-72.446219, -40.798055], [-72.451304, -40.798745], [-72.458171, -40.795228], [-72.467644, -40.791549], [-72.466335, -40.790411], [-72.468009, -40.789656], [-72.467816, -40.788681], [-72.46257, -40.790346], [-72.461325, -40.79003], [-72.460617, -40.789055], [-72.457366, -40.788917], [-72.45654, -40.787593], [-72.458394, -40.78575], [-72.456931, -40.784445], [-72.458106, -40.782524], [-72.467672, -40.779136], [-72.471961, -40.7809], [-72.47817, -40.779174], [-72.479717, -40.78146], [-72.481116, -40.782308], [-72.481495, -40.784469], [-72.482203, -40.78436], [-72.483229, -40.786086], [-72.500511, -40.78713], [-72.50823, -40.786597], [-72.509703, -40.787457], [-72.512569, -40.786946], [-72.513478, -40.785904], [-72.514549, -40.786487], [-72.515422, -40.786195], [-72.517165, -40.784725], [-72.5178, -40.783066], [-72.512366, -40.785154], [-72.50923, -40.784827], [-72.506918, -40.783185], [-72.50725, -40.781598], [-72.525669, -40.774022], [-72.534636, -40.773306], [-72.540179, -40.771255], [-72.547043, -40.771532], [-72.556095, -40.770017], [-72.560676, -40.770359], [-72.563359, -40.771507], [-72.564942, -40.771507], [-72.565913, -40.7713], [-72.565598, -40.770291], [-72.568286, -40.768249], [-72.573897, -40.766416], [-72.575984, -40.766835], [-72.577556, -40.768655], [-72.577363, -40.770101], [-72.579863, -40.770902], [-72.582443, -40.770568], [-72.584014, -40.768379], [-72.588784, -40.766107], [-72.592587, -40.767513], [-72.598091, -40.768216], [-72.601594, -40.767863], [-72.604514, -40.766083], [-72.609197, -40.764812], [-72.611434, -40.765677], [-72.62229, -40.764968], [-72.627346, -40.765664], [-72.631631, -40.769892], [-72.639738, -40.771107], [-72.643833, -40.770613], [-72.643157, -40.769256], [-72.643919, -40.768631], [-72.648114, -40.769459], [-72.653672, -40.768647], [-72.655764, -40.769947], [-72.663625, -40.769733], [-72.665626, -40.771883], [-72.667616, -40.772482], [-72.667969, -40.772016], [-72.667153, -40.771926], [-72.667205, -40.77144], [-72.668023, -40.771817], [-72.66807, -40.770453], [-72.668757, -40.769803], [-72.671261, -40.769695], [-72.674931, -40.771737], [-72.676778, -40.773786], [-72.678262, -40.77421], [-72.679202, -40.776306], [-72.677786, -40.777447], [-72.681483, -40.777503], [-72.68738, -40.781767], [-72.688787, -40.78531], [-72.687954, -40.787427], [-72.689425, -40.788909], [-72.685015, -40.79228], [-72.685863, -40.796727], [-72.685474, -40.798615], [-72.680912, -40.799715], [-72.675397, -40.802227], [-72.67097, -40.802616], [-72.66951, -40.803879], [-72.664255, -40.804163], [-72.661771, -40.806949], [-72.657267, -40.808662], [-72.655029, -40.810642], [-72.651822, -40.810786], [-72.645959, -40.807729], [-72.643171, -40.808972], [-72.641039, -40.811028], [-72.639481, -40.813691], [-72.637139, -40.81543], [-72.632455, -40.816696], [-72.628569, -40.818914], [-72.622212, -40.820729], [-72.617623, -40.820878], [-72.614298, -40.820164], [-72.609347, -40.824059], [-72.600716, -40.827468], [-72.584935, -40.828787], [-72.580028, -40.828189], [-72.560461, -40.831623], [-72.550408, -40.83499], [-72.539638, -40.84124], [-72.53878, -40.843123], [-72.539123, -40.848382], [-72.544015, -40.853576], [-72.544769, -40.855742], [-72.542728, -40.858509], [-72.541612, -40.86208], [-72.539981, -40.863443], [-72.532742, -40.864876], [-72.523295, -40.86526], [-72.513721, -40.866908], [-72.503334, -40.871674], [-72.493737, -40.87776], [-72.484865, -40.879003], [-72.483125, -40.880441], [-72.481023, -40.881151], [-72.480231, -40.882473], [-72.478701, -40.883041], [-72.477411, -40.884601], [-72.473892, -40.886937], [-72.468577, -40.888439], [-72.466596, -40.888689], [-72.464587, -40.887452], [-72.464397, -40.886697], [-72.461137, -40.88515], [-72.45046, -40.885574], [-72.448015, -40.887241], [-72.444288, -40.886307], [-72.437904, -40.886243], [-72.434882, -40.885138], [-72.431791, -40.884913], [-72.424227, -40.888258], [-72.422825, -40.888163], [-72.415699, -40.884601], [-72.413633, -40.881965], [-72.411149, -40.880448], [-72.41072, -40.878306], [-72.417072, -40.874607], [-72.418195, -40.872548], [-72.419748, -40.871805], [-72.420786, -40.869312], [-72.422071, -40.869079], [-72.424968, -40.866234], [-72.427457, -40.866039], [-72.429621, -40.863909], [-72.432049, -40.863217], [-72.439553, -40.862992], [-72.448104, -40.860576], [-72.457146, -40.860118], [-72.458082, -40.860671], [-72.460349, -40.85933], [-72.462494, -40.859164], [-72.46342, -40.859808], [-72.467135, -40.858913], [-72.477525, -40.859546], [-72.484365, -40.857626], [-72.486758, -40.855204], [-72.492471, -40.852997], [-72.500861, -40.848245], [-72.502645, -40.847668], [-72.506851, -40.848836], [-72.510456, -40.844876], [-72.508996, -40.843123], [-72.509512, -40.842084], [-72.508224, -40.841304], [-72.500585, -40.84046], [-72.49827, -40.839248], [-72.487195, -40.838188], [-72.468395, -40.842544], [-72.460365, -40.845409], [-72.452205, -40.848996], [-72.451232, -40.84994], [-72.445226, -40.851431], [-72.443435, -40.852745], [-72.441294, -40.852948], [-72.439637, -40.854482], [-72.438365, -40.854453], [-72.436895, -40.855322], [-72.434358, -40.854888], [-72.434819, -40.854186], [-72.434441, -40.853851], [-72.431921, -40.854549], [-72.431062, -40.854225], [-72.428659, -40.856952], [-72.427036, -40.857647], [-72.425312, -40.860067], [-72.424539, -40.859418], [-72.423337, -40.860003], [-72.417329, -40.86552], [-72.412866, -40.867208], [-72.406257, -40.867987], [-72.40188, -40.869285], [-72.401193, -40.870064], [-72.402223, -40.871881], [-72.403682, -40.871881], [-72.406858, -40.874088], [-72.407552, -40.876788], [-72.407238, -40.879933], [-72.40557, -40.880741], [-72.402488, -40.878668], [-72.401383, -40.878908], [-72.401018, -40.882051], [-72.40223, -40.883353], [-72.4011, -40.885238], [-72.399991, -40.889921], [-72.397752, -40.892216], [-72.388852, -40.895523], [-72.381437, -40.895651], [-72.378241, -40.894082], [-72.375542, -40.89045], [-72.37656, -40.888624], [-72.374757, -40.886872], [-72.374997, -40.884787], [-72.366936, -40.884646], [-72.363495, -40.88332], [-72.358334, -40.88352], [-72.352184, -40.880967], [-72.35147, -40.87904], [-72.350401, -40.878847], [-72.344791, -40.878638], [-72.341372, -40.879421], [-72.340924, -40.879988], [-72.343805, -40.883859], [-72.340017, -40.886908], [-72.336115, -40.888534], [-72.334395, -40.890315], [-72.332715, -40.890974], [-72.330332, -40.890602], [-72.329489, -40.89167], [-72.329336, -40.893203], [-72.328297, -40.894149], [-72.328527, -40.895333], [-72.333389, -40.897052], [-72.333704, -40.897773], [-72.324005, -40.899762], [-72.319418, -40.899409], [-72.314407, -40.898005], [-72.311899, -40.892707], [-72.306899, -40.889667], [-72.302187, -40.888901], [-72.293558, -40.891776], [-72.292684, -40.892587], [-72.287712, -40.89226], [-72.283386, -40.893557], [-72.280627, -40.893045], [-72.279427, -40.891902], [-72.278009, -40.891954], [-72.275714, -40.889726], [-72.274539, -40.89075], [-72.27103, -40.89179], [-72.269987, -40.891474], [-72.269089, -40.889636], [-72.268208, -40.889298], [-72.263686, -40.891025], [-72.26176, -40.890197], [-72.259856, -40.890529], [-72.256902, -40.892205], [-72.253538, -40.896656], [-72.251209, -40.897847], [-72.249703, -40.896018], [-72.245952, -40.896248], [-72.244514, -40.894844], [-72.244699, -40.893623], [-72.242487, -40.892387], [-72.240831, -40.892732], [-72.240606, -40.891619], [-72.237887, -40.89088], [-72.234798, -40.891174], [-72.234139, -40.891981], [-72.231924, -40.891212], [-72.225316, -40.891042], [-72.223962, -40.891533], [-72.223625, -40.892386], [-72.221724, -40.892773], [-72.218015, -40.890926], [-72.217538, -40.889829], [-72.209459, -40.889555], [-72.203997, -40.887408], [-72.196067, -40.888821], [-72.19534, -40.887913], [-72.192789, -40.887489], [-72.19006, -40.88595], [-72.187876, -40.882874], [-72.180042, -40.88124], [-72.180042, -40.877376], [-72.182064, -40.873704], [-72.181812, -40.873168], [-72.183421, -40.872811], [-72.185749, -40.870609], [-72.189639, -40.870128], [-72.18937, -40.869246], [-72.193061, -40.865219], [-72.196535, -40.863978], [-72.197186, -40.8627], [-72.198863, -40.861854], [-72.199584, -40.859761], [-72.200995, -40.859584], [-72.202502, -40.857519], [-72.204081, -40.857124], [-72.208216, -40.857515], [-72.211387, -40.859358], [-72.212432, -40.859326], [-72.214603, -40.857863], [-72.218951, -40.857771], [-72.222598, -40.858929], [-72.22968, -40.859337], [-72.232976, -40.860822], [-72.237641, -40.861147], [-72.24185, -40.86265], [-72.244156, -40.865713], [-72.246699, -40.864414], [-72.252421, -40.867503], [-72.252515, -40.866667], [-72.257354, -40.868248], [-72.262726, -40.86797], [-72.268635, -40.872278], [-72.271315, -40.876291], [-72.276335, -40.878686], [-72.281721, -40.879493], [-72.283664, -40.878312], [-72.287106, -40.878041], [-72.288231, -40.877206], [-72.290012, -40.878539], [-72.292078, -40.878782], [-72.293408, -40.877422], [-72.294612, -40.87728], [-72.294698, -40.876494], [-72.296047, -40.875509], [-72.299529, -40.876368], [-72.302581, -40.876227], [-72.303224, -40.874401], [-72.304547, -40.874642], [-72.308683, -40.873217], [-72.317612, -40.872086], [-72.319023, -40.87079], [-72.322023, -40.869718], [-72.325723, -40.863056], [-72.327595, -40.861681], [-72.334682, -40.859544], [-72.337375, -40.859454], [-72.339146, -40.856288], [-72.338448, -40.853506], [-72.339997, -40.852617], [-72.340151, -40.850987], [-72.343378, -40.848198], [-72.347712, -40.846356], [-72.350212, -40.846062], [-72.352915, -40.844305], [-72.355641, -40.844321], [-72.356534, -40.843444], [-72.369018, -40.842736], [-72.371385, -40.841982], [-72.37331, -40.840416], [-72.373446, -40.839006], [-72.37497, -40.837395], [-72.383409, -40.83275], [-72.39081, -40.826533]], [[-72.376485, -40.868068], [-72.378115, -40.869301], [-72.381119, -40.867613], [-72.382407, -40.867613], [-72.38275, -40.871378], [-72.384295, -40.873455], [-72.387299, -40.875272], [-72.386098, -40.877608], [-72.387299, -40.881242], [-72.383008, -40.883514], [-72.376828, -40.882346], [-72.375455, -40.880139], [-72.376485, -40.876894], [-72.376656, -40.873844], [-72.375798, -40.868782], [-72.376485, -40.868068]], [[-72.4618, -40.876959], [-72.44781, -40.877089], [-72.442145, -40.876894], [-72.441888, -40.876375], [-72.445321, -40.876245], [-72.450213, -40.875012], [-72.453732, -40.875077], [-72.462744, -40.872806], [-72.464976, -40.874363], [-72.463002, -40.8767], [-72.4618, -40.876959]]]]}}