{"type": "Feature", "properties": {"id": "lago-sarmiento", "name": "Lago Sarmiento", "type": "lake", "region": "magallanes"}, "geometry": {"type": "MultiPolygon", "coordinates": [[[[-72.767671, -51.036535], [-72.768785, -51.037054], [-72.768771, -51.0381], [-72.775656, -51.039318], [-72.778051, -51.040686], [-72.785094, -51.041677], [-72.787315, -51.042939], [-72.793267, -51.042937], [-72.796298, -51.044263], [-72.799235, -51.043876], [-72.801681, -51.045197], [-72.805018, -51.045748], [-72.810994, -51.045529], [-72.817844, -51.042355], [-72.819091, -51.042757], [-72.821031, -51.04191], [-72.82374, -51.043323], [-72.824585, -51.044313], [-72.823847, -51.044718], [-72.825389, -51.044595], [-72.825191, -51.045409], [-72.827009, -51.045424], [-72.82899, -51.046637], [-72.830354, -51.045723], [-72.830176, -51.044649], [-72.831781, -51.044807], [-72.834031, -51.043607], [-72.834919, -51.044706], [-72.83559, -51.0439], [-72.837526, -51.044659], [-72.838832, -51.04548], [-72.838975, -51.046406], [-72.84181, -51.047443], [-72.8449, -51.046917], [-72.845688, -51.045839], [-72.848247, -51.046982], [-72.849902, -51.046011], [-72.851334, -51.045971], [-72.852745, -51.046352], [-72.853603, -51.047654], [-72.855427, -51.047886], [-72.858061, -51.047495], [-72.859794, -51.046493], [-72.860489, -51.047087], [-72.864568, -51.047209], [-72.868103, -51.045402], [-72.874055, -51.046478], [-72.875305, -51.04535], [-72.874535, -51.044348], [-72.875568, -51.044345], [-72.875748, -51.043382], [-72.877156, -51.042649], [-72.876846, -51.041528], [-72.880431, -51.04261], [-72.883478, -51.041396], [-72.884166, -51.042726], [-72.88697, -51.043094], [-72.887485, -51.045252], [-72.889422, -51.045123], [-72.891401, -51.046387], [-72.894389, -51.046345], [-72.900448, -51.047765], [-72.903085, -51.050645], [-72.909077, -51.052901], [-72.913521, -51.052793], [-72.912824, -51.051301], [-72.910815, -51.050908], [-72.910987, -51.050431], [-72.912295, -51.050899], [-72.913473, -51.050557], [-72.916147, -51.052018], [-72.919181, -51.051603], [-72.919253, -51.052741], [-72.920884, -51.053692], [-72.92204, -51.05534], [-72.920868, -51.056827], [-72.922394, -51.058389], [-72.920406, -51.059763], [-72.920712, -51.060322], [-72.91957, -51.06142], [-72.919867, -51.062059], [-72.919082, -51.063161], [-72.923923, -51.064066], [-72.926157, -51.063609], [-72.926176, -51.064789], [-72.927262, -51.065346], [-72.927369, -51.066263], [-72.930073, -51.067537], [-72.928571, -51.068592], [-72.926581, -51.068174], [-72.92502, -51.06913], [-72.924272, -51.070788], [-72.923099, -51.071204], [-72.920439, -51.06841], [-72.916808, -51.068072], [-72.914188, -51.066622], [-72.911791, -51.066883], [-72.907527, -51.064011], [-72.903079, -51.062598], [-72.892898, -51.05634], [-72.891771, -51.054961], [-72.889674, -51.054452], [-72.888625, -51.055039], [-72.886515, -51.054341], [-72.883041, -51.056774], [-72.876863, -51.056163], [-72.874758, -51.055228], [-72.872553, -51.055362], [-72.872642, -51.057471], [-72.870925, -51.059159], [-72.870051, -51.060916], [-72.870515, -51.061411], [-72.869911, -51.061836], [-72.865936, -51.061202], [-72.86444, -51.059869], [-72.861181, -51.060393], [-72.861873, -51.060905], [-72.860244, -51.061192], [-72.859005, -51.06244], [-72.859402, -51.064339], [-72.858096, -51.065453], [-72.863353, -51.066615], [-72.863181, -51.067324], [-72.861014, -51.067093], [-72.859724, -51.068396], [-72.857503, -51.068098], [-72.854547, -51.071393], [-72.852316, -51.071179], [-72.848134, -51.07318], [-72.847579, -51.072945], [-72.847402, -51.070812], [-72.84501, -51.069357], [-72.842837, -51.06992], [-72.841724, -51.070999], [-72.839066, -51.070439], [-72.83972, -51.071423], [-72.838186, -51.07197], [-72.827398, -51.070365], [-72.824603, -51.069377], [-72.821578, -51.069907], [-72.818053, -51.069091], [-72.817415, -51.069809], [-72.814508, -51.068615], [-72.812796, -51.068932], [-72.811927, -51.069819], [-72.808167, -51.069634], [-72.805774, -51.07107], [-72.803543, -51.071188], [-72.802523, -51.072104], [-72.796226, -51.07085], [-72.794482, -51.069175], [-72.790051, -51.068113], [-72.787916, -51.068292], [-72.787428, -51.069145], [-72.785261, -51.069832], [-72.77889, -51.069173], [-72.776774, -51.069994], [-72.775755, -51.068953], [-72.772298, -51.068629], [-72.767252, -51.069783], [-72.764466, -51.068922], [-72.757216, -51.068275], [-72.752468, -51.066735], [-72.734953, -51.067766], [-72.733966, -51.067038], [-72.732877, -51.064739], [-72.727738, -51.064779], [-72.72398, -51.063571], [-72.71871, -51.059908], [-72.718291, -51.058876], [-72.71665, -51.057804], [-72.715695, -51.055662], [-72.713329, -51.053983], [-72.694457, -51.048328], [-72.682883, -51.046718], [-72.679254, -51.046935], [-72.673536, -51.043745], [-72.66071, -51.04418], [-72.64761, -51.04196], [-72.643393, -51.042271], [-72.632557, -51.045736], [-72.627493, -51.04451], [-72.614323, -51.043203], [-72.611048, -51.041633], [-72.605987, -51.041598], [-72.597415, -51.036815], [-72.593923, -51.035548], [-72.591906, -51.031058], [-72.591584, -51.026348], [-72.593233, -51.018451], [-72.595816, -51.012374], [-72.598726, -51.008349], [-72.601497, -51.006133], [-72.605515, -51.006771], [-72.61022, -51.009262], [-72.618159, -51.011247], [-72.623642, -51.010903], [-72.624232, -51.010245], [-72.623408, -51.009375], [-72.620573, -51.008898], [-72.62053, -51.007053], [-72.62479, -51.004641], [-72.628829, -51.00344], [-72.629247, -51.00243], [-72.627696, -50.999411], [-72.634679, -50.992589], [-72.642691, -50.992994], [-72.647521, -50.992368], [-72.650466, -50.994122], [-72.650265, -50.994676], [-72.651231, -50.995418], [-72.65571, -50.996104], [-72.665323, -50.995229], [-72.670982, -50.992572], [-72.673922, -50.991893], [-72.677028, -50.992317], [-72.679807, -50.995145], [-72.683696, -50.996175], [-72.686775, -50.998082], [-72.688744, -51.000537], [-72.687596, -51.002545], [-72.68846, -51.004361], [-72.694986, -51.004412], [-72.697467, -51.006478], [-72.70156, -51.007443], [-72.704387, -51.008851], [-72.705921, -51.010687], [-72.708828, -51.011561], [-72.710068, -51.015877], [-72.713109, -51.018304], [-72.714751, -51.018557], [-72.716119, -51.019995], [-72.721199, -51.022002], [-72.729197, -51.022843], [-72.730785, -51.023997], [-72.730817, -51.025235], [-72.733923, -51.024975], [-72.734749, -51.026389], [-72.742308, -51.027141], [-72.744647, -51.028165], [-72.749303, -51.027833], [-72.750607, -51.028174], [-72.750451, -51.028865], [-72.752602, -51.028757], [-72.754544, -51.029823], [-72.755091, -51.030937], [-72.757355, -51.031551], [-72.757709, -51.034094], [-72.761335, -51.036523], [-72.763849, -51.036871], [-72.764062, -51.037466], [-72.767671, -51.036535]], [[-72.845782, -51.04719], [-72.847005, -51.047961], [-72.84593, -51.04806], [-72.845055, -51.047187], [-72.845782, -51.04719]]]]}}