{"type": "Feature", "properties": {"id": "lago-panguipulli", "name": "Lago Panguipulli", "type": "lake", "region": "los-rios"}, "geometry": {"type": "MultiPolygon", "coordinates": [[[[-72.118627, -39.842819], [-72.121977, -39.847085], [-72.120867, -39.84713], [-72.121814, -39.848435], [-72.122482, -39.851759], [-72.127403, -39.857584], [-72.128479, -39.857104], [-72.128369, -39.854501], [-72.127124, -39.852648], [-72.120376, -39.843274], [-72.116404, -39.839988], [-72.115878, -39.838488], [-72.116983, -39.83717], [-72.116634, -39.835671], [-72.120438, -39.835086], [-72.122551, -39.834035], [-72.123007, -39.832474], [-72.122294, -39.830262], [-72.12393, -39.828569], [-72.131247, -39.825619], [-72.134632, -39.82538], [-72.136772, -39.824157], [-72.138956, -39.822084], [-72.141879, -39.8177], [-72.144175, -39.816201], [-72.142689, -39.814177], [-72.140844, -39.813959], [-72.141402, -39.808042], [-72.142421, -39.806146], [-72.145361, -39.80465], [-72.149143, -39.804069], [-72.14969, -39.806117], [-72.150988, -39.806546], [-72.15094, -39.8073], [-72.155065, -39.808313], [-72.155752, -39.809418], [-72.155529, -39.808386], [-72.156057, -39.808027], [-72.16309, -39.80669], [-72.163605, -39.803558], [-72.161658, -39.801266], [-72.163079, -39.799709], [-72.163369, -39.798303], [-72.161422, -39.794507], [-72.159931, -39.79353], [-72.159571, -39.791041], [-72.161368, -39.785299], [-72.164877, -39.782702], [-72.164984, -39.780257], [-72.167886, -39.777433], [-72.17103, -39.776015], [-72.174361, -39.7758], [-72.174806, -39.774584], [-72.176995, -39.774438], [-72.176287, -39.773017], [-72.176592, -39.772081], [-72.178926, -39.771166], [-72.178422, -39.770667], [-72.179065, -39.770424], [-72.179618, -39.768383], [-72.190433, -39.764767], [-72.19268, -39.762408], [-72.195604, -39.761604], [-72.197798, -39.758655], [-72.198023, -39.756169], [-72.201794, -39.751999], [-72.20306, -39.748943], [-72.204192, -39.748217], [-72.208124, -39.74231], [-72.212577, -39.741968], [-72.214562, -39.742863], [-72.218612, -39.74264], [-72.222469, -39.738231], [-72.227157, -39.737955], [-72.227334, -39.736354], [-72.226165, -39.735851], [-72.227034, -39.734898], [-72.231803, -39.734275], [-72.232248, -39.732691], [-72.225296, -39.731305], [-72.228257, -39.727942], [-72.228659, -39.725054], [-72.230596, -39.723672], [-72.229915, -39.722863], [-72.231556, -39.722789], [-72.230805, -39.723631], [-72.231342, -39.724233], [-72.234257, -39.724359], [-72.235464, -39.725112], [-72.235488, -39.725861], [-72.236398, -39.725974], [-72.239305, -39.723827], [-72.240166, -39.722054], [-72.242081, -39.721025], [-72.245748, -39.720194], [-72.245413, -39.721514], [-72.246885, -39.720171], [-72.246855, -39.718683], [-72.248344, -39.717986], [-72.2481, -39.717373], [-72.249691, -39.717371], [-72.249768, -39.714545], [-72.256648, -39.712444], [-72.265698, -39.715568], [-72.269665, -39.716294], [-72.271331, -39.715743], [-72.278783, -39.718497], [-72.287364, -39.719402], [-72.289821, -39.720227], [-72.291343, -39.71903], [-72.297779, -39.718205], [-72.299682, -39.71871], [-72.302969, -39.718285], [-72.306187, -39.716714], [-72.310685, -39.71573], [-72.318505, -39.715437], [-72.326913, -39.716874], [-72.327432, -39.716209], [-72.328297, -39.716315], [-72.330303, -39.718311], [-72.331964, -39.717566], [-72.334386, -39.718338], [-72.339265, -39.715863], [-72.346251, -39.714253], [-72.348642, -39.708277], [-72.348737, -39.701239], [-72.346349, -39.699659], [-72.343689, -39.699778], [-72.344386, -39.699254], [-72.343383, -39.699052], [-72.343018, -39.697397], [-72.342004, -39.697257], [-72.342707, -39.695717], [-72.340486, -39.69556], [-72.340052, -39.696468], [-72.338067, -39.695898], [-72.339939, -39.695189], [-72.339735, -39.694664], [-72.340851, -39.693719], [-72.340588, -39.693108], [-72.337568, -39.69322], [-72.335926, -39.694429], [-72.335996, -39.693327], [-72.335063, -39.692861], [-72.332343, -39.693855], [-72.330101, -39.692749], [-72.327011, -39.69279], [-72.324849, -39.694615], [-72.325712, -39.695692], [-72.327563, -39.696299], [-72.32678, -39.69641], [-72.327676, -39.697715], [-72.32972, -39.698491], [-72.328126, -39.698862], [-72.32406, -39.69788], [-72.322644, -39.698796], [-72.321625, -39.697347], [-72.317381, -39.695007], [-72.317725, -39.694082], [-72.316346, -39.693418], [-72.31464, -39.693826], [-72.31412, -39.694561], [-72.310494, -39.694784], [-72.31022, -39.694479], [-72.31258, -39.692609], [-72.309069, -39.690378], [-72.310322, -39.689139], [-72.308581, -39.684466], [-72.309726, -39.681665], [-72.307603, -39.67894], [-72.306143, -39.679269], [-72.304587, -39.678486], [-72.298858, -39.679902], [-72.294647, -39.679006], [-72.287829, -39.680042], [-72.285737, -39.681215], [-72.286128, -39.682821], [-72.283199, -39.684902], [-72.278731, -39.685612], [-72.274101, -39.688122], [-72.272229, -39.6878], [-72.271494, -39.688782], [-72.272615, -39.690016], [-72.272572, -39.692006], [-72.271607, -39.692501], [-72.264773, -39.691536], [-72.262675, -39.689282], [-72.263442, -39.688134], [-72.262836, -39.687478], [-72.263013, -39.686425], [-72.266082, -39.685591], [-72.265937, -39.682961], [-72.266489, -39.681818], [-72.26981, -39.679915], [-72.270491, -39.67842], [-72.273077, -39.678763], [-72.27578, -39.677115], [-72.275818, -39.675569], [-72.274316, -39.675431], [-72.279112, -39.670629], [-72.280303, -39.668052], [-72.283865, -39.667837], [-72.285243, -39.667007], [-72.287657, -39.66785], [-72.290825, -39.667003], [-72.295715, -39.667569], [-72.2997, -39.666549], [-72.301366, -39.665153], [-72.311494, -39.663453], [-72.31868, -39.6555], [-72.321119, -39.654115], [-72.321792, -39.652382], [-72.327854, -39.64826], [-72.325856, -39.646845], [-72.325793, -39.645023], [-72.324892, -39.643747], [-72.319632, -39.644487], [-72.3174, -39.642647], [-72.314612, -39.643704], [-72.310588, -39.643003], [-72.30373, -39.643802], [-72.293841, -39.64907], [-72.289079, -39.650042], [-72.286872, -39.651864], [-72.285705, -39.65209], [-72.286103, -39.652717], [-72.2829, -39.653367], [-72.283345, -39.656963], [-72.279289, -39.656989], [-72.275462, -39.65609], [-72.273556, -39.656679], [-72.272406, -39.657769], [-72.271148, -39.657743], [-72.269281, -39.656566], [-72.266814, -39.656224], [-72.265408, -39.652452], [-72.262965, -39.649908], [-72.262823, -39.646877], [-72.259164, -39.644442], [-72.256941, -39.641925], [-72.246524, -39.633197], [-72.246199, -39.628942], [-72.245435, -39.627081], [-72.24397, -39.626653], [-72.242072, -39.625017], [-72.24003, -39.624777], [-72.237238, -39.626174], [-72.237124, -39.627549], [-72.232833, -39.627469], [-72.231518, -39.625736], [-72.229224, -39.625665], [-72.22678, -39.623334], [-72.225908, -39.622809], [-72.225596, -39.623446], [-72.223735, -39.620768], [-72.221466, -39.620351], [-72.223917, -39.61897], [-72.225484, -39.619239], [-72.225307, -39.620115], [-72.226557, -39.620458], [-72.226884, -39.619189], [-72.223306, -39.618417], [-72.220291, -39.619165], [-72.21866, -39.622086], [-72.218639, -39.623322], [-72.22102, -39.638178], [-72.220736, -39.639818], [-72.225473, -39.64238], [-72.227828, -39.645118], [-72.232747, -39.646969], [-72.236003, -39.647146], [-72.237784, -39.65119], [-72.237953, -39.653476], [-72.237344, -39.654151], [-72.233605, -39.65366], [-72.230167, -39.651628], [-72.228048, -39.651124], [-72.226111, -39.651384], [-72.225119, -39.652281], [-72.222458, -39.651669], [-72.217501, -39.648278], [-72.216225, -39.645961], [-72.214985, -39.645048], [-72.210957, -39.6467], [-72.209197, -39.648633], [-72.209047, -39.65088], [-72.212395, -39.655184], [-72.212641, -39.657142], [-72.216783, -39.662011], [-72.216445, -39.663278], [-72.216986, -39.664749], [-72.219738, -39.667503], [-72.220495, -39.670108], [-72.220216, -39.673304], [-72.219197, -39.674642], [-72.216353, -39.682553], [-72.21792, -39.68621], [-72.216085, -39.688382], [-72.215259, -39.692411], [-72.215747, -39.694417], [-72.214336, -39.69587], [-72.213762, -39.6988], [-72.212684, -39.699906], [-72.212631, -39.701731], [-72.213923, -39.703594], [-72.212899, -39.705032], [-72.212963, -39.706922], [-72.212201, -39.708664], [-72.212695, -39.709556], [-72.211322, -39.711644], [-72.20953, -39.711949], [-72.209616, -39.712783], [-72.208886, -39.713335], [-72.208049, -39.713302], [-72.208114, -39.712758], [-72.207427, -39.713682], [-72.2063, -39.71341], [-72.205335, -39.713963], [-72.205238, -39.715605], [-72.203468, -39.717718], [-72.203254, -39.718939], [-72.205362, -39.721254], [-72.205142, -39.722384], [-72.202975, -39.722471], [-72.201794, -39.723791], [-72.199482, -39.724353], [-72.199075, -39.725397], [-72.197283, -39.725545], [-72.197127, -39.726494], [-72.195792, -39.727472], [-72.191232, -39.728115], [-72.184473, -39.731969], [-72.184086, -39.733219], [-72.185213, -39.734774], [-72.186232, -39.735079], [-72.186189, -39.735653], [-72.184387, -39.736985], [-72.184553, -39.737645], [-72.183105, -39.739101], [-72.18311, -39.739914], [-72.180052, -39.742781], [-72.179983, -39.743989], [-72.178497, -39.745738], [-72.17428, -39.749182], [-72.172923, -39.749978], [-72.171223, -39.749941], [-72.167832, -39.752131], [-72.165107, -39.752898], [-72.164093, -39.752824], [-72.164206, -39.75171], [-72.162682, -39.750795], [-72.156959, -39.752766], [-72.153171, -39.755492], [-72.151535, -39.757505], [-72.145511, -39.760043], [-72.144653, -39.763678], [-72.143317, -39.764334], [-72.142426, -39.765863], [-72.143027, -39.76647], [-72.145511, -39.765041], [-72.14528, -39.765793], [-72.146208, -39.766713], [-72.145044, -39.767975], [-72.140721, -39.769574], [-72.140259, -39.768741], [-72.137496, -39.769331], [-72.135361, -39.771657], [-72.133098, -39.772444], [-72.133763, -39.772861], [-72.131918, -39.773108], [-72.131563, -39.773875], [-72.123275, -39.775334], [-72.122304, -39.777218], [-72.123313, -39.776909], [-72.121543, -39.777853], [-72.122959, -39.77848], [-72.121001, -39.780698], [-72.120588, -39.782821], [-72.118555, -39.785991], [-72.119754, -39.78825], [-72.119268, -39.790031], [-72.119681, -39.792508], [-72.120936, -39.794111], [-72.121881, -39.794895], [-72.124051, -39.794402], [-72.126923, -39.794736], [-72.128683, -39.796712], [-72.12982, -39.797025], [-72.131628, -39.799832], [-72.127808, -39.804926], [-72.127339, -39.812506], [-72.124061, -39.814721], [-72.114639, -39.816134], [-72.111109, -39.817457], [-72.108024, -39.816316], [-72.104886, -39.816563], [-72.099704, -39.814392], [-72.097397, -39.816205], [-72.097258, -39.818458], [-72.095557, -39.821466], [-72.090976, -39.8244], [-72.091073, -39.824968], [-72.092478, -39.824416], [-72.091298, -39.825611], [-72.090654, -39.825891], [-72.090343, -39.825207], [-72.089549, -39.825825], [-72.089678, -39.828429], [-72.086191, -39.834064], [-72.086944, -39.836057], [-72.086402, -39.837927], [-72.089749, -39.841633], [-72.093685, -39.841924], [-72.098218, -39.841021], [-72.104822, -39.842146], [-72.107509, -39.841701], [-72.110884, -39.842607], [-72.112654, -39.84374], [-72.113528, -39.843452], [-72.112927, -39.841611], [-72.113646, -39.841289], [-72.118627, -39.842819]], [[-72.26135, -39.69193], [-72.261916, -39.692297], [-72.26135, -39.69193]], [[-72.220205, -39.62057], [-72.22182, -39.618776], [-72.223746, -39.618855], [-72.221863, -39.619632], [-72.220822, -39.620929], [-72.220205, -39.62057]], [[-72.212751, -39.711582], [-72.212459, -39.712238], [-72.212751, -39.711582]], [[-72.212242, -39.71199], [-72.211917, -39.712533], [-72.212242, -39.71199]], [[-72.211139, -39.712663], [-72.211139, -39.712663]], [[-72.211541, -39.712785], [-72.211104, -39.713222], [-72.211541, -39.712785]], [[-72.212142, -39.712553], [-72.21178, -39.713232], [-72.212142, -39.712553]], [[-72.212687, -39.712162], [-72.212687, -39.712162]], [[-72.213642, -39.709254], [-72.213642, -39.709254]], [[-72.214009, -39.708264], [-72.213489, -39.709209], [-72.214009, -39.708264]], [[-72.234281, -39.724194], [-72.234748, -39.724181], [-72.234281, -39.724194]], [[-72.234914, -39.724074], [-72.234914, -39.724074]], [[-72.229263, -39.723321], [-72.229263, -39.723321]], [[-72.299727, -39.685496], [-72.298096, -39.684939], [-72.298509, -39.684126], [-72.301782, -39.683638], [-72.299727, -39.685496]], [[-72.287239, -39.691465], [-72.28631, -39.690443], [-72.288086, -39.689917], [-72.288736, -39.691007], [-72.287239, -39.691465]], [[-72.305421, -39.659399], [-72.299917, -39.659702], [-72.298855, -39.659252], [-72.301725, -39.656141], [-72.303569, -39.655188], [-72.305421, -39.659399]], [[-72.156607, -39.760738], [-72.156068, -39.760973], [-72.156607, -39.760738]], [[-72.157423, -39.756872], [-72.158066, -39.758713], [-72.155548, -39.761602], [-72.156484, -39.763113], [-72.152165, -39.764569], [-72.151744, -39.763694], [-72.150406, -39.763336], [-72.153008, -39.76141], [-72.155073, -39.758235], [-72.157423, -39.756872]]]]}}