{"type": "Feature", "properties": {"id": "lago-yelcho", "name": "Lago Yelcho", "type": "lake", "region": "los-lagos"}, "geometry": {"type": "MultiPolygon", "coordinates": [[[[-72.195883, -43.353011], [-72.199273, -43.352161], [-72.198329, -43.350694], [-72.197563, -43.350555], [-72.199273, -43.349501], [-72.205281, -43.34219], [-72.208811, -43.339537], [-72.210313, -43.333856], [-72.212609, -43.329049], [-72.219164, -43.321564], [-72.227179, -43.319636], [-72.230355, -43.320557], [-72.236212, -43.320877], [-72.243176, -43.319769], [-72.249538, -43.319542], [-72.253658, -43.316342], [-72.257155, -43.315827], [-72.260674, -43.314304], [-72.262681, -43.310877], [-72.269644, -43.309917], [-72.272025, -43.308863], [-72.272519, -43.308106], [-72.272176, -43.303695], [-72.278774, -43.296363], [-72.282928, -43.295502], [-72.285632, -43.296872], [-72.287708, -43.29633], [-72.286988, -43.295051], [-72.28527, -43.295424], [-72.282164, -43.29404], [-72.279144, -43.29076], [-72.275142, -43.290233], [-72.274064, -43.289237], [-72.274697, -43.288218], [-72.274742, -43.284821], [-72.275861, -43.283774], [-72.275721, -43.282571], [-72.277213, -43.279783], [-72.277036, -43.277073], [-72.279026, -43.273397], [-72.278913, -43.270972], [-72.282904, -43.268261], [-72.287266, -43.267538], [-72.291541, -43.265784], [-72.292716, -43.264823], [-72.294722, -43.260892], [-72.29756, -43.258053], [-72.304829, -43.252845], [-72.306637, -43.253098], [-72.309238, -43.250849], [-72.309968, -43.250782], [-72.31055, -43.251781], [-72.310778, -43.253572], [-72.314632, -43.253621], [-72.31556, -43.254277], [-72.317274, -43.253777], [-72.320783, -43.250497], [-72.326059, -43.250425], [-72.329332, -43.249577], [-72.330787, -43.249942], [-72.333158, -43.249165], [-72.336055, -43.246066], [-72.344204, -43.243968], [-72.350635, -43.239892], [-72.352755, -43.235695], [-72.355544, -43.232584], [-72.3549, -43.230637], [-72.356241, -43.229246], [-72.355743, -43.227792], [-72.359133, -43.225814], [-72.362201, -43.22506], [-72.365184, -43.221127], [-72.365978, -43.217394], [-72.369105, -43.215122], [-72.372469, -43.210267], [-72.375934, -43.208124], [-72.376138, -43.206619], [-72.373933, -43.205336], [-72.376605, -43.203248], [-72.385311, -43.202016], [-72.388203, -43.200624], [-72.388642, -43.199572], [-72.390257, -43.199987], [-72.391845, -43.199306], [-72.39368, -43.197621], [-72.395718, -43.198841], [-72.396748, -43.198771], [-72.399945, -43.196315], [-72.401512, -43.194054], [-72.403411, -43.193616], [-72.414027, -43.188258], [-72.416017, -43.188595], [-72.418072, -43.186529], [-72.420223, -43.186177], [-72.424267, -43.183126], [-72.426462, -43.182954], [-72.428293, -43.180844], [-72.428511, -43.1792], [-72.430026, -43.179246], [-72.430136, -43.177109], [-72.430886, -43.176798], [-72.431, -43.175602], [-72.43211, -43.175217], [-72.435235, -43.175723], [-72.436045, -43.177216], [-72.435468, -43.178827], [-72.43578, -43.180048], [-72.437577, -43.180912], [-72.436734, -43.180861], [-72.436708, -43.181347], [-72.43961, -43.18092], [-72.436713, -43.181699], [-72.437319, -43.183103], [-72.442351, -43.185649], [-72.441058, -43.185375], [-72.441466, -43.18613], [-72.44447, -43.185802], [-72.445527, -43.182477], [-72.445022, -43.185939], [-72.442147, -43.186842], [-72.439406, -43.185297], [-72.438253, -43.185735], [-72.438486, -43.18684], [-72.43932, -43.18661], [-72.438623, -43.187396], [-72.440047, -43.186619], [-72.441241, -43.187042], [-72.44179, -43.1901], [-72.440956, -43.191322], [-72.442372, -43.192152], [-72.442592, -43.193835], [-72.448429, -43.195955], [-72.452517, -43.195845], [-72.456808, -43.19838], [-72.456626, -43.199889], [-72.453461, -43.201375], [-72.452004, -43.204611], [-72.449486, -43.206306], [-72.449492, -43.208958], [-72.450435, -43.210542], [-72.446047, -43.213723], [-72.44363, -43.214462], [-72.441857, -43.216213], [-72.441894, -43.217384], [-72.439004, -43.219227], [-72.436241, -43.218942], [-72.435699, -43.219493], [-72.433999, -43.218269], [-72.427352, -43.217742], [-72.42592, -43.218469], [-72.423876, -43.21818], [-72.423323, -43.219372], [-72.420762, -43.21949], [-72.419973, -43.220256], [-72.416261, -43.219239], [-72.416603, -43.221026], [-72.415799, -43.22178], [-72.414027, -43.2216], [-72.414182, -43.22282], [-72.4137, -43.223121], [-72.412551, -43.222685], [-72.411931, -43.220982], [-72.410571, -43.220928], [-72.409859, -43.223178], [-72.408004, -43.22575], [-72.406366, -43.222509], [-72.405094, -43.221867], [-72.405197, -43.22086], [-72.404088, -43.220709], [-72.400058, -43.225153], [-72.39868, -43.228509], [-72.396336, -43.229864], [-72.393736, -43.233362], [-72.392916, -43.233574], [-72.392497, -43.235627], [-72.391123, -43.236102], [-72.390449, -43.237611], [-72.386, -43.239067], [-72.38468, -43.240173], [-72.383889, -43.24227], [-72.383196, -43.242595], [-72.38253, -43.241911], [-72.380352, -43.243449], [-72.379687, -43.243032], [-72.377607, -43.244123], [-72.376026, -43.243795], [-72.373796, -43.244576], [-72.372659, -43.243339], [-72.36877, -43.241889], [-72.366579, -43.241973], [-72.36306, -43.243225], [-72.362048, -43.245879], [-72.362374, -43.246888], [-72.364419, -43.247682], [-72.364224, -43.249941], [-72.355337, -43.254051], [-72.354892, -43.256174], [-72.355976, -43.25771], [-72.355563, -43.259161], [-72.356716, -43.259466], [-72.356606, -43.260024], [-72.357904, -43.259307], [-72.36012, -43.259489], [-72.359667, -43.259874], [-72.361075, -43.261657], [-72.36182, -43.264392], [-72.362539, -43.264032], [-72.362207, -43.265435], [-72.363306, -43.265548], [-72.363057, -43.266239], [-72.362413, -43.266136], [-72.362335, -43.269112], [-72.363076, -43.269046], [-72.363344, -43.266222], [-72.364084, -43.26664], [-72.365812, -43.264866], [-72.36712, -43.264886], [-72.366171, -43.266531], [-72.366707, -43.266722], [-72.365972, -43.267277], [-72.366203, -43.268046], [-72.365205, -43.267738], [-72.365833, -43.268683], [-72.364604, -43.268753], [-72.365157, -43.270038], [-72.364508, -43.270983], [-72.357837, -43.271879], [-72.356306, -43.27295], [-72.355201, -43.272513], [-72.354914, -43.271503], [-72.35085, -43.271007], [-72.344086, -43.273967], [-72.343748, -43.274831], [-72.342138, -43.275784], [-72.338705, -43.275795], [-72.336945, -43.276487], [-72.331678, -43.274299], [-72.33178, -43.272591], [-72.329741, -43.27169], [-72.329677, -43.270718], [-72.328239, -43.270308], [-72.325708, -43.270745], [-72.324611, -43.270181], [-72.323209, -43.272001], [-72.319297, -43.272541], [-72.319973, -43.273101], [-72.319507, -43.273369], [-72.317584, -43.273036], [-72.315989, -43.274341], [-72.30927, -43.274524], [-72.305191, -43.277372], [-72.305141, -43.278071], [-72.303708, -43.278441], [-72.301975, -43.280179], [-72.301854, -43.28121], [-72.303563, -43.282711], [-72.30365, -43.283747], [-72.304286, -43.284322], [-72.307504, -43.284659], [-72.309297, -43.287646], [-72.313818, -43.288392], [-72.315967, -43.291679], [-72.320137, -43.294274], [-72.320075, -43.295864], [-72.315107, -43.301485], [-72.315241, -43.302914], [-72.316314, -43.303254], [-72.315383, -43.304792], [-72.316443, -43.306576], [-72.315247, -43.309464], [-72.31441, -43.310089], [-72.314742, -43.311049], [-72.312838, -43.311685], [-72.312194, -43.313625], [-72.311041, -43.314558], [-72.310392, -43.317115], [-72.303182, -43.324288], [-72.302136, -43.326313], [-72.300317, -43.32684], [-72.297056, -43.329291], [-72.294432, -43.329646], [-72.292501, -43.332139], [-72.287051, -43.333337], [-72.285565, -43.336334], [-72.280351, -43.337208], [-72.278742, -43.336131], [-72.275013, -43.335214], [-72.269434, -43.338523], [-72.263281, -43.339233], [-72.258233, -43.341597], [-72.255739, -43.344999], [-72.255583, -43.346489], [-72.257922, -43.348506], [-72.259789, -43.353401], [-72.258233, -43.354529], [-72.258115, -43.35745], [-72.257085, -43.358936], [-72.257257, -43.359825], [-72.256098, -43.360863], [-72.256227, -43.362068], [-72.250621, -43.365524], [-72.246244, -43.366826], [-72.239984, -43.371716], [-72.235054, -43.373132], [-72.236953, -43.374145], [-72.235247, -43.375378], [-72.235676, -43.376142], [-72.234619, -43.377647], [-72.234914, -43.37884], [-72.24023, -43.382532], [-72.245386, -43.387215], [-72.247483, -43.393097], [-72.246577, -43.396512], [-72.247253, -43.399396], [-72.251079, -43.399774], [-72.253186, -43.401306], [-72.252937, -43.402352], [-72.249334, -43.406452], [-72.250839, -43.405609], [-72.250619, -43.406045], [-72.251273, -43.406043], [-72.248451, -43.407294], [-72.247263, -43.406772], [-72.247687, -43.407468], [-72.246166, -43.407826], [-72.247848, -43.407824], [-72.245274, -43.409384], [-72.243712, -43.411299], [-72.243336, -43.414326], [-72.241014, -43.416688], [-72.235518, -43.416795], [-72.232441, -43.418443], [-72.231133, -43.42072], [-72.22762, -43.420591], [-72.223255, -43.423586], [-72.21747, -43.42557], [-72.212995, -43.429155], [-72.210136, -43.428855], [-72.206274, -43.424815], [-72.206531, -43.423705], [-72.209817, -43.424196], [-72.208586, -43.422899], [-72.199831, -43.421044], [-72.200915, -43.419493], [-72.202803, -43.418905], [-72.204621, -43.41737], [-72.207275, -43.413949], [-72.210699, -43.41184], [-72.20738, -43.410995], [-72.205169, -43.411639], [-72.204334, -43.412701], [-72.201848, -43.412136], [-72.201263, -43.407027], [-72.199257, -43.404996], [-72.198122, -43.404964], [-72.197744, -43.405665], [-72.200306, -43.411191], [-72.197216, -43.414486], [-72.194243, -43.41576], [-72.190381, -43.416321], [-72.18141, -43.414969], [-72.181254, -43.413812], [-72.182043, -43.412491], [-72.17913, -43.408912], [-72.177987, -43.405367], [-72.176957, -43.405141], [-72.176453, -43.402693], [-72.174254, -43.398788], [-72.174897, -43.396894], [-72.173792, -43.395101], [-72.171971, -43.393764], [-72.17067, -43.386751], [-72.168856, -43.385904], [-72.167795, -43.383047], [-72.167752, -43.380583], [-72.165735, -43.378555], [-72.166271, -43.374407], [-72.167387, -43.371537], [-72.16919, -43.369252], [-72.169533, -43.365282], [-72.173899, -43.361998], [-72.178835, -43.360196], [-72.184607, -43.354338], [-72.188587, -43.35433], [-72.195883, -43.353011]], [[-72.21248, -43.410878], [-72.214272, -43.410885], [-72.21248, -43.410878]], [[-72.363349, -43.267999], [-72.364352, -43.269386], [-72.363816, -43.269404], [-72.363384, -43.270917], [-72.36215, -43.269972], [-72.363658, -43.269038], [-72.363349, -43.267999]], [[-72.354557, -43.258702], [-72.354184, -43.259742], [-72.352826, -43.260514], [-72.351368, -43.259102], [-72.352951, -43.257215], [-72.354232, -43.257712], [-72.354557, -43.258702]], [[-72.326347, -43.268408], [-72.329784, -43.26862], [-72.335696, -43.27098], [-72.340183, -43.270753], [-72.338812, -43.271583], [-72.340639, -43.271528], [-72.341505, -43.270667], [-72.340207, -43.270177], [-72.341572, -43.269281], [-72.341197, -43.266974], [-72.33959, -43.265794], [-72.337171, -43.265941], [-72.336186, -43.267777], [-72.333826, -43.266423], [-72.325779, -43.268137], [-72.326347, -43.268408]], [[-72.200595, -43.402078], [-72.201478, -43.399854], [-72.203959, -43.398648], [-72.207001, -43.395459], [-72.207137, -43.394467], [-72.206267, -43.393297], [-72.209685, -43.391433], [-72.211818, -43.392542], [-72.210954, -43.394686], [-72.211786, -43.396393], [-72.213374, -43.39681], [-72.212893, -43.400016], [-72.2085, -43.406335], [-72.206978, -43.406674], [-72.204144, -43.405793], [-72.20361, -43.406569], [-72.203847, -43.407668], [-72.205834, -43.409005], [-72.208722, -43.409136], [-72.209385, -43.408571], [-72.207357, -43.406727], [-72.211209, -43.4079], [-72.211233, -43.410915], [-72.206456, -43.40994], [-72.204302, -43.410866], [-72.200595, -43.402078]], [[-72.312053, -43.272928], [-72.312576, -43.27339], [-72.311888, -43.273357], [-72.312053, -43.272928]], [[-72.200555, -43.403958], [-72.200748, -43.404584], [-72.199853, -43.404562], [-72.198517, -43.403342], [-72.200555, -43.403958]], [[-72.309246, -43.251551], [-72.309048, -43.252412], [-72.308098, -43.252093], [-72.309246, -43.251551]], [[-72.317292, -43.269487], [-72.315244, -43.270225], [-72.314018, -43.269387], [-72.314941, -43.268574], [-72.316024, -43.268644], [-72.318703, -43.266013], [-72.320296, -43.266746], [-72.317292, -43.269487]]]]}}