{"type": "Feature", "properties": {"id": "lago-huishue", "name": "Lago Huishue", "type": "lake", "region": "los-rios"}, "geometry": {"type": "MultiPolygon", "coordinates": [[[[-71.987562, -40.458419], [-71.987899, -40.459507], [-71.984788, -40.462385], [-71.985367, -40.463074], [-71.984611, -40.463758], [-71.988301, -40.462458], [-71.991219, -40.462781], [-71.992416, -40.46176], [-71.992212, -40.460662], [-71.993387, -40.457993], [-71.996002, -40.457199], [-71.999652, -40.458095], [-71.999835, -40.457487], [-71.999143, -40.456985], [-72.000264, -40.456209], [-72.000049, -40.455675], [-72.002096, -40.452938], [-72.002042, -40.451815], [-72.003241, -40.450562], [-72.002984, -40.448649], [-72.004727, -40.449025], [-72.006631, -40.447241], [-72.009582, -40.447135], [-72.010757, -40.448445], [-72.013884, -40.449462], [-72.013659, -40.447841], [-72.014388, -40.447629], [-72.013801, -40.446051], [-72.014029, -40.443781], [-72.014853, -40.443436], [-72.014001, -40.441926], [-72.015153, -40.440178], [-72.014592, -40.437523], [-72.01563, -40.433688], [-72.01505, -40.431625], [-72.018143, -40.425109], [-72.019278, -40.423908], [-72.019042, -40.421873], [-72.022384, -40.422224], [-72.023331, -40.421615], [-72.02648, -40.422939], [-72.024232, -40.42057], [-72.024248, -40.419455], [-72.021035, -40.41914], [-72.019364, -40.417231], [-72.020686, -40.41348], [-72.020472, -40.412557], [-72.019013, -40.413133], [-72.018508, -40.412642], [-72.018192, -40.411699], [-72.019764, -40.411135], [-72.018954, -40.410555], [-72.011508, -40.408333], [-72.006755, -40.40799], [-72.004802, -40.407116], [-72.004389, -40.405805], [-72.00367, -40.405899], [-72.002592, -40.407802], [-72.003225, -40.412577], [-71.999395, -40.417727], [-71.998059, -40.422608], [-71.994798, -40.425446], [-71.992813, -40.428995], [-71.993, -40.429648], [-71.98931, -40.432861], [-71.987078, -40.433027], [-71.985549, -40.433872], [-71.98335, -40.437649], [-71.981773, -40.438521], [-71.981236, -40.441032], [-71.979697, -40.442718], [-71.975277, -40.442742], [-71.974579, -40.443538], [-71.975899, -40.443387], [-71.97518, -40.446298], [-71.971317, -40.448921], [-71.966404, -40.44938], [-71.968453, -40.450972], [-71.967498, -40.452164], [-71.967981, -40.452891], [-71.966532, -40.454303], [-71.966307, -40.456156], [-71.965438, -40.457181], [-71.966116, -40.45856], [-71.970507, -40.457883], [-71.971607, -40.458871], [-71.971098, -40.460013], [-71.97283, -40.461058], [-71.973721, -40.460319], [-71.976339, -40.461226], [-71.979294, -40.460471], [-71.982036, -40.458062], [-71.984648, -40.459258], [-71.987562, -40.458419]]]]}}