{"type": "Feature", "properties": {"id": "lago-riesco", "name": "Lago Riesco", "type": "lake", "region": "aysen"}, "geometry": {"type": "MultiPolygon", "coordinates": [[[[-72.12292, -52.831211], [-72.120799, -52.828649], [-72.1175, -52.826655], [-72.113023, -52.826371], [-72.110902, -52.828791], [-72.110431, -52.831638], [-72.091815, -52.832066], [-72.087809, -52.833347], [-72.086159, -52.835909], [-72.08286, -52.837902], [-72.074613, -52.840607], [-72.081211, -52.845019], [-72.085688, -52.846442], [-72.090401, -52.847438], [-72.095114, -52.846442], [-72.096292, -52.849288], [-72.094131, -52.851796], [-72.09535, -52.855123], [-72.094171, -52.857968], [-72.092993, -52.869492], [-72.091815, -52.872336], [-72.091108, -52.878025], [-72.0937, -52.880443], [-72.095114, -52.883145], [-72.096292, -52.888832], [-72.097706, -52.891676], [-72.109017, -52.897504], [-72.11373, -52.897646], [-72.115851, -52.900063], [-72.121035, -52.900063], [-72.134702, -52.891249], [-72.138944, -52.889543], [-72.143657, -52.888548], [-72.14837, -52.88869], [-72.153082, -52.889685], [-72.154732, -52.89523], [-72.154732, -52.9012], [-72.158974, -52.899779], [-72.163686, -52.900489], [-72.168635, -52.899779], [-72.172641, -52.897931], [-72.173112, -52.889117], [-72.169342, -52.88741], [-72.166985, -52.884851], [-72.163451, -52.882434], [-72.159209, -52.881438], [-72.156146, -52.879163], [-72.151433, -52.878594], [-72.142007, -52.879021], [-72.140122, -52.876461], [-72.142478, -52.873759], [-72.141536, -52.870914], [-72.139179, -52.868211], [-72.138944, -52.865366], [-72.140829, -52.862663], [-72.141065, -52.859676], [-72.138001, -52.857257], [-72.133524, -52.856972], [-72.13211, -52.854269], [-72.13376, -52.851565], [-72.129282, -52.850854], [-72.124805, -52.850996], [-72.12292, -52.848292], [-72.122684, -52.845446], [-72.123391, -52.842599], [-72.125983, -52.840037], [-72.125983, -52.83719], [-72.123863, -52.834628], [-72.12292, -52.831211]]]]}}