{"type": "Feature", "properties": {"id": "lago-tagua-tagua", "name": "Lago Tagua Tagua", "type": "lake", "region": "los-lagos"}, "geometry": {"type": "MultiPolygon", "coordinates": [[[[-72.19989, -41.618542], [-72.197428, -41.620636], [-72.197117, -41.620094], [-72.19599, -41.62297], [-72.191538, -41.625777], [-72.18937, -41.628255], [-72.187713, -41.632144], [-72.187654, -41.633162], [-72.188366, -41.633661], [-72.180283, -41.637056], [-72.175734, -41.640026], [-72.169592, -41.642792], [-72.167226, -41.645081], [-72.16346, -41.645286], [-72.158648, -41.6521], [-72.153579, -41.653239], [-72.152114, -41.654906], [-72.152056, -41.656277], [-72.153289, -41.657928], [-72.153112, -41.659752], [-72.149974, -41.662144], [-72.148767, -41.664974], [-72.146713, -41.666552], [-72.146986, -41.668251], [-72.146246, -41.66955], [-72.140307, -41.671281], [-72.138784, -41.674178], [-72.137561, -41.674959], [-72.137239, -41.676366], [-72.135544, -41.67782], [-72.132218, -41.679427], [-72.128028, -41.68032], [-72.123066, -41.683413], [-72.120593, -41.686398], [-72.120931, -41.689222], [-72.120443, -41.691013], [-72.121934, -41.692383], [-72.121839, -41.69554], [-72.118809, -41.696082], [-72.118725, -41.699333], [-72.117074, -41.699339], [-72.114742, -41.697549], [-72.113926, -41.697547], [-72.113421, -41.698415], [-72.119896, -41.702352], [-72.121328, -41.7022], [-72.121779, -41.70087], [-72.123259, -41.699701], [-72.125298, -41.701539], [-72.127631, -41.705156], [-72.121098, -41.709013], [-72.114824, -41.708663], [-72.11172, -41.711761], [-72.112118, -41.712822], [-72.117496, -41.714188], [-72.120474, -41.713], [-72.126261, -41.713263], [-72.130354, -41.711719], [-72.133958, -41.711736], [-72.135857, -41.709936], [-72.137176, -41.707424], [-72.138111, -41.707058], [-72.137802, -41.705851], [-72.139472, -41.70509], [-72.14236, -41.701873], [-72.142508, -41.700404], [-72.141848, -41.699547], [-72.142576, -41.697289], [-72.144031, -41.696134], [-72.14651, -41.696414], [-72.149693, -41.690871], [-72.151751, -41.689504], [-72.151501, -41.688774], [-72.152115, -41.687899], [-72.155037, -41.685785], [-72.156049, -41.681531], [-72.155514, -41.681421], [-72.155196, -41.679807], [-72.156344, -41.6785], [-72.159209, -41.677447], [-72.160937, -41.674339], [-72.159175, -41.673354], [-72.159687, -41.671749], [-72.163268, -41.670262], [-72.163291, -41.667273], [-72.165064, -41.664725], [-72.16312, -41.660996], [-72.16382, -41.658249], [-72.165048, -41.65709], [-72.167759, -41.656053], [-72.170986, -41.651752], [-72.168725, -41.649507], [-72.168168, -41.645914], [-72.169247, -41.645185], [-72.169633, -41.64387], [-72.172744, -41.642848], [-72.175879, -41.643203], [-72.178637, -41.641979], [-72.18374, -41.641829], [-72.183899, -41.640894], [-72.183103, -41.640529], [-72.184274, -41.638158], [-72.193745, -41.633867], [-72.194404, -41.63204], [-72.193711, -41.630986], [-72.194245, -41.627936], [-72.193449, -41.627222], [-72.198838, -41.6231], [-72.201421, -41.618537], [-72.19989, -41.618542]], [[-72.191564, -41.629855], [-72.1904, -41.631968], [-72.191564, -41.629855]]]]}}