{"type": "Feature", "properties": {"id": "lago-llanquihue", "name": "Lago Llanquihue", "type": "lake", "region": "los-lagos"}, "geometry": {"type": "MultiPolygon", "coordinates": [[[[-72.874472, -40.995515], [-72.871098, -40.993983], [-72.865506, -40.993312], [-72.86483, -40.991897], [-72.861398, -40.990293], [-72.859912, -40.988873], [-72.861263, -40.987788], [-72.863616, -40.987797], [-72.867402, -40.989916], [-72.867485, -40.991052], [-72.866493, -40.991452], [-72.867375, -40.992427], [-72.87229, -40.992917], [-72.873633, -40.993379], [-72.874011, -40.994513], [-72.875819, -40.994991], [-72.879257, -40.99347], [-72.879271, -40.992275], [-72.881233, -40.991196], [-72.881349, -40.989378], [-72.884371, -40.987995], [-72.88496, -40.983753], [-72.885927, -40.983734], [-72.88613, -40.982908], [-72.886781, -40.983531], [-72.888498, -40.983568], [-72.886813, -40.981477], [-72.885473, -40.981295], [-72.888131, -40.980384], [-72.887026, -40.978374], [-72.885323, -40.978705], [-72.883727, -40.976571], [-72.882557, -40.976456], [-72.883931, -40.977268], [-72.883294, -40.978342], [-72.882523, -40.977948], [-72.882483, -40.978685], [-72.881475, -40.978611], [-72.882311, -40.979533], [-72.882027, -40.979892], [-72.880423, -40.980016], [-72.876598, -40.978878], [-72.878188, -40.974538], [-72.8795, -40.973211], [-72.879127, -40.972521], [-72.879614, -40.971364], [-72.878859, -40.969886], [-72.878756, -40.968743], [-72.879493, -40.967726], [-72.879189, -40.966682], [-72.877936, -40.966263], [-72.877743, -40.96474], [-72.876981, -40.964055], [-72.874149, -40.96382], [-72.873033, -40.961884], [-72.871419, -40.961131], [-72.870029, -40.961738], [-72.866003, -40.961185], [-72.861044, -40.962222], [-72.860473, -40.961933], [-72.860408, -40.960676], [-72.857876, -40.960505], [-72.857784, -40.958873], [-72.85514, -40.957999], [-72.853182, -40.95906], [-72.850395, -40.958657], [-72.84266, -40.960719], [-72.840718, -40.958943], [-72.833956, -40.959289], [-72.821033, -40.961418], [-72.818575, -40.962307], [-72.81655, -40.963958], [-72.815017, -40.966364], [-72.815124, -40.967929], [-72.813441, -40.969657], [-72.809894, -40.977211], [-72.807322, -40.985629], [-72.807046, -40.993792], [-72.807523, -40.9953], [-72.809593, -40.997621], [-72.807274, -41.000008], [-72.8013, -41.002021], [-72.797477, -41.006061], [-72.796067, -41.004703], [-72.792756, -41.003118], [-72.787808, -41.004448], [-72.786492, -41.003875], [-72.781793, -41.004326], [-72.775111, -41.003401], [-72.772458, -41.002049], [-72.77208, -41.0009], [-72.773116, -40.999253], [-72.774736, -40.998622], [-72.775425, -40.997617], [-72.774117, -40.997718], [-72.774162, -40.998487], [-72.773016, -40.999106], [-72.770455, -40.998261], [-72.765919, -41.000227], [-72.764884, -41.00278], [-72.765536, -41.003504], [-72.765485, -41.005198], [-72.766696, -41.00561], [-72.767196, -41.005104], [-72.768972, -41.009417], [-72.759864, -41.01266], [-72.758174, -41.013773], [-72.755673, -41.016966], [-72.752093, -41.018558], [-72.750625, -41.01836], [-72.750279, -41.017767], [-72.749314, -41.018146], [-72.74587, -41.016405], [-72.743402, -41.013922], [-72.746489, -41.013764], [-72.745591, -41.012266], [-72.74279, -41.011018], [-72.740438, -41.010854], [-72.73917, -41.009874], [-72.740044, -41.008455], [-72.742233, -41.00969], [-72.743566, -41.008783], [-72.743933, -41.007469], [-72.742536, -41.005508], [-72.740221, -41.00452], [-72.73391, -41.004895], [-72.724712, -41.008779], [-72.721381, -41.011092], [-72.720794, -41.012392], [-72.72235, -41.014752], [-72.7207, -41.019722], [-72.719281, -41.020674], [-72.715689, -41.020256], [-72.714072, -41.021082], [-72.713922, -41.02369], [-72.705851, -41.020661], [-72.702187, -41.020805], [-72.703113, -41.019501], [-72.702252, -41.018793], [-72.699097, -41.019758], [-72.697043, -41.019621], [-72.698752, -41.01813], [-72.69998, -41.017917], [-72.699696, -41.016077], [-72.6969, -41.016137], [-72.695568, -41.015203], [-72.693071, -41.015019], [-72.691775, -41.013203], [-72.687368, -41.013964], [-72.68287, -41.016231], [-72.682017, -41.017109], [-72.682124, -41.019362], [-72.681741, -41.018814], [-72.678407, -41.018674], [-72.67772, -41.017567], [-72.675789, -41.016761], [-72.676261, -41.016583], [-72.675497, -41.014424], [-72.672857, -41.014288], [-72.668, -41.016041], [-72.664982, -41.018138], [-72.666714, -41.022371], [-72.662016, -41.022258], [-72.658194, -41.023729], [-72.655283, -41.027705], [-72.666208, -41.036005], [-72.667093, -41.038052], [-72.666058, -41.041643], [-72.666165, -41.04363], [-72.670387, -41.047103], [-72.671972, -41.047034], [-72.673992, -41.048632], [-72.672924, -41.050531], [-72.672321, -41.054729], [-72.670687, -41.057835], [-72.666334, -41.058806], [-72.663816, -41.060578], [-72.660841, -41.060408], [-72.654836, -41.064588], [-72.651547, -41.067898], [-72.650879, -41.071451], [-72.646633, -41.076371], [-72.642495, -41.083542], [-72.640765, -41.089759], [-72.635105, -41.091109], [-72.630972, -41.096053], [-72.630832, -41.097303], [-72.63231, -41.097665], [-72.631997, -41.099037], [-72.633008, -41.100088], [-72.631787, -41.101576], [-72.632503, -41.101628], [-72.632831, -41.104114], [-72.634311, -41.106453], [-72.633051, -41.108073], [-72.632917, -41.109482], [-72.631455, -41.110383], [-72.631377, -41.111406], [-72.628671, -41.111865], [-72.626288, -41.1133], [-72.625109, -41.11535], [-72.62303, -41.116126], [-72.622628, -41.116876], [-72.621493, -41.116781], [-72.622547, -41.117274], [-72.622593, -41.118036], [-72.619213, -41.120133], [-72.617075, -41.12237], [-72.615182, -41.126478], [-72.615413, -41.12788], [-72.613894, -41.129139], [-72.610418, -41.1293], [-72.606234, -41.13407], [-72.604252, -41.134672], [-72.601551, -41.134175], [-72.596436, -41.135769], [-72.595229, -41.13728], [-72.593485, -41.137096], [-72.592986, -41.137765], [-72.593435, -41.138345], [-72.592142, -41.13989], [-72.589655, -41.139817], [-72.589425, -41.14054], [-72.590184, -41.141324], [-72.588513, -41.141439], [-72.588462, -41.142659], [-72.587619, -41.14334], [-72.58785, -41.144883], [-72.5852, -41.146394], [-72.576639, -41.149094], [-72.576601, -41.150171], [-72.578929, -41.151491], [-72.578575, -41.153069], [-72.576561, -41.154501], [-72.577247, -41.15524], [-72.578127, -41.154555], [-72.579342, -41.155002], [-72.578698, -41.155432], [-72.578881, -41.156084], [-72.582207, -41.161694], [-72.582126, -41.162599], [-72.580844, -41.163055], [-72.580394, -41.165139], [-72.581145, -41.167861], [-72.581027, -41.168624], [-72.58001, -41.168939], [-72.58063, -41.170358], [-72.577199, -41.172523], [-72.577078, -41.173062], [-72.578025, -41.173613], [-72.57619, -41.176347], [-72.576477, -41.176869], [-72.577625, -41.175949], [-72.579458, -41.176722], [-72.580179, -41.177665], [-72.579393, -41.178908], [-72.577929, -41.179946], [-72.575297, -41.180301], [-72.574085, -41.180388], [-72.570923, -41.178791], [-72.568399, -41.179944], [-72.56654, -41.179233], [-72.566387, -41.179974], [-72.565073, -41.180293], [-72.563429, -41.17839], [-72.561398, -41.178517], [-72.56205, -41.17883], [-72.561551, -41.179569], [-72.56246, -41.180812], [-72.5597, -41.181026], [-72.558756, -41.182375], [-72.559859, -41.183189], [-72.557914, -41.183539], [-72.556262, -41.182609], [-72.556889, -41.183167], [-72.55627, -41.184044], [-72.556838, -41.185223], [-72.555092, -41.187092], [-72.556629, -41.188265], [-72.556227, -41.189298], [-72.555366, -41.189171], [-72.555395, -41.189853], [-72.553735, -41.190041], [-72.554344, -41.190548], [-72.554178, -41.191478], [-72.551399, -41.192057], [-72.550061, -41.193077], [-72.547756, -41.192104], [-72.548167, -41.191349], [-72.546657, -41.190132], [-72.546189, -41.190646], [-72.544296, -41.190445], [-72.544146, -41.192841], [-72.542878, -41.19348], [-72.544457, -41.194617], [-72.54243, -41.196285], [-72.542835, -41.196906], [-72.541555, -41.197386], [-72.54229, -41.199519], [-72.541335, -41.200043], [-72.542864, -41.200962], [-72.541461, -41.201261], [-72.542033, -41.202039], [-72.540627, -41.203133], [-72.540933, -41.203955], [-72.539305, -41.204715], [-72.540289, -41.206683], [-72.544559, -41.211193], [-72.55302, -41.215563], [-72.555513, -41.216235], [-72.561991, -41.216988], [-72.566331, -41.218283], [-72.568377, -41.218091], [-72.574304, -41.219617], [-72.575799, -41.219431], [-72.588793, -41.222655], [-72.593748, -41.219318], [-72.603686, -41.223512], [-72.609233, -41.223818], [-72.610029, -41.223093], [-72.611718, -41.22293], [-72.614809, -41.223631], [-72.618763, -41.22195], [-72.636178, -41.226883], [-72.64545, -41.224515], [-72.653854, -41.222931], [-72.65668, -41.223072], [-72.666088, -41.221059], [-72.672303, -41.2188], [-72.673088, -41.218184], [-72.672944, -41.217419], [-72.675684, -41.217653], [-72.676808, -41.217066], [-72.678284, -41.217516], [-72.681792, -41.216051], [-72.684761, -41.215997], [-72.691163, -41.214028], [-72.703472, -41.214766], [-72.713968, -41.213608], [-72.717897, -41.214191], [-72.722524, -41.215737], [-72.72913, -41.219401], [-72.732654, -41.220621], [-72.735211, -41.222657], [-72.744546, -41.225058], [-72.746724, -41.228239], [-72.752015, -41.229147], [-72.755213, -41.231011], [-72.75831, -41.234012], [-72.762542, -41.236642], [-72.768398, -41.242964], [-72.769516, -41.244942], [-72.769457, -41.246801], [-72.771717, -41.248451], [-72.775741, -41.248925], [-72.778878, -41.248426], [-72.781109, -41.249796], [-72.782641, -41.251706], [-72.783791, -41.251978], [-72.790386, -41.251573], [-72.794648, -41.250569], [-72.795174, -41.251264], [-72.796794, -41.250935], [-72.799889, -41.252317], [-72.802658, -41.256188], [-72.811375, -41.257412], [-72.812426, -41.261346], [-72.814296, -41.26334], [-72.816466, -41.264269], [-72.820958, -41.264715], [-72.824783, -41.26881], [-72.827814, -41.270205], [-72.834324, -41.271564], [-72.845058, -41.272291], [-72.85377, -41.277335], [-72.860963, -41.278326], [-72.87023, -41.277423], [-72.872701, -41.278703], [-72.873599, -41.280193], [-72.872572, -41.282882], [-72.870753, -41.284329], [-72.869628, -41.28433], [-72.870737, -41.284021], [-72.871912, -41.282475], [-72.872591, -41.280002], [-72.870807, -41.278379], [-72.869517, -41.278523], [-72.869321, -41.28006], [-72.867886, -41.281838], [-72.866084, -41.282638], [-72.864434, -41.285663], [-72.865287, -41.287409], [-72.865617, -41.286661], [-72.866634, -41.287465], [-72.867393, -41.287147], [-72.868062, -41.2888], [-72.87177, -41.29096], [-72.872331, -41.292556], [-72.871223, -41.294263], [-72.871526, -41.296957], [-72.8738, -41.302188], [-72.87615, -41.304195], [-72.876525, -41.305861], [-72.879699, -41.306941], [-72.879794, -41.307605], [-72.887233, -41.308618], [-72.887973, -41.308432], [-72.888861, -41.306939], [-72.891286, -41.307281], [-72.897189, -41.310226], [-72.909967, -41.308352], [-72.915985, -41.30884], [-72.920747, -41.310731], [-72.929948, -41.312701], [-72.936819, -41.311606], [-72.942419, -41.309182], [-72.943846, -41.309716], [-72.947132, -41.309438], [-72.950364, -41.313229], [-72.953185, -41.322981], [-72.954078, -41.324502], [-72.955109, -41.324597], [-72.954489, -41.325101], [-72.956091, -41.32584], [-72.957314, -41.327612], [-72.9609, -41.327872], [-72.971964, -41.325022], [-72.972825, -41.323819], [-72.975486, -41.322357], [-72.975993, -41.320965], [-72.98111, -41.318167], [-72.981767, -41.3174], [-72.981062, -41.316962], [-72.98192, -41.317065], [-72.982556, -41.315812], [-72.981085, -41.314039], [-72.978291, -41.312778], [-72.976671, -41.310034], [-72.977197, -41.297781], [-72.980252, -41.292689], [-72.977607, -41.288648], [-72.977835, -41.286657], [-72.981845, -41.281808], [-72.984423, -41.27985], [-72.984782, -41.278518], [-72.986625, -41.276325], [-72.987424, -41.272767], [-72.990071, -41.268858], [-72.990887, -41.264834], [-72.999246, -41.259605], [-73.000578, -41.259779], [-73.003332, -41.25818], [-73.003595, -41.256311], [-73.003075, -41.255658], [-73.002324, -41.255966], [-73.00084, -41.255342], [-73.001137, -41.253935], [-73.000368, -41.252534], [-73.004373, -41.248749], [-73.004689, -41.247838], [-73.004024, -41.247017], [-73.005066, -41.246432], [-73.004588, -41.246026], [-73.005306, -41.246163], [-73.009214, -41.241898], [-73.010049, -41.237854], [-73.011894, -41.234867], [-73.012669, -41.231468], [-73.012072, -41.22958], [-73.009383, -41.228086], [-73.005668, -41.227522], [-73.0054, -41.226938], [-73.011614, -41.223703], [-73.016521, -41.223132], [-73.019496, -41.223594], [-73.021249, -41.222324], [-73.029674, -41.219883], [-73.033508, -41.216986], [-73.034827, -41.213578], [-73.034762, -41.211879], [-73.033955, -41.210064], [-73.032335, -41.209259], [-73.01499, -41.211797], [-73.010672, -41.210427], [-73.007659, -41.208154], [-73.001701, -41.206875], [-72.99803, -41.204471], [-73.002082, -41.201694], [-73.009829, -41.199347], [-73.016633, -41.195583], [-73.022871, -41.194327], [-73.022459, -41.192415], [-73.020622, -41.192558], [-73.020319, -41.191841], [-73.018772, -41.191814], [-73.018986, -41.190878], [-73.017189, -41.18922], [-73.010215, -41.189145], [-73.009048, -41.18859], [-73.00298, -41.192702], [-72.998333, -41.194072], [-72.992051, -41.194015], [-72.990675, -41.194835], [-72.98515, -41.19392], [-72.98288, -41.194214], [-72.981274, -41.192572], [-72.981542, -41.189956], [-72.980979, -41.188685], [-72.97735, -41.187177], [-72.965602, -41.187936], [-72.962732, -41.187542], [-72.960575, -41.18945], [-72.957555, -41.189488], [-72.956968, -41.188743], [-72.956989, -41.187062], [-72.958191, -41.182647], [-72.958061, -41.179759], [-72.950294, -41.177106], [-72.948159, -41.174281], [-72.943514, -41.17287], [-72.94386, -41.167206], [-72.943436, -41.166607], [-72.945021, -41.164993], [-72.94769, -41.163852], [-72.952043, -41.160585], [-72.95329, -41.15876], [-72.965355, -41.154699], [-72.972935, -41.149477], [-72.977696, -41.147707], [-72.979159, -41.146431], [-72.98126, -41.146022], [-72.98517, -41.14745], [-72.995264, -41.145887], [-73.004196, -41.145769], [-73.010345, -41.147385], [-73.009139, -41.148016], [-73.009733, -41.1483], [-73.010306, -41.147717], [-73.01241, -41.148581], [-73.01298, -41.14942], [-73.016416, -41.14951], [-73.018724, -41.147772], [-73.019442, -41.146695], [-73.018628, -41.146771], [-73.018913, -41.146436], [-73.020001, -41.146647], [-73.02013, -41.145995], [-73.023934, -41.143543], [-73.025318, -41.140014], [-73.024691, -41.139366], [-73.025799, -41.139108], [-73.027068, -41.13511], [-73.026807, -41.1284], [-73.025809, -41.126765], [-73.023902, -41.126288], [-73.018832, -41.121714], [-73.012371, -41.120176], [-73.005094, -41.119951], [-73.000894, -41.1175], [-72.996296, -41.11612], [-72.992866, -41.113333], [-72.990007, -41.112992], [-72.984163, -41.110224], [-72.979611, -41.109385], [-72.976207, -41.105082], [-72.977318, -41.101737], [-72.980754, -41.100761], [-72.981384, -41.098821], [-72.979852, -41.095954], [-72.977597, -41.094081], [-72.966592, -41.091556], [-72.964433, -41.092091], [-72.958651, -41.091688], [-72.956093, -41.093147], [-72.950297, -41.094572], [-72.946871, -41.094178], [-72.943597, -41.092654], [-72.939329, -41.089922], [-72.936073, -41.08481], [-72.934192, -41.078126], [-72.935947, -41.075162], [-72.935711, -41.07391], [-72.93335, -41.071156], [-72.929735, -41.069913], [-72.927469, -41.068121], [-72.92177, -41.066337], [-72.916124, -41.066268], [-72.904282, -41.061831], [-72.898903, -41.06176], [-72.897093, -41.062464], [-72.895651, -41.06201], [-72.895251, -41.060305], [-72.896838, -41.059778], [-72.897171, -41.05869], [-72.896659, -41.05819], [-72.897203, -41.057342], [-72.894677, -41.052417], [-72.894959, -41.050252], [-72.90021, -41.04301], [-72.903692, -41.041037], [-72.90706, -41.040338], [-72.909404, -41.0384], [-72.913317, -41.038378], [-72.912863, -41.034924], [-72.91722, -41.031952], [-72.92017, -41.030799], [-72.920415, -41.028288], [-72.918443, -41.026329], [-72.918373, -41.025564], [-72.919637, -41.022834], [-72.921697, -41.022454], [-72.922308, -41.021503], [-72.923861, -41.021127], [-72.923279, -41.019754], [-72.923626, -41.018174], [-72.922432, -41.017933], [-72.920466, -41.020664], [-72.920138, -41.018656], [-72.921501, -41.018005], [-72.926168, -41.012773], [-72.927681, -41.010635], [-72.927815, -41.008344], [-72.926405, -41.007204], [-72.925247, -41.007898], [-72.923613, -41.00709], [-72.924394, -41.006593], [-72.923569, -41.005782], [-72.924036, -41.004893], [-72.921337, -41.002757], [-72.919854, -41.000626], [-72.922712, -40.997638], [-72.921206, -40.997128], [-72.920769, -40.998278], [-72.919167, -40.999257], [-72.91604, -40.997784], [-72.914432, -40.998129], [-72.91442, -40.997349], [-72.916604, -40.996323], [-72.91417, -40.995986], [-72.914404, -40.994558], [-72.913273, -40.993901], [-72.914094, -40.992859], [-72.913658, -40.992082], [-72.912853, -40.993058], [-72.912298, -40.9925], [-72.911718, -40.993271], [-72.910382, -40.992672], [-72.910681, -40.994545], [-72.912507, -40.995568], [-72.909927, -40.996991], [-72.910311, -40.997537], [-72.90982, -40.998881], [-72.907667, -40.999214], [-72.908646, -41.000455], [-72.90643, -41.002569], [-72.905335, -41.003172], [-72.905346, -41.002429], [-72.903208, -41.001322], [-72.898538, -41.00101], [-72.89794, -41.001686], [-72.900153, -41.005042], [-72.897464, -41.005335], [-72.895733, -41.006787], [-72.887087, -41.010494], [-72.885286, -41.010319], [-72.883188, -41.007338], [-72.883487, -41.002958], [-72.88252, -41.001263], [-72.877244, -40.997917], [-72.874338, -40.997143], [-72.874472, -40.995515]], [[-72.886597, -41.065794], [-72.887429, -41.067379], [-72.886597, -41.065794]], [[-72.788937, -41.004065], [-72.788937, -41.004065]]]]}}