{"type": "Feature", "properties": {"id": "lago-cochrane", "name": "Lago Cochrane", "type": "lake", "region": "aysen"}, "geometry": {"type": "MultiPolygon", "coordinates": [[[[-72.42268, -47.243081], [-72.423334, -47.242701], [-72.425676, -47.243249], [-72.428079, -47.244746], [-72.433948, -47.24487], [-72.438558, -47.247286], [-72.439508, -47.248402], [-72.443349, -47.246747], [-72.444432, -47.247634], [-72.44517, -47.249868], [-72.447115, -47.251483], [-72.446624, -47.254297], [-72.448794, -47.254583], [-72.449059, -47.25332], [-72.450709, -47.253928], [-72.449821, -47.254638], [-72.45018, -47.256687], [-72.451014, -47.256999], [-72.453852, -47.255956], [-72.455708, -47.25721], [-72.456454, -47.256868], [-72.457181, -47.258515], [-72.458096, -47.258595], [-72.459115, -47.257765], [-72.462612, -47.259145], [-72.464549, -47.258905], [-72.467703, -47.259906], [-72.472692, -47.26369], [-72.47331, -47.266579], [-72.477011, -47.26689], [-72.484236, -47.264746], [-72.489831, -47.262409], [-72.490234, -47.259118], [-72.491387, -47.258481], [-72.490808, -47.257097], [-72.49217, -47.256897], [-72.490196, -47.248864], [-72.488533, -47.245572], [-72.489118, -47.243999], [-72.48871, -47.242943], [-72.489333, -47.242284], [-72.488319, -47.240492], [-72.486548, -47.239469], [-72.486919, -47.238809], [-72.485438, -47.238813], [-72.482836, -47.237057], [-72.48274, -47.23394], [-72.480937, -47.228629], [-72.482815, -47.22935], [-72.483614, -47.228818], [-72.4862, -47.229026], [-72.486398, -47.228505], [-72.485132, -47.226731], [-72.484188, -47.22645], [-72.48289, -47.223627], [-72.482836, -47.222654], [-72.484387, -47.222534], [-72.483335, -47.22065], [-72.485706, -47.220676], [-72.485937, -47.220027], [-72.487412, -47.220355], [-72.488362, -47.219153], [-72.490385, -47.219041], [-72.490313, -47.218585], [-72.488617, -47.217194], [-72.486249, -47.217628], [-72.4814, -47.214375], [-72.481632, -47.213911], [-72.479318, -47.213092], [-72.477892, -47.210147], [-72.476157, -47.208288], [-72.471587, -47.205395], [-72.471338, -47.204418], [-72.467714, -47.20107], [-72.461925, -47.201994], [-72.460226, -47.201101], [-72.458493, -47.198931], [-72.45433, -47.197209], [-72.446113, -47.1999], [-72.445931, -47.201001], [-72.444685, -47.201855], [-72.442986, -47.201994], [-72.44182, -47.204703], [-72.439656, -47.204803], [-72.439067, -47.205911], [-72.437697, -47.206272], [-72.43798, -47.207573], [-72.435782, -47.206873], [-72.436589, -47.205693], [-72.434047, -47.204318], [-72.432554, -47.20476], [-72.432905, -47.207118], [-72.429915, -47.208074], [-72.429815, -47.206324], [-72.428588, -47.206123], [-72.426267, -47.210064], [-72.417459, -47.211061], [-72.412443, -47.209066], [-72.408406, -47.210729], [-72.394583, -47.21023], [-72.38553, -47.208568], [-72.374887, -47.200257], [-72.37085, -47.200007], [-72.367791, -47.202833], [-72.363143, -47.204911], [-72.358372, -47.204662], [-72.355069, -47.206656], [-72.349564, -47.204828], [-72.340756, -47.203332], [-72.33366, -47.198095], [-72.330112, -47.198927], [-72.32106, -47.193108], [-72.315687, -47.189111], [-72.315494, -47.188368], [-72.312478, -47.188997], [-72.307986, -47.1881], [-72.305196, -47.183855], [-72.303809, -47.183884], [-72.302778, -47.183084], [-72.299998, -47.184102], [-72.299319, -47.185581], [-72.300148, -47.186222], [-72.298928, -47.186213], [-72.299368, -47.1872], [-72.298595, -47.187271], [-72.298914, -47.188681], [-72.298206, -47.188202], [-72.29635, -47.188426], [-72.295044, -47.187905], [-72.294392, -47.186481], [-72.293321, -47.185982], [-72.292992, -47.184339], [-72.293746, -47.183777], [-72.29325, -47.183143], [-72.287818, -47.180603], [-72.280772, -47.180478], [-72.279112, -47.179927], [-72.275504, -47.180893], [-72.273573, -47.180076], [-72.270244, -47.180529], [-72.267667, -47.17988], [-72.266264, -47.178547], [-72.262748, -47.177613], [-72.261589, -47.17645], [-72.25693, -47.175623], [-72.256104, -47.172798], [-72.252386, -47.170384], [-72.252536, -47.169113], [-72.250734, -47.164095], [-72.250139, -47.163985], [-72.248607, -47.160483], [-72.244959, -47.159213], [-72.241311, -47.155624], [-72.232367, -47.152691], [-72.229166, -47.152268], [-72.225304, -47.152837], [-72.218351, -47.149349], [-72.215219, -47.14967], [-72.212193, -47.150881], [-72.210734, -47.150079], [-72.206163, -47.152063], [-72.204511, -47.150998], [-72.201077, -47.152741], [-72.196713, -47.153024], [-72.192134, -47.151163], [-72.183193, -47.151938], [-72.176909, -47.150987], [-72.174204, -47.152936], [-72.171063, -47.152325], [-72.169698, -47.152667], [-72.165445, -47.156552], [-72.162428, -47.15594], [-72.161962, -47.15489], [-72.159761, -47.153655], [-72.156322, -47.15329], [-72.150988, -47.155343], [-72.141853, -47.154817], [-72.139161, -47.155511], [-72.137444, -47.157055], [-72.13432, -47.158269], [-72.13156, -47.158406], [-72.130308, -47.160268], [-72.123043, -47.159255], [-72.118493, -47.160973], [-72.115361, -47.161179], [-72.114931, -47.16173], [-72.110296, -47.162699], [-72.106695, -47.164593], [-72.107174, -47.167215], [-72.105681, -47.169525], [-72.101776, -47.170473], [-72.098994, -47.171929], [-72.099045, -47.174373], [-72.096355, -47.175995], [-72.095469, -47.177726], [-72.098968, -47.183467], [-72.095611, -47.187329], [-72.088935, -47.192844], [-72.088437, -47.193757], [-72.088843, -47.194574], [-72.087382, -47.196924], [-72.08045, -47.203441], [-72.080296, -47.204571], [-72.078935, -47.204524], [-72.077413, -47.206286], [-72.075966, -47.206123], [-72.074823, -47.207418], [-72.073431, -47.207541], [-72.072367, -47.208678], [-72.071191, -47.208443], [-72.070394, -47.209282], [-72.065404, -47.209719], [-72.063965, -47.210575], [-72.0615, -47.210135], [-72.06049, -47.210566], [-72.059114, -47.20953], [-72.057846, -47.209578], [-72.056808, -47.210402], [-72.051548, -47.211507], [-72.050725, -47.212958], [-72.049089, -47.214025], [-72.04193, -47.21738], [-72.038287, -47.217061], [-72.034717, -47.218239], [-72.03426, -47.219323], [-72.03455, -47.221506], [-72.03371, -47.222935], [-72.034233, -47.223143], [-72.030219, -47.228618], [-72.030702, -47.230245], [-72.030138, -47.231646], [-72.031269, -47.235345], [-72.030619, -47.235636], [-72.031006, -47.236326], [-72.030368, -47.236401], [-72.030623, -47.237515], [-72.030327, -47.239328], [-72.029285, -47.240524], [-72.029655, -47.240859], [-72.028593, -47.241078], [-72.028051, -47.242035], [-72.02708, -47.246493], [-72.027345, -47.248083], [-72.028322, -47.248208], [-72.02894, -47.253183], [-72.025492, -47.255974], [-72.022938, -47.255798], [-72.02305, -47.257312], [-72.021919, -47.257776], [-72.021062, -47.260183], [-72.018715, -47.261473], [-72.016931, -47.263962], [-72.014757, -47.264375], [-72.011575, -47.266604], [-72.010037, -47.269245], [-72.006285, -47.272435], [-72.007357, -47.273722], [-72.008791, -47.273758], [-72.003755, -47.279044], [-72.003468, -47.281883], [-72.004467, -47.281243], [-72.004875, -47.281781], [-72.000814, -47.286369], [-72.001374, -47.291008], [-72.00004, -47.292071], [-72.000676, -47.292741], [-72.000489, -47.294055], [-71.998757, -47.295785], [-71.997148, -47.296404], [-71.997267, -47.295844], [-71.994894, -47.294598], [-71.994981, -47.293294], [-71.99383, -47.292059], [-71.994855, -47.288641], [-71.996139, -47.287831], [-71.994526, -47.286651], [-71.996543, -47.282803], [-71.996042, -47.282675], [-71.996019, -47.281554], [-71.997348, -47.280612], [-71.999183, -47.277693], [-71.998441, -47.27611], [-72.002058, -47.271579], [-72.002226, -47.26888], [-72.004581, -47.264739], [-72.004765, -47.26208], [-72.003747, -47.260804], [-72.004841, -47.257061], [-72.004539, -47.253714], [-72.002953, -47.250238], [-71.997611, -47.244295], [-71.993099, -47.241169], [-71.988686, -47.241251], [-71.985685, -47.24527], [-71.980621, -47.247549], [-71.976726, -47.251568], [-71.973476, -47.252599], [-71.968796, -47.253018], [-71.968207, -47.255444], [-71.967405, -47.255807], [-71.967051, -47.25851], [-71.965358, -47.257741], [-71.963466, -47.257817], [-71.961869, -47.258838], [-71.958658, -47.259309], [-71.957167, -47.261217], [-71.955185, -47.261758], [-71.954436, -47.265661], [-71.953364, -47.266158], [-71.951621, -47.269707], [-71.950445, -47.270322], [-71.949896, -47.27226], [-71.948545, -47.273808], [-71.946388, -47.274305], [-71.945678, -47.275234], [-71.946043, -47.276607], [-71.944696, -47.277405], [-71.94371, -47.279573], [-71.942274, -47.280388], [-71.941321, -47.282519], [-71.937674, -47.286301], [-71.937859, -47.287939], [-71.935857, -47.289415], [-71.933766, -47.289733], [-71.932804, -47.291642], [-71.93101, -47.293081], [-71.931479, -47.294393], [-71.933476, -47.293678], [-71.934074, -47.29407], [-71.926866, -47.303443], [-71.925671, -47.303439], [-71.925765, -47.306398], [-71.922591, -47.3082], [-71.919056, -47.308707], [-71.91858, -47.309257], [-71.918921, -47.310079], [-71.918192, -47.31196], [-71.916364, -47.312754], [-71.916544, -47.317479], [-71.913445, -47.318131], [-71.912952, -47.316711], [-71.913993, -47.314845], [-71.911203, -47.314814], [-71.910141, -47.317065], [-71.912081, -47.317985], [-71.911027, -47.318516], [-71.910019, -47.320106], [-71.910252, -47.320815], [-71.908641, -47.322573], [-71.905371, -47.323954], [-71.904373, -47.323692], [-71.902489, -47.327764], [-71.903435, -47.328169], [-71.905042, -47.330497], [-71.903959, -47.335382], [-71.904245, -47.338877], [-71.903356, -47.339635], [-71.904343, -47.344311], [-71.903955, -47.345064], [-71.90318, -47.345041], [-71.902813, -47.347559], [-71.901732, -47.34768], [-71.902118, -47.348821], [-71.901427, -47.349776], [-71.899622, -47.350736], [-71.900388, -47.351504], [-71.900006, -47.352393], [-71.901163, -47.352976], [-71.899835, -47.353674], [-71.900676, -47.354164], [-71.901045, -47.356575], [-71.902025, -47.356632], [-71.902144, -47.35743], [-71.901133, -47.357536], [-71.903148, -47.358208], [-71.90253, -47.361176], [-71.90398, -47.362487], [-71.904738, -47.361343], [-71.903777, -47.365046], [-71.904838, -47.367457], [-71.903995, -47.367744], [-71.904652, -47.371851], [-71.903858, -47.372979], [-71.904339, -47.376087], [-71.903004, -47.377075], [-71.900863, -47.37665], [-71.900039, -47.377631], [-71.896187, -47.37882], [-71.890013, -47.379023], [-71.888085, -47.381227], [-71.890518, -47.381724], [-71.891541, -47.382914], [-71.890979, -47.384274], [-71.885417, -47.38525], [-71.882722, -47.386572], [-71.881993, -47.388313], [-71.88022, -47.388824], [-71.876808, -47.396392], [-71.875105, -47.397743], [-71.875251, -47.399553], [-71.872105, -47.406083], [-71.871989, -47.408938], [-71.871238, -47.407645], [-71.87035, -47.409641], [-71.869328, -47.409411], [-71.868835, -47.405412], [-71.863925, -47.408825], [-71.86026, -47.409966], [-71.857162, -47.412466], [-71.856274, -47.411441], [-71.856793, -47.410163], [-71.854325, -47.408607], [-71.852731, -47.410607], [-71.848141, -47.412653], [-71.849304, -47.413284], [-71.847776, -47.414232], [-71.846442, -47.413272], [-71.844795, -47.413898], [-71.843789, -47.414937], [-71.841095, -47.420997], [-71.838236, -47.422249], [-71.837069, -47.424967], [-71.834697, -47.426181], [-71.835337, -47.427268], [-71.836315, -47.427553], [-71.835884, -47.428849], [-71.833647, -47.430178], [-71.834875, -47.429856], [-71.833623, -47.431657], [-71.831688, -47.432004], [-71.829859, -47.433413], [-71.827261, -47.437553], [-71.825276, -47.438996], [-71.82949, -47.443381], [-71.835934, -47.447495], [-71.850111, -47.454003], [-71.863831, -47.45893], [-71.867908, -47.457533], [-71.873661, -47.45356], [-71.879448, -47.451302], [-71.903287, -47.446433], [-71.916789, -47.446262], [-71.918255, -47.445138], [-71.91816, -47.444184], [-71.921725, -47.442719], [-71.921938, -47.440906], [-71.923531, -47.439876], [-71.92389, -47.438394], [-71.922861, -47.436947], [-71.922899, -47.435911], [-71.924123, -47.434575], [-71.915888, -47.429748], [-71.914665, -47.426106], [-71.915446, -47.42386], [-71.915069, -47.422543], [-71.912695, -47.421838], [-71.912025, -47.422157], [-71.912084, -47.420683], [-71.902467, -47.431516], [-71.912706, -47.418157], [-71.915414, -47.416467], [-71.919191, -47.412614], [-71.937052, -47.402596], [-71.945517, -47.401538], [-71.955518, -47.401573], [-71.958303, -47.400429], [-71.958224, -47.399486], [-71.959879, -47.39813], [-71.959733, -47.39632], [-71.961476, -47.394517], [-71.961357, -47.393118], [-71.962787, -47.391027], [-71.966138, -47.389373], [-71.967837, -47.385644], [-71.967384, -47.384672], [-71.967836, -47.383486], [-71.970875, -47.381525], [-71.968674, -47.378947], [-71.968582, -47.376495], [-71.964624, -47.373439], [-71.964923, -47.371691], [-71.963099, -47.37112], [-71.960971, -47.373148], [-71.957582, -47.378791], [-71.956399, -47.381447], [-71.956093, -47.384128], [-71.955535, -47.384425], [-71.957649, -47.377754], [-71.960418, -47.372767], [-71.961895, -47.371462], [-71.964169, -47.367554], [-71.965797, -47.366456], [-71.967255, -47.363877], [-71.969895, -47.361275], [-71.97522, -47.35861], [-71.983246, -47.357582], [-71.983836, -47.356392], [-71.983073, -47.353817], [-71.983844, -47.347291], [-71.987581, -47.344167], [-71.988929, -47.34199], [-71.985356, -47.337052], [-71.985985, -47.335982], [-71.98886, -47.332412], [-71.994794, -47.330421], [-71.996334, -47.321899], [-71.999885, -47.31556], [-72.00229, -47.314799], [-72.007346, -47.310726], [-72.011099, -47.310244], [-72.014897, -47.306971], [-72.016292, -47.306823], [-72.020271, -47.304001], [-72.019999, -47.303443], [-72.021295, -47.301965], [-72.022257, -47.299321], [-72.026551, -47.298852], [-72.028049, -47.2967], [-72.026957, -47.295273], [-72.02749, -47.292292], [-72.028564, -47.291926], [-72.034053, -47.293741], [-72.03732, -47.293439], [-72.038725, -47.289989], [-72.038737, -47.288406], [-72.04097, -47.286348], [-72.044026, -47.285023], [-72.044337, -47.28379], [-72.050064, -47.285338], [-72.051545, -47.284504], [-72.054162, -47.284928], [-72.058451, -47.282073], [-72.069015, -47.282856], [-72.06998, -47.279626], [-72.071714, -47.277404], [-72.071864, -47.276324], [-72.075186, -47.274851], [-72.076889, -47.27268], [-72.078708, -47.272683], [-72.080342, -47.271459], [-72.08268, -47.27194], [-72.083235, -47.270674], [-72.084971, -47.270073], [-72.085646, -47.271343], [-72.086885, -47.269932], [-72.087244, -47.270966], [-72.088048, -47.2707], [-72.087743, -47.269464], [-72.088442, -47.267956], [-72.089341, -47.266972], [-72.092038, -47.266262], [-72.093062, -47.264975], [-72.091875, -47.262676], [-72.092097, -47.260933], [-72.089801, -47.259316], [-72.089962, -47.258531], [-72.091438, -47.257787], [-72.091843, -47.256357], [-72.09553, -47.252223], [-72.097769, -47.25088], [-72.107848, -47.248821], [-72.108042, -47.246987], [-72.106795, -47.246237], [-72.105126, -47.243776], [-72.105213, -47.242593], [-72.103719, -47.24171], [-72.10319, -47.240169], [-72.09989, -47.238284], [-72.098389, -47.238253], [-72.098359, -47.237437], [-72.096501, -47.237831], [-72.096654, -47.237174], [-72.097732, -47.236988], [-72.096482, -47.235762], [-72.097253, -47.235593], [-72.097204, -47.233432], [-72.097991, -47.233328], [-72.099185, -47.231813], [-72.100659, -47.232048], [-72.100168, -47.230943], [-72.101557, -47.22956], [-72.102773, -47.229347], [-72.102228, -47.231086], [-72.10521, -47.229751], [-72.107415, -47.226447], [-72.108198, -47.226394], [-72.109154, -47.22431], [-72.113536, -47.220882], [-72.114171, -47.218786], [-72.116929, -47.216774], [-72.117381, -47.214872], [-72.120575, -47.210471], [-72.120166, -47.209924], [-72.12072, -47.208919], [-72.121964, -47.207812], [-72.121861, -47.206119], [-72.123194, -47.203534], [-72.124882, -47.202345], [-72.126157, -47.199204], [-72.127452, -47.197853], [-72.127435, -47.196874], [-72.129229, -47.195003], [-72.128256, -47.19162], [-72.130053, -47.18899], [-72.129497, -47.186635], [-72.131015, -47.183016], [-72.131911, -47.182215], [-72.13239, -47.18261], [-72.135914, -47.181894], [-72.136707, -47.180544], [-72.137169, -47.177388], [-72.139146, -47.174908], [-72.138238, -47.174301], [-72.137304, -47.174648], [-72.13739, -47.174063], [-72.138739, -47.173769], [-72.140349, -47.172234], [-72.143548, -47.172542], [-72.147196, -47.169872], [-72.147996, -47.170321], [-72.150131, -47.169641], [-72.154906, -47.17166], [-72.159763, -47.171749], [-72.16077, -47.172472], [-72.162381, -47.172129], [-72.164475, -47.173119], [-72.165997, -47.174621], [-72.166137, -47.175762], [-72.164291, -47.176433], [-72.161183, -47.175498], [-72.160248, -47.175928], [-72.160302, -47.177079], [-72.162207, -47.177177], [-72.166727, -47.178969], [-72.167834, -47.17878], [-72.168092, -47.180054], [-72.16892, -47.180171], [-72.170181, -47.181685], [-72.173123, -47.186749], [-72.175752, -47.188269], [-72.178732, -47.192487], [-72.184115, -47.1953], [-72.185728, -47.197016], [-72.186784, -47.19694], [-72.18582, -47.194961], [-72.186277, -47.194411], [-72.188547, -47.195953], [-72.19195, -47.197067], [-72.193431, -47.195733], [-72.195437, -47.196322], [-72.197138, -47.196017], [-72.197273, -47.194935], [-72.198309, -47.195811], [-72.19986, -47.194046], [-72.201906, -47.194105], [-72.208267, -47.19635], [-72.223236, -47.206596], [-72.223831, -47.206195], [-72.224869, -47.206601], [-72.225843, -47.208177], [-72.224885, -47.208059], [-72.226031, -47.208644], [-72.22521, -47.208485], [-72.225548, -47.20948], [-72.221788, -47.210643], [-72.221989, -47.211289], [-72.220972, -47.211484], [-72.220996, -47.212217], [-72.225146, -47.213707], [-72.225688, -47.214622], [-72.224767, -47.21499], [-72.225626, -47.216424], [-72.228024, -47.215841], [-72.230526, -47.2182], [-72.231038, -47.21795], [-72.232318, -47.219005], [-72.235244, -47.222558], [-72.236293, -47.222363], [-72.237264, -47.220825], [-72.239686, -47.221153], [-72.240834, -47.222186], [-72.241936, -47.221807], [-72.246803, -47.222528], [-72.24664, -47.224403], [-72.244755, -47.224334], [-72.244601, -47.225269], [-72.24472, -47.22605], [-72.245667, -47.226026], [-72.247418, -47.227902], [-72.245385, -47.230255], [-72.243674, -47.231007], [-72.245075, -47.231581], [-72.245001, -47.232585], [-72.247056, -47.236477], [-72.24865, -47.23663], [-72.248514, -47.238283], [-72.250202, -47.238972], [-72.253169, -47.239111], [-72.254069, -47.238295], [-72.252978, -47.237098], [-72.257385, -47.236366], [-72.257649, -47.235741], [-72.259403, -47.235404], [-72.260859, -47.237843], [-72.260795, -47.238549], [-72.259702, -47.238687], [-72.260094, -47.239616], [-72.261823, -47.239695], [-72.262252, -47.23827], [-72.266743, -47.237314], [-72.272715, -47.241423], [-72.278957, -47.241873], [-72.282435, -47.241032], [-72.287199, -47.241543], [-72.289001, -47.240547], [-72.288432, -47.239125], [-72.290375, -47.239741], [-72.292556, -47.238893], [-72.292556, -47.233909], [-72.297082, -47.231168], [-72.305645, -47.231417], [-72.307848, -47.234989], [-72.313108, -47.238145], [-72.315922, -47.236567], [-72.316533, -47.231998], [-72.318582, -47.240966], [-72.316927, -47.241095], [-72.315573, -47.2418], [-72.31583, -47.242344], [-72.319008, -47.242732], [-72.320492, -47.245002], [-72.323034, -47.245111], [-72.323873, -47.244623], [-72.323506, -47.243212], [-72.325586, -47.23964], [-72.330602, -47.237481], [-72.32999, -47.233244], [-72.333538, -47.231001], [-72.332437, -47.228426], [-72.332437, -47.221364], [-72.33158, -47.219287], [-72.335274, -47.213629], [-72.337152, -47.214299], [-72.341902, -47.214057], [-72.342903, -47.214942], [-72.344842, -47.214995], [-72.346264, -47.215823], [-72.348667, -47.215597], [-72.351907, -47.217462], [-72.356279, -47.217244], [-72.360125, -47.218289], [-72.361987, -47.219612], [-72.364148, -47.220158], [-72.365897, -47.22229], [-72.372083, -47.22625], [-72.375875, -47.227481], [-72.37941, -47.229492], [-72.386395, -47.230818], [-72.388111, -47.23222], [-72.394007, -47.230913], [-72.402263, -47.231583], [-72.405487, -47.23035], [-72.408754, -47.230545], [-72.41083, -47.231956], [-72.413075, -47.232126], [-72.414086, -47.234883], [-72.424949, -47.237669], [-72.426462, -47.239649], [-72.42485, -47.240676], [-72.425236, -47.240946], [-72.421757, -47.241767], [-72.42268, -47.243081]], [[-72.358065, -47.209163], [-72.358065, -47.209163]], [[-72.356909, -47.208657], [-72.356349, -47.208274], [-72.356909, -47.208657]], [[-71.966126, -47.259958], [-71.966472, -47.259413], [-71.966922, -47.259732], [-71.966367, -47.260684], [-71.966126, -47.259958]], [[-71.968477, -47.272048], [-71.969313, -47.271678], [-71.969779, -47.272794], [-71.967746, -47.273043], [-71.968477, -47.272048]], [[-71.847956, -47.41578], [-71.847636, -47.415188], [-71.849804, -47.414703], [-71.849003, -47.416366], [-71.847956, -47.41578]], [[-71.846317, -47.416413], [-71.847261, -47.416577], [-71.847479, -47.417745], [-71.8448, -47.420399], [-71.844162, -47.420323], [-71.843734, -47.419891], [-71.844816, -47.418947], [-71.844227, -47.417265], [-71.846317, -47.416413]], [[-72.42116, -47.22633], [-72.420715, -47.225628], [-72.4211, -47.225357], [-72.422526, -47.225875], [-72.422816, -47.227299], [-72.424486, -47.227688], [-72.424311, -47.228319], [-72.421992, -47.227548], [-72.42116, -47.22633]], [[-72.009291, -47.274385], [-72.010865, -47.273018], [-72.011938, -47.272996], [-72.009291, -47.274385]], [[-72.408147, -47.229246], [-72.408955, -47.228712], [-72.408597, -47.227687], [-72.406955, -47.227855], [-72.408147, -47.229246]], [[-72.408462, -47.22709], [-72.409578, -47.226805], [-72.410075, -47.22596], [-72.410931, -47.226835], [-72.411366, -47.225681], [-72.409539, -47.225038], [-72.409283, -47.225729], [-72.407541, -47.224714], [-72.406884, -47.226313], [-72.408462, -47.22709]], [[-72.438477, -47.225416], [-72.439923, -47.22669], [-72.442815, -47.227008], [-72.449029, -47.229556], [-72.449068, -47.231706], [-72.440978, -47.232263], [-72.438242, -47.230883], [-72.436406, -47.231361], [-72.432966, -47.230963], [-72.430309, -47.229238], [-72.430035, -47.225575], [-72.432263, -47.224514], [-72.434178, -47.224275], [-72.438477, -47.225416]], [[-72.120857, -47.17175], [-72.120764, -47.174043], [-72.119388, -47.176112], [-72.119878, -47.177992], [-72.119071, -47.178442], [-72.118965, -47.179287], [-72.119706, -47.180492], [-72.119494, -47.181544], [-72.118369, -47.182084], [-72.118356, -47.183199], [-72.109941, -47.179728], [-72.109054, -47.177407], [-72.109465, -47.174646], [-72.110497, -47.173126], [-72.116345, -47.171084], [-72.119984, -47.170751], [-72.120857, -47.17175]], [[-72.068422, -47.254352], [-72.07083, -47.251416], [-72.072721, -47.25066], [-72.077149, -47.250608], [-72.078522, -47.25284], [-72.074715, -47.255881], [-72.074197, -47.257709], [-72.072384, -47.259414], [-72.071918, -47.261365], [-72.064227, -47.264721], [-72.062906, -47.264686], [-72.062725, -47.264247], [-72.065884, -47.262859], [-72.066557, -47.25959], [-72.065962, -47.258166], [-72.063035, -47.257428], [-72.06288, -47.256391], [-72.066065, -47.254914], [-72.068085, -47.254949], [-72.068422, -47.254352]], [[-72.032528, -47.282652], [-72.034433, -47.282801], [-72.035861, -47.283584], [-72.035733, -47.284093], [-72.034781, -47.285149], [-72.031851, -47.284677], [-72.029415, -47.283708], [-72.028903, -47.282267], [-72.032199, -47.281373], [-72.031723, -47.281733], [-72.032528, -47.282652]]]]}}