{"type": "Feature", "properties": {"id": "lago-verde", "name": "Lago Verde", "type": "lake", "region": "aysen"}, "geometry": {"type": "MultiPolygon", "coordinates": [[[[-71.929666, -44.272205], [-71.926132, -44.274059], [-71.925912, -44.275946], [-71.930288, -44.276919], [-71.933529, -44.276776], [-71.943929, -44.280633], [-71.945341, -44.281782], [-71.94527, -44.282769], [-71.946107, -44.283429], [-71.94431, -44.285122], [-71.944793, -44.285629], [-71.946475, -44.285874], [-71.949303, -44.284891], [-71.95722, -44.287401], [-71.957307, -44.286875], [-71.955354, -44.285574], [-71.957516, -44.284744], [-71.96336, -44.285083], [-71.965738, -44.284298], [-71.974395, -44.286319], [-71.976683, -44.288376], [-71.976744, -44.288976], [-71.975475, -44.289453], [-71.972743, -44.289527], [-71.970503, -44.288291], [-71.966998, -44.287488], [-71.969166, -44.290463], [-71.970655, -44.291462], [-71.97725, -44.291741], [-71.979299, -44.290445], [-71.981284, -44.290883], [-71.986594, -44.28789], [-71.99343, -44.291289], [-72.001736, -44.292977], [-72.004307, -44.294845], [-72.006544, -44.298133], [-72.010867, -44.30043], [-72.013355, -44.300569], [-72.016673, -44.30209], [-72.01775, -44.29925], [-72.01925, -44.298], [-72.018885, -44.295331], [-72.017237, -44.293438], [-72.017485, -44.292012], [-72.016528, -44.291018], [-72.016474, -44.287954], [-72.015707, -44.28735], [-72.013, -44.28775], [-72.011221, -44.286892], [-72.0085, -44.287], [-72.01225, -44.28575], [-72.01775, -44.286], [-72.0135, -44.2845], [-72.009135, -44.285727], [-72.00975, -44.28525], [-72.00925, -44.28475], [-72.01025, -44.2835], [-72.01025, -44.2825], [-72.01075, -44.28325], [-72.012539, -44.28295], [-72.008, -44.2805], [-71.998878, -44.278342], [-71.99075, -44.2785], [-71.990404, -44.277762], [-71.983, -44.2755], [-71.97775, -44.2755], [-71.96625, -44.27375], [-71.9635, -44.27425], [-71.960156, -44.272573], [-71.96, -44.27175], [-71.9575, -44.2695], [-71.954162, -44.267948], [-71.95075, -44.265392], [-71.947, -44.26525], [-71.9435, -44.264], [-71.940429, -44.263872], [-71.933786, -44.265108], [-71.9265, -44.26475], [-71.923142, -44.262831], [-71.916648, -44.260896], [-71.914011, -44.258604], [-71.9115, -44.2585], [-71.910526, -44.257604], [-71.90814, -44.257719], [-71.906139, -44.2567], [-71.903731, -44.254513], [-71.901478, -44.253891], [-71.899365, -44.252077], [-71.898045, -44.25069], [-71.8985, -44.2495], [-71.89775, -44.2485], [-71.899016, -44.248377], [-71.900555, -44.246705], [-71.903087, -44.240741], [-71.902251, -44.238024], [-71.902873, -44.236883], [-71.9025, -44.23625], [-71.905987, -44.230904], [-71.90625, -44.2295], [-71.907108, -44.22895], [-71.908307, -44.225534], [-71.907706, -44.225488], [-71.90675, -44.227], [-71.904, -44.22725], [-71.90125, -44.22925], [-71.899441, -44.229385], [-71.8985, -44.22925], [-71.897228, -44.227504], [-71.892729, -44.226392], [-71.89, -44.224], [-71.88975, -44.222], [-71.88675, -44.22025], [-71.882667, -44.221142], [-71.87975, -44.2235], [-71.878564, -44.22475], [-71.878164, -44.226316], [-71.881576, -44.228357], [-71.88525, -44.22925], [-71.888, -44.23125], [-71.889215, -44.233158], [-71.8885, -44.241], [-71.88745, -44.242269], [-71.8855, -44.24275], [-71.8845, -44.24475], [-71.8835, -44.245], [-71.878152, -44.239524], [-71.875264, -44.239795], [-71.876464, -44.241618], [-71.876166, -44.242977], [-71.876993, -44.244555], [-71.876135, -44.246193], [-71.876758, -44.24691], [-71.875638, -44.247167], [-71.873089, -44.246414], [-71.874243, -44.247852], [-71.875898, -44.248563], [-71.878679, -44.248431], [-71.88167, -44.249518], [-71.881651, -44.25064], [-71.884124, -44.255353], [-71.884001, -44.259007], [-71.885401, -44.260438], [-71.885374, -44.26237], [-71.887909, -44.265945], [-71.886592, -44.266567], [-71.878561, -44.261202], [-71.883647, -44.265273], [-71.887131, -44.270115], [-71.88922, -44.270818], [-71.890371, -44.268613], [-71.892571, -44.267875], [-71.89393, -44.269083], [-71.897302, -44.269688], [-71.898992, -44.271649], [-71.901146, -44.270699], [-71.904903, -44.27162], [-71.904729, -44.275369], [-71.905488, -44.275509], [-71.909506, -44.274951], [-71.912566, -44.272302], [-71.919, -44.26925], [-71.924353, -44.270239], [-71.927442, -44.271982], [-71.929666, -44.272205]]], [[[-72.081052, -46.863169], [-72.088444, -46.863499], [-72.090247, -46.862428], [-72.093052, -46.862445], [-72.095002, -46.861143], [-72.096885, -46.860782], [-72.097231, -46.85923], [-72.098808, -46.858073], [-72.102574, -46.858166], [-72.10296, -46.854923], [-72.107348, -46.85419], [-72.108185, -46.85259], [-72.112423, -46.84942], [-72.115009, -46.848276], [-72.115771, -46.846793], [-72.11856, -46.845832], [-72.119815, -46.844012], [-72.117584, -46.841752], [-72.117423, -46.840725], [-72.11885, -46.839748], [-72.119043, -46.838009], [-72.117747, -46.836969], [-72.116666, -46.836967], [-72.109773, -46.840838], [-72.107633, -46.842302], [-72.099216, -46.851732], [-72.089565, -46.857212], [-72.085553, -46.858812], [-72.08407, -46.858498], [-72.082393, -46.860228], [-72.079989, -46.86066], [-72.081052, -46.863169]]], [[[-71.741258, -42.725453], [-71.74323, -42.725084], [-71.745955, -42.726207], [-71.74825, -42.7255], [-71.74873, -42.724754], [-71.748338, -42.723494], [-71.749546, -42.72167], [-71.748767, -42.719249], [-71.745457, -42.718051], [-71.741026, -42.718228], [-71.738821, -42.717594], [-71.73509, -42.715688], [-71.73148, -42.711348], [-71.724332, -42.710919], [-71.722527, -42.712596], [-71.723701, -42.71528], [-71.725448, -42.71648], [-71.727996, -42.71564], [-71.728959, -42.71597], [-71.729879, -42.71743], [-71.729071, -42.719617], [-71.730364, -42.720875], [-71.731453, -42.720875], [-71.733891, -42.722422], [-71.737295, -42.722167], [-71.741258, -42.725453]]], [[[-71.712843, -39.134963], [-71.711524, -39.135144], [-71.711592, -39.135868], [-71.710544, -39.136157], [-71.708752, -39.135296], [-71.710955, -39.1323], [-71.714045, -39.12977], [-71.717737, -39.127824], [-71.71913, -39.127869], [-71.72031, -39.12874], [-71.720565, -39.129464], [-71.719896, -39.130212], [-71.713049, -39.132327], [-71.714022, -39.13367], [-71.712843, -39.134963]]], [[[-71.899586, -41.970884], [-71.898955, -41.971001], [-71.897598, -41.969737], [-71.899305, -41.968287], [-71.901153, -41.965386], [-71.902136, -41.963211], [-71.901832, -41.962416], [-71.903843, -41.962065], [-71.903914, -41.965386], [-71.904779, -41.966346], [-71.904241, -41.967398], [-71.904709, -41.96824], [-71.904428, -41.970158], [-71.901691, -41.972311], [-71.899586, -41.970884]]]]}}