{"type": "Feature", "properties": {"id": "lago-rinihue", "name": "Lago Riñihue", "type": "lake", "region": "los-rios"}, "geometry": {"type": "MultiPolygon", "coordinates": [[[[-72.240515, -39.862029], [-72.241727, -39.861395], [-72.241867, -39.860053], [-72.248229, -39.855548], [-72.250407, -39.853093], [-72.254999, -39.850474], [-72.257338, -39.849592], [-72.260556, -39.849374], [-72.265422, -39.846792], [-72.266736, -39.844177], [-72.26989, -39.842233], [-72.271306, -39.839477], [-72.274788, -39.837364], [-72.279251, -39.831275], [-72.284514, -39.826361], [-72.290876, -39.823254], [-72.296873, -39.821858], [-72.30242, -39.818219], [-72.308187, -39.816802], [-72.308938, -39.815908], [-72.312602, -39.815891], [-72.317269, -39.811903], [-72.319731, -39.810477], [-72.321898, -39.810382], [-72.324484, -39.808511], [-72.325712, -39.805997], [-72.328641, -39.805132], [-72.329634, -39.802866], [-72.332584, -39.80139], [-72.333341, -39.800162], [-72.33804, -39.79717], [-72.344128, -39.794882], [-72.346832, -39.795369], [-72.348479, -39.794128], [-72.350512, -39.79372], [-72.353055, -39.794454], [-72.356488, -39.792865], [-72.362144, -39.792595], [-72.375278, -39.789815], [-72.376524, -39.790191], [-72.382468, -39.787534], [-72.389398, -39.786338], [-72.392022, -39.786501], [-72.396546, -39.784714], [-72.409703, -39.781381], [-72.418053, -39.776606], [-72.421895, -39.775214], [-72.427145, -39.775725], [-72.430779, -39.777126], [-72.437775, -39.776475], [-72.442673, -39.774503], [-72.443962, -39.774774], [-72.44559, -39.774163], [-72.447714, -39.775554], [-72.45015, -39.774093], [-72.454446, -39.774966], [-72.454981, -39.776467], [-72.45183, -39.778605], [-72.451462, -39.780587], [-72.445364, -39.785499], [-72.439451, -39.789052], [-72.43759, -39.791685], [-72.435601, -39.791827], [-72.434993, -39.793313], [-72.427568, -39.798451], [-72.421379, -39.799739], [-72.414765, -39.802159], [-72.412628, -39.80465], [-72.412676, -39.807682], [-72.41344, -39.808896], [-72.415576, -39.809957], [-72.418781, -39.810424], [-72.424989, -39.808386], [-72.432892, -39.811471], [-72.437582, -39.814293], [-72.440527, -39.816819], [-72.440836, -39.818022], [-72.440569, -39.82051], [-72.43965, -39.821391], [-72.4397, -39.823298], [-72.438474, -39.824928], [-72.433832, -39.825847], [-72.430682, -39.824503], [-72.425763, -39.823909], [-72.421821, -39.824673], [-72.418615, -39.82606], [-72.415944, -39.828323], [-72.412425, -39.829271], [-72.403271, -39.830035], [-72.394822, -39.829306], [-72.392386, -39.830261], [-72.389356, -39.829306], [-72.385888, -39.829865], [-72.380274, -39.829232], [-72.377281, -39.826332], [-72.376746, -39.824558], [-72.375564, -39.823312], [-72.370741, -39.823246], [-72.369389, -39.824927], [-72.366868, -39.825619], [-72.364658, -39.824754], [-72.363102, -39.82248], [-72.354498, -39.820766], [-72.35129, -39.821483], [-72.348801, -39.823518], [-72.346827, -39.826987], [-72.34482, -39.828462], [-72.342514, -39.829121], [-72.339874, -39.828585], [-72.339059, -39.829772], [-72.337579, -39.830143], [-72.337482, -39.833652], [-72.338211, -39.836182], [-72.335776, -39.839411], [-72.331055, -39.843703], [-72.327933, -39.844625], [-72.326539, -39.846817], [-72.316325, -39.852204], [-72.310735, -39.853447], [-72.309115, -39.854641], [-72.306385, -39.854976], [-72.303117, -39.856676], [-72.298375, -39.857252], [-72.291477, -39.863124], [-72.288526, -39.863808], [-72.285179, -39.867398], [-72.282636, -39.868485], [-72.281295, -39.867991], [-72.277669, -39.868642], [-72.274461, -39.872635], [-72.272058, -39.873426], [-72.269826, -39.875073], [-72.266318, -39.87574], [-72.262724, -39.880424], [-72.255396, -39.886838], [-72.252982, -39.888114], [-72.252789, -39.889143], [-72.25399, -39.890065], [-72.253314, -39.892295], [-72.252038, -39.893168], [-72.250106, -39.893382], [-72.245579, -39.897012], [-72.244484, -39.898897], [-72.241759, -39.900675], [-72.238927, -39.901811], [-72.234206, -39.902444], [-72.227769, -39.905374], [-72.22072, -39.904963], [-72.212266, -39.902592], [-72.205045, -39.906428], [-72.199853, -39.906856], [-72.190754, -39.911645], [-72.188429, -39.912127], [-72.183848, -39.914435], [-72.182676, -39.916106], [-72.181605, -39.916303], [-72.179698, -39.918171], [-72.17759, -39.918829], [-72.176262, -39.918529], [-72.171005, -39.915978], [-72.170131, -39.914752], [-72.170366, -39.913294], [-72.17332, -39.904938], [-72.171882, -39.902148], [-72.173352, -39.901333], [-72.174136, -39.899695], [-72.176839, -39.897226], [-72.177569, -39.894798], [-72.182418, -39.891769], [-72.18922, -39.889719], [-72.201172, -39.889192], [-72.203307, -39.888476], [-72.204691, -39.887233], [-72.208382, -39.886442], [-72.210195, -39.884442], [-72.216547, -39.883108], [-72.222576, -39.879247], [-72.222764, -39.878436], [-72.224164, -39.878037], [-72.22182, -39.878218], [-72.221015, -39.875822], [-72.219046, -39.875315], [-72.214073, -39.8773], [-72.211686, -39.877452], [-72.204954, -39.881038], [-72.201816, -39.88203], [-72.197524, -39.881474], [-72.198104, -39.881272], [-72.197267, -39.880202], [-72.197331, -39.879173], [-72.199799, -39.878786], [-72.202427, -39.876744], [-72.206762, -39.875665], [-72.208457, -39.874529], [-72.210764, -39.874653], [-72.213339, -39.873854], [-72.21512, -39.872421], [-72.214905, -39.870387], [-72.216461, -39.869169], [-72.220656, -39.867933], [-72.225645, -39.867448], [-72.240515, -39.862029]], [[-72.224226, -39.877858], [-72.224226, -39.877858]], [[-72.2166, -39.884903], [-72.213843, -39.887764], [-72.210726, -39.887747], [-72.212858, -39.886066], [-72.2166, -39.884903]]]]}}