{"type": "Feature", "properties": {"id": "lago-colico", "name": "Lago Colico", "type": "lake", "region": "araucania"}, "geometry": {"type": "MultiPolygon", "coordinates": [[[[-71.959131, -39.076198], [-71.953068, -39.079375], [-71.950589, -39.079166], [-71.947859, -39.080407], [-71.945618, -39.082044], [-71.944764, -39.083509], [-71.939842, -39.084386], [-71.938235, -39.085342], [-71.933616, -39.086453], [-71.930918, -39.08605], [-71.922421, -39.088166], [-71.918285, -39.088544], [-71.909772, -39.088186], [-71.90357, -39.088823], [-71.90025, -39.090197], [-71.896067, -39.093567], [-71.891672, -39.093602], [-71.889886, -39.094828], [-71.888284, -39.09496], [-71.882762, -39.093902], [-71.881201, -39.096423], [-71.884339, -39.098065], [-71.878717, -39.098074], [-71.87832, -39.098873], [-71.879272, -39.102053], [-71.876496, -39.102337], [-71.878859, -39.103061], [-71.877754, -39.105409], [-71.87574, -39.106062], [-71.875799, -39.107757], [-71.878339, -39.10933], [-71.879348, -39.110746], [-71.88387, -39.110347], [-71.887331, -39.112012], [-71.890367, -39.112184], [-71.893705, -39.115253], [-71.89523, -39.114655], [-71.897375, -39.115493], [-71.899193, -39.114633], [-71.900188, -39.115251], [-71.899633, -39.114464], [-71.90276, -39.116472], [-71.905711, -39.115436], [-71.910689, -39.116988], [-71.916493, -39.114895], [-71.918955, -39.114845], [-71.921058, -39.113767], [-71.923445, -39.114246], [-71.92623, -39.113692], [-71.928477, -39.112185], [-71.929432, -39.109247], [-71.931825, -39.108643], [-71.936084, -39.108905], [-71.939871, -39.11067], [-71.944007, -39.109105], [-71.946523, -39.110208], [-71.948556, -39.108847], [-71.952987, -39.107382], [-71.957971, -39.106379], [-71.962531, -39.106441], [-71.970116, -39.104864], [-71.9718, -39.103719], [-71.975298, -39.103153], [-71.980378, -39.101088], [-71.98305, -39.098411], [-71.985201, -39.09737], [-71.985882, -39.094031], [-71.9885, -39.093948], [-71.991895, -39.092428], [-72.001448, -39.091633], [-72.006583, -39.092567], [-72.009516, -39.092005], [-72.01589, -39.09246], [-72.022092, -39.091479], [-72.034141, -39.092973], [-72.042149, -39.092678], [-72.042662, -39.091908], [-72.044134, -39.092926], [-72.047626, -39.093436], [-72.052037, -39.087306], [-72.058017, -39.085806], [-72.063189, -39.0856], [-72.063869, -39.08298], [-72.066776, -39.079988], [-72.067799, -39.075044], [-72.071899, -39.070563], [-72.07076, -39.067266], [-72.066643, -39.066437], [-72.068371, -39.065132], [-72.069233, -39.06356], [-72.068369, -39.061161], [-72.069063, -39.058904], [-72.066912, -39.057642], [-72.057705, -39.059235], [-72.056699, -39.058653], [-72.055981, -39.056843], [-72.053284, -39.056498], [-72.052903, -39.05878], [-72.051427, -39.059916], [-72.048545, -39.060322], [-72.047046, -39.05957], [-72.04831, -39.058322], [-72.048398, -39.056862], [-72.046585, -39.055603], [-72.039871, -39.060617], [-72.037262, -39.063561], [-72.029378, -39.065122], [-72.024336, -39.065098], [-72.024112, -39.063016], [-72.025261, -39.061802], [-72.027495, -39.05454], [-72.030974, -39.051442], [-72.034198, -39.049831], [-72.032793, -39.046906], [-72.032666, -39.045047], [-72.03174, -39.044403], [-72.032378, -39.04294], [-72.032091, -39.042197], [-72.031397, -39.041663], [-72.028878, -39.041632], [-72.026185, -39.040353], [-72.02737, -39.041095], [-72.02413, -39.041124], [-72.023186, -39.041861], [-72.020316, -39.042182], [-72.019007, -39.043136], [-72.017044, -39.045294], [-72.015724, -39.049202], [-72.010966, -39.052886], [-72.001798, -39.055893], [-72.000577, -39.057285], [-71.999035, -39.057193], [-71.996033, -39.058346], [-71.993554, -39.057608], [-71.984691, -39.061095], [-71.979745, -39.063474], [-71.971422, -39.068903], [-71.963038, -39.072722], [-71.960148, -39.074692], [-71.959131, -39.076198]]]]}}