{"type": "Feature", "properties": {"id": "lago-bertrand", "name": "Lago Bertrand", "type": "lake", "region": "aysen"}, "geometry": {"type": "MultiPolygon", "coordinates": [[[[-72.87875, -46.97825], [-72.875096, -46.977161], [-72.8745, -46.97625], [-72.87125, -46.9765], [-72.8645, -46.9785], [-72.85975, -46.98325], [-72.8565, -46.9835], [-72.85525, -46.983], [-72.8515, -46.98525], [-72.8495, -46.991], [-72.8475, -46.99275], [-72.84775, -46.994], [-72.847, -46.99625], [-72.84425, -47.0005], [-72.84275, -47.0015], [-72.842, -47.004], [-72.8405, -47.0055], [-72.841, -47.00625], [-72.8405, -47.00775], [-72.83875, -47.009], [-72.8385, -47.013], [-72.836097, -47.017442], [-72.833294, -47.018989], [-72.830336, -47.018197], [-72.830265, -47.016749], [-72.831381, -47.015974], [-72.83575, -47.0095], [-72.8355, -47.00825], [-72.837077, -47.002834], [-72.838707, -47.0018], [-72.84, -46.99725], [-72.8395, -46.996], [-72.84025, -46.9955], [-72.841, -46.993], [-72.84125, -46.98775], [-72.84225, -46.9875], [-72.84225, -46.9855], [-72.843, -46.98475], [-72.84225, -46.98025], [-72.8405, -46.9785], [-72.8405, -46.97625], [-72.841, -46.976], [-72.83975, -46.9755], [-72.8395, -46.974], [-72.83725, -46.97225], [-72.83825, -46.9705], [-72.8355, -46.96825], [-72.8305, -46.96675], [-72.82975, -46.965], [-72.8275, -46.963], [-72.826, -46.96275], [-72.824, -46.961], [-72.81975, -46.959], [-72.81525, -46.959], [-72.812, -46.95775], [-72.810249, -46.959084], [-72.80886, -46.95931], [-72.807184, -46.958689], [-72.807611, -46.957443], [-72.806516, -46.956774], [-72.806503, -46.95799], [-72.804604, -46.957746], [-72.802974, -46.955926], [-72.803207, -46.954959], [-72.800494, -46.951182], [-72.798062, -46.949422], [-72.797854, -46.947732], [-72.795477, -46.947001], [-72.789716, -46.946999], [-72.787, -46.94325], [-72.78675, -46.94225], [-72.78775, -46.9405], [-72.7865, -46.93775], [-72.7875, -46.9355], [-72.78925, -46.93425], [-72.7915, -46.93], [-72.79225, -46.92975], [-72.79275, -46.93325], [-72.792, -46.93775], [-72.79275, -46.9385], [-72.79575, -46.94075], [-72.79875, -46.94125], [-72.7995, -46.9405], [-72.80125, -46.94225], [-72.80375, -46.9415], [-72.8065, -46.942], [-72.8085, -46.94125], [-72.81175, -46.94175], [-72.812, -46.94525], [-72.8115, -46.946], [-72.8125, -46.94725], [-72.81275, -46.95], [-72.8175, -46.95425], [-72.822, -46.9555], [-72.82425, -46.953], [-72.82375, -46.95225], [-72.8245, -46.95175], [-72.82475, -46.949], [-72.82775, -46.94925], [-72.82575, -46.94875], [-72.8265, -46.9465], [-72.82575, -46.94575], [-72.8285, -46.94325], [-72.82925, -46.941], [-72.82925, -46.93875], [-72.82825, -46.93575], [-72.82925, -46.93525], [-72.832, -46.9365], [-72.83225, -46.9375], [-72.83425, -46.9375], [-72.83525, -46.9365], [-72.835, -46.935], [-72.836, -46.93325], [-72.8345, -46.93175], [-72.834, -46.93], [-72.83275, -46.92925], [-72.82975, -46.92975], [-72.8295, -46.92925], [-72.8305, -46.92675], [-72.833, -46.92425], [-72.8335, -46.923], [-72.83275, -46.92275], [-72.834, -46.922], [-72.83375, -46.921], [-72.83525, -46.91825], [-72.83375, -46.9155], [-72.836, -46.90825], [-72.83725, -46.90775], [-72.8365, -46.90675], [-72.83675, -46.9055], [-72.83925, -46.90225], [-72.8385, -46.8995], [-72.83975, -46.89875], [-72.83875, -46.89775], [-72.8385, -46.89525], [-72.84125, -46.891], [-72.842, -46.88825], [-72.842, -46.88725], [-72.841, -46.887], [-72.84025, -46.88575], [-72.84075, -46.88375], [-72.84175, -46.883], [-72.841, -46.8825], [-72.8415, -46.8815], [-72.83825, -46.87925], [-72.83775, -46.87725], [-72.83625, -46.87675], [-72.83475, -46.87475], [-72.835, -46.87425], [-72.83175, -46.8715], [-72.831, -46.8695], [-72.8315, -46.8685], [-72.82875, -46.866], [-72.82875, -46.865], [-72.8245, -46.86175], [-72.823, -46.86175], [-72.82275, -46.86025], [-72.8205, -46.85925], [-72.82, -46.85725], [-72.819, -46.85675], [-72.8175, -46.8575], [-72.81625, -46.857], [-72.8165, -46.856], [-72.8155, -46.8555], [-72.81475, -46.85375], [-72.81275, -46.85275], [-72.8115, -46.853], [-72.811, -46.851], [-72.81175, -46.84975], [-72.80825, -46.84775], [-72.804427, -46.847383], [-72.802664, -46.845766], [-72.802875, -46.84476], [-72.807372, -46.847], [-72.811831, -46.846324], [-72.812217, -46.845157], [-72.812893, -46.844992], [-72.8215, -46.8515], [-72.828, -46.85425], [-72.8295, -46.85325], [-72.8305, -46.85375], [-72.832, -46.85275], [-72.8325, -46.85125], [-72.834, -46.851], [-72.839, -46.8525], [-72.841, -46.8525], [-72.84225, -46.85425], [-72.8455, -46.85625], [-72.84475, -46.8615], [-72.847, -46.86125], [-72.849, -46.8655], [-72.85175, -46.8655], [-72.85225, -46.86425], [-72.8565, -46.865], [-72.857, -46.86675], [-72.858, -46.86775], [-72.8595, -46.868], [-72.86075, -46.87], [-72.864, -46.87075], [-72.86675, -46.87275], [-72.86825, -46.87275], [-72.869, -46.87425], [-72.8715, -46.876], [-72.87225, -46.87925], [-72.874, -46.88025], [-72.87425, -46.8825], [-72.8775, -46.88625], [-72.878, -46.888], [-72.87875, -46.88825], [-72.87875, -46.891], [-72.8795, -46.89325], [-72.8755, -46.89525], [-72.875, -46.8975], [-72.874, -46.8985], [-72.8745, -46.901], [-72.877, -46.903], [-72.88075, -46.90425], [-72.882, -46.904], [-72.88275, -46.90475], [-72.88275, -46.906], [-72.8815, -46.90725], [-72.881, -46.91], [-72.879324, -46.911236], [-72.878, -46.9135], [-72.87875, -46.91475], [-72.87825, -46.916], [-72.877, -46.9165], [-72.87725, -46.917], [-72.8755, -46.919], [-72.8755, -46.926], [-72.877, -46.9305], [-72.876, -46.93125], [-72.87625, -46.93325], [-72.8775, -46.9385], [-72.8785, -46.939], [-72.8795, -46.9435], [-72.8805, -46.94525], [-72.88, -46.946], [-72.8815, -46.94825], [-72.88175, -46.95525], [-72.88275, -46.95775], [-72.88225, -46.959], [-72.886, -46.9615], [-72.8915, -46.96775], [-72.8895, -46.9705], [-72.89, -46.97175], [-72.88825, -46.9735], [-72.8895, -46.97725], [-72.88725, -46.97825], [-72.88075, -46.9775], [-72.87875, -46.97825]], [[-72.831345, -46.946092], [-72.831345, -46.946092]], [[-72.830079, -46.943708], [-72.829499, -46.94376], [-72.828856, -46.946045], [-72.830363, -46.947517], [-72.831061, -46.946803], [-72.831173, -46.945298], [-72.830079, -46.943708]]]]}}