{"type": "Feature", "properties": {"id": "lago-pellaifa", "name": "Lago Pellaifa", "type": "lake", "region": "los-rios"}, "geometry": {"type": "MultiPolygon", "coordinates": [[[[-71.941255, -39.620317], [-71.943494, -39.61849], [-71.943443, -39.615486], [-71.944333, -39.614867], [-71.943293, -39.610292], [-71.945276, -39.606969], [-71.948129, -39.604864], [-71.949193, -39.60479], [-71.949798, -39.60546], [-71.94721, -39.610788], [-71.947573, -39.611831], [-71.948395, -39.611943], [-71.95149, -39.609093], [-71.952554, -39.607435], [-71.952868, -39.605386], [-71.955141, -39.60343], [-71.961476, -39.602945], [-71.973572, -39.605205], [-71.979289, -39.604521], [-71.980611, -39.60362], [-71.982113, -39.603919], [-71.982545, -39.601758], [-71.981494, -39.60067], [-71.980212, -39.600757], [-71.98011, -39.601262], [-71.97864, -39.600237], [-71.976028, -39.59626], [-71.974118, -39.591792], [-71.96664, -39.587455], [-71.961544, -39.587389], [-71.955498, -39.588418], [-71.949935, -39.590477], [-71.944565, -39.593747], [-71.944415, -39.594383], [-71.945246, -39.595049], [-71.947092, -39.594421], [-71.945836, -39.600361], [-71.943224, -39.602679], [-71.93786, -39.609949], [-71.933455, -39.611412], [-71.932227, -39.614098], [-71.931959, -39.619532], [-71.927614, -39.622772], [-71.927308, -39.625115], [-71.928091, -39.625755], [-71.930789, -39.625722], [-71.932543, -39.626433], [-71.937763, -39.625644], [-71.939485, -39.623867], [-71.941014, -39.623462], [-71.940198, -39.622417], [-71.941255, -39.620317]]]]}}