{"type": "Feature", "properties": {"id": "lago-maihue", "name": "Lago Maihue", "type": "lake", "region": "los-rios"}, "geometry": {"type": "MultiPolygon", "coordinates": [[[[-72.028352, -40.299433], [-72.027657, -40.300417], [-72.027958, -40.301804], [-72.027346, -40.303747], [-72.025624, -40.303782], [-72.024726, -40.304577], [-72.023033, -40.306764], [-72.020981, -40.311757], [-72.020478, -40.315793], [-72.021305, -40.32179], [-72.020704, -40.323761], [-72.019706, -40.324718], [-72.018075, -40.325078], [-72.017517, -40.326493], [-72.016563, -40.326902], [-72.017174, -40.328497], [-72.01682, -40.329159], [-72.012432, -40.330059], [-72.01181, -40.328652], [-72.010694, -40.328407], [-72.01025, -40.33125], [-72.00925, -40.332], [-72.00525, -40.3325], [-72.003, -40.33025], [-71.9995, -40.331], [-71.994431, -40.328454], [-71.99275, -40.326], [-71.991976, -40.320984], [-71.990316, -40.31823], [-71.993049, -40.316113], [-71.993771, -40.315008], [-71.993501, -40.314392], [-71.990168, -40.312135], [-71.986885, -40.31326], [-71.986155, -40.31273], [-71.98652, -40.311149], [-71.983859, -40.311427], [-71.980035, -40.310462], [-71.97828, -40.308912], [-71.978576, -40.307621], [-71.977318, -40.307089], [-71.977669, -40.305686], [-71.979874, -40.303888], [-71.981561, -40.300638], [-71.982714, -40.300073], [-71.98328, -40.298852], [-71.986075, -40.297412], [-71.987051, -40.296], [-71.985641, -40.292011], [-71.985952, -40.289793], [-71.985125, -40.288488], [-71.985324, -40.2855], [-71.986955, -40.284502], [-71.989583, -40.284093], [-71.990954, -40.282548], [-71.993896, -40.28183], [-71.994621, -40.280291], [-71.993666, -40.277172], [-71.994175, -40.275814], [-71.99736, -40.27514], [-71.999486, -40.276247], [-72.002721, -40.273464], [-72.00249, -40.269601], [-72.006749, -40.264795], [-72.008037, -40.261385], [-72.007766, -40.256643], [-72.008758, -40.254512], [-72.010775, -40.252764], [-72.013128, -40.25218], [-72.016411, -40.253503], [-72.024439, -40.254461], [-72.028805, -40.257083], [-72.038507, -40.259042], [-72.039043, -40.256862], [-72.040985, -40.257881], [-72.041763, -40.256876], [-72.043901, -40.257744], [-72.042933, -40.255625], [-72.044746, -40.257201], [-72.045668, -40.256763], [-72.045357, -40.256248], [-72.046586, -40.256477], [-72.047465, -40.253533], [-72.050164, -40.250794], [-72.050083, -40.248182], [-72.050684, -40.245304], [-72.051569, -40.244034], [-72.057567, -40.243265], [-72.061461, -40.244391], [-72.06535, -40.246798], [-72.068451, -40.246855], [-72.072169, -40.248944], [-72.077522, -40.249918], [-72.07896, -40.251093], [-72.078402, -40.251318], [-72.07918, -40.252289], [-72.084035, -40.251846], [-72.084979, -40.251003], [-72.085655, -40.248964], [-72.089319, -40.247666], [-72.097805, -40.241553], [-72.101281, -40.240713], [-72.111677, -40.241856], [-72.115363, -40.239522], [-72.11841, -40.240525], [-72.120518, -40.237917], [-72.123007, -40.237306], [-72.126623, -40.233629], [-72.129723, -40.23245], [-72.130171, -40.229486], [-72.130896, -40.228438], [-72.132282, -40.227971], [-72.134653, -40.22846], [-72.138644, -40.224967], [-72.141471, -40.226359], [-72.14375, -40.22875], [-72.145, -40.22875], [-72.147, -40.23025], [-72.145045, -40.232297], [-72.14225, -40.2375], [-72.14025, -40.23825], [-72.138, -40.24], [-72.1375, -40.24125], [-72.13525, -40.24225], [-72.134, -40.24375], [-72.13375, -40.24525], [-72.13125, -40.24725], [-72.13075, -40.2485], [-72.1265, -40.25], [-72.12375, -40.24775], [-72.11825, -40.248], [-72.1155, -40.24875], [-72.11525, -40.2495], [-72.118782, -40.252825], [-72.118291, -40.253612], [-72.11975, -40.254], [-72.11975, -40.2555], [-72.11825, -40.257], [-72.116, -40.26125], [-72.11325, -40.26325], [-72.11125, -40.2635], [-72.1085, -40.266], [-72.105, -40.263], [-72.10575, -40.26225], [-72.105, -40.26175], [-72.103, -40.263], [-72.0975, -40.26475], [-72.09325, -40.26175], [-72.0905, -40.26125], [-72.089, -40.26], [-72.08875, -40.2585], [-72.08625, -40.25825], [-72.0835, -40.26075], [-72.0805, -40.26025], [-72.07725, -40.26075], [-72.07575, -40.2595], [-72.07425, -40.25925], [-72.07375, -40.25825], [-72.072, -40.25725], [-72.07225, -40.26025], [-72.07075, -40.2605], [-72.07025, -40.265], [-72.06925, -40.266], [-72.07, -40.26875], [-72.067, -40.2725], [-72.06725, -40.27525], [-72.065, -40.279], [-72.065, -40.2805], [-72.06325, -40.282], [-72.057, -40.28475], [-72.057, -40.28925], [-72.05525, -40.29125], [-72.045821, -40.295347], [-72.034867, -40.294365], [-72.030828, -40.296462], [-72.029186, -40.297794], [-72.028352, -40.299433]], [[-71.989261, -40.310118], [-71.990265, -40.311117], [-71.988473, -40.311628], [-71.988355, -40.310511], [-71.989261, -40.310118]]]]}}