{"type": "Feature", "properties": {"id": "laguna-parrillar", "name": "Laguna Parrillar", "type": "lake", "region": "magallanes"}, "geometry": {"type": "MultiPolygon", "coordinates": [[[[-71.29364, -53.436003], [-71.28902, -53.436027], [-71.286459, -53.435343], [-71.284244, -53.434003], [-71.278336, -53.432441], [-71.271492, -53.428912], [-71.26675, -53.424902], [-71.262618, -53.419576], [-71.260248, -53.415042], [-71.260286, -53.410278], [-71.261279, -53.409655], [-71.262302, -53.407585], [-71.26438, -53.406725], [-71.265429, -53.404907], [-71.274369, -53.404216], [-71.274541, -53.401799], [-71.276289, -53.399041], [-71.280261, -53.398896], [-71.302402, -53.391788], [-71.304566, -53.392905], [-71.306269, -53.394826], [-71.305856, -53.395466], [-71.302241, -53.396157], [-71.302171, -53.396904], [-71.304659, -53.397269], [-71.305945, -53.398262], [-71.307013, -53.400403], [-71.306869, -53.403167], [-71.31033, -53.40571], [-71.310673, -53.407179], [-71.30824, -53.410875], [-71.300804, -53.415309], [-71.301334, -53.416309], [-71.300744, -53.417246], [-71.300811, -53.420597], [-71.302064, -53.422948], [-71.302155, -53.426455], [-71.302771, -53.427464], [-71.30202, -53.428457], [-71.299384, -53.429746], [-71.299622, -53.430418], [-71.298784, -53.431881], [-71.296891, -53.432857], [-71.296396, -53.433909], [-71.29364, -53.436003]]]]}}