{"type": "Feature", "properties": {"id": "laguna-negra", "name": "Laguna Negra", "type": "lake", "region": "metropolitana"}, "geometry": {"type": "MultiPolygon", "coordinates": [[[[-70.133758, -33.652155], [-70.133715, -33.653798], [-70.132042, -33.656691], [-70.130583, -33.661978], [-70.130025, -33.659656], [-70.12642, -33.661728], [-70.124317, -33.661871], [-70.121828, -33.661228], [-70.120337, -33.659612], [-70.114447, -33.65812], [-70.118523, -33.649797], [-70.118523, -33.648475], [-70.116979, -33.645438], [-70.11891, -33.639043], [-70.118009, -33.633148], [-70.115691, -33.628467], [-70.114575, -33.624071], [-70.114275, -33.620605], [-70.115219, -33.61914], [-70.115434, -33.616888], [-70.114447, -33.609097], [-70.11582, -33.610527], [-70.118137, -33.620962], [-70.120884, -33.624822], [-70.121656, -33.627037], [-70.124103, -33.62986], [-70.127321, -33.638003], [-70.128737, -33.637543], [-70.129124, -33.636471], [-70.129295, -33.635256], [-70.128437, -33.633112], [-70.129464, -33.631325], [-70.13087, -33.630296], [-70.131999, -33.630468], [-70.132643, -33.63572], [-70.134059, -33.639043], [-70.134917, -33.644974], [-70.134273, -33.646189], [-70.133758, -33.652155]]]]}}