{"type": "Feature", "properties": {"id": "laguna-candelaria", "name": "Laguna Candelaria", "type": "lake", "region": "los-lagos"}, "geometry": {"type": "MultiPolygon", "coordinates": [[[[-72.3198, -41.680853], [-72.31818, -41.682192], [-72.316387, -41.685463], [-72.316709, -41.686305], [-72.315766, -41.688385], [-72.316238, -41.689162], [-72.315316, -41.690316], [-72.315563, -41.692591], [-72.314016, -41.694725], [-72.314273, -41.696183], [-72.315228, -41.696912], [-72.316217, -41.696533], [-72.316773, -41.694509], [-72.31802, -41.694282], [-72.31965, -41.68897], [-72.321676, -41.687042], [-72.322408, -41.684595], [-72.32217, -41.683156], [-72.32026, -41.682651], [-72.320636, -41.681313], [-72.3198, -41.680853]]]]}}