{"type": "Feature", "properties": {"id": "laguna-del-laja", "name": "Laguna del Laja", "type": "lake", "region": "biobio"}, "geometry": {"type": "MultiPolygon", "coordinates": [[[[-71.266495, -37.238048], [-71.271395, -37.238601], [-71.276164, -37.238285], [-71.28111, -37.236575], [-71.282521, -37.237369], [-71.284211, -37.237294], [-71.288137, -37.239272], [-71.29586, -37.240523], [-71.300985, -37.243986], [-71.302788, -37.243841], [-71.304606, -37.242761], [-71.305819, -37.241168], [-71.306918, -37.237606], [-71.304107, -37.234292], [-71.302514, -37.231247], [-71.303002, -37.222909], [-71.304858, -37.218539], [-71.304555, -37.217962], [-71.305934, -37.216362], [-71.307372, -37.215965], [-71.306867, -37.21454], [-71.305285, -37.214382], [-71.306932, -37.211665], [-71.307066, -37.209271], [-71.30864, -37.207844], [-71.308487, -37.207119], [-71.309161, -37.207333], [-71.309938, -37.206331], [-71.312073, -37.202227], [-71.312151, -37.20046], [-71.313339, -37.199668], [-71.312578, -37.200618], [-71.314329, -37.201424], [-71.314868, -37.203622], [-71.313495, -37.205568], [-71.311695, -37.21227], [-71.308863, -37.214286], [-71.309469, -37.215754], [-71.310923, -37.216046], [-71.313557, -37.217949], [-71.316043, -37.218443], [-71.316892, -37.217876], [-71.316159, -37.218746], [-71.3153, -37.218404], [-71.313069, -37.219442], [-71.313514, -37.222187], [-71.312977, -37.223069], [-71.314952, -37.225848], [-71.315021, -37.227669], [-71.31637, -37.23013], [-71.317985, -37.239323], [-71.317307, -37.242105], [-71.315885, -37.244401], [-71.31033, -37.248447], [-71.311915, -37.248874], [-71.315319, -37.247659], [-71.317108, -37.247979], [-71.321982, -37.245806], [-71.325597, -37.245592], [-71.324814, -37.246442], [-71.32196, -37.247119], [-71.320348, -37.248829], [-71.317178, -37.249617], [-71.317717, -37.251056], [-71.314463, -37.255104], [-71.316872, -37.255349], [-71.316727, -37.256252], [-71.319897, -37.255195], [-71.321153, -37.25536], [-71.321665, -37.256075], [-71.321295, -37.261523], [-71.320313, -37.264646], [-71.318205, -37.266826], [-71.318935, -37.267583], [-71.318159, -37.268063], [-71.317942, -37.270994], [-71.318988, -37.271513], [-71.325385, -37.267733], [-71.327856, -37.267874], [-71.324243, -37.270495], [-71.322089, -37.273562], [-71.321392, -37.275792], [-71.318578, -37.278014], [-71.318843, -37.279493], [-71.314394, -37.284493], [-71.31636, -37.285422], [-71.318363, -37.28539], [-71.332045, -37.280825], [-71.342779, -37.279354], [-71.348375, -37.28059], [-71.355557, -37.280893], [-71.360544, -37.281856], [-71.361064, -37.280974], [-71.36409, -37.283194], [-71.366139, -37.283326], [-71.364358, -37.284071], [-71.364814, -37.284959], [-71.361297, -37.284271], [-71.360385, -37.283411], [-71.355987, -37.284769], [-71.349576, -37.284323], [-71.347446, -37.287035], [-71.348562, -37.29126], [-71.349965, -37.292912], [-71.349112, -37.292016], [-71.345177, -37.291154], [-71.341701, -37.289419], [-71.33215, -37.289199], [-71.324902, -37.291326], [-71.322105, -37.292831], [-71.316791, -37.293078], [-71.312446, -37.294734], [-71.311808, -37.296488], [-71.312626, -37.297623], [-71.310698, -37.299932], [-71.31132, -37.301611], [-71.309027, -37.302044], [-71.305794, -37.305424], [-71.307173, -37.306049], [-71.308136, -37.30901], [-71.306189, -37.312807], [-71.306714, -37.313938], [-71.30621, -37.316468], [-71.306559, -37.31788], [-71.303971, -37.320373], [-71.304437, -37.322248], [-71.303657, -37.32353], [-71.305706, -37.325461], [-71.308887, -37.325328], [-71.312119, -37.326152], [-71.308571, -37.32828], [-71.30518, -37.331315], [-71.305709, -37.333864], [-71.308498, -37.336451], [-71.308131, -37.337655], [-71.309751, -37.338253], [-71.310351, -37.341405], [-71.314552, -37.343458], [-71.315088, -37.345132], [-71.316684, -37.346373], [-71.320785, -37.347145], [-71.331112, -37.34577], [-71.332831, -37.343464], [-71.332887, -37.341952], [-71.339209, -37.337044], [-71.343922, -37.332262], [-71.34396, -37.331501], [-71.344424, -37.332735], [-71.342117, -37.338374], [-71.339641, -37.341311], [-71.338973, -37.343407], [-71.339657, -37.344853], [-71.338799, -37.345673], [-71.340277, -37.348897], [-71.34301, -37.349808], [-71.34724, -37.349145], [-71.348629, -37.350124], [-71.352494, -37.350718], [-71.354265, -37.34948], [-71.360914, -37.341754], [-71.363411, -37.340377], [-71.362982, -37.34156], [-71.363489, -37.3414], [-71.3613, -37.345292], [-71.358671, -37.347597], [-71.359785, -37.348987], [-71.35964, -37.351019], [-71.357982, -37.355358], [-71.362472, -37.360438], [-71.365809, -37.362125], [-71.3709, -37.367], [-71.37138, -37.368797], [-71.372646, -37.37014], [-71.371608, -37.373461], [-71.374472, -37.376315], [-71.37436, -37.377136], [-71.373314, -37.377504], [-71.37254, -37.377001], [-71.371488, -37.377843], [-71.368845, -37.377123], [-71.365956, -37.37753], [-71.364698, -37.376901], [-71.364224, -37.374791], [-71.363137, -37.37455], [-71.361815, -37.372231], [-71.353817, -37.366278], [-71.348487, -37.364393], [-71.342256, -37.364078], [-71.343213, -37.363578], [-71.341605, -37.364156], [-71.341934, -37.363756], [-71.339354, -37.363809], [-71.335248, -37.365293], [-71.331509, -37.36817], [-71.326279, -37.36745], [-71.324827, -37.370362], [-71.322239, -37.37315], [-71.318902, -37.374893], [-71.315609, -37.374697], [-71.312926, -37.376773], [-71.311231, -37.379416], [-71.309563, -37.380431], [-71.306173, -37.381586], [-71.303965, -37.381158], [-71.303319, -37.384374], [-71.30135, -37.38645], [-71.302482, -37.387185], [-71.30194, -37.394991], [-71.295932, -37.399513], [-71.296163, -37.402359], [-71.29532, -37.403395], [-71.294113, -37.403616], [-71.295374, -37.404473], [-71.295315, -37.405572], [-71.294258, -37.405457], [-71.294076, -37.406706], [-71.288711, -37.407298], [-71.28347, -37.4101], [-71.28287, -37.410999], [-71.283511, -37.411142], [-71.282357, -37.412467], [-71.27861, -37.41259], [-71.276759, -37.414657], [-71.276486, -37.41674], [-71.275134, -37.418738], [-71.275617, -37.418883], [-71.273965, -37.420847], [-71.274179, -37.422437], [-71.275166, -37.422688], [-71.274861, -37.423263], [-71.273568, -37.423203], [-71.274549, -37.42432], [-71.272921, -37.424526], [-71.273552, -37.424899], [-71.272747, -37.425402], [-71.273375, -37.426215], [-71.273015, -37.428051], [-71.26727, -37.430884], [-71.26392, -37.430906], [-71.265698, -37.43235], [-71.263035, -37.434795], [-71.263673, -37.435979], [-71.263367, -37.437461], [-71.261592, -37.439501], [-71.263037, -37.440078], [-71.263523, -37.440994], [-71.262447, -37.44355], [-71.263158, -37.444559], [-71.264636, -37.444706], [-71.267211, -37.446529], [-71.267543, -37.447193], [-71.266256, -37.446444], [-71.266379, -37.447193], [-71.268858, -37.449906], [-71.267565, -37.44991], [-71.269255, -37.450451], [-71.27088, -37.451893], [-71.269705, -37.451077], [-71.269823, -37.451605], [-71.268176, -37.450822], [-71.268992, -37.451635], [-71.268117, -37.451422], [-71.264346, -37.449736], [-71.263332, -37.448275], [-71.264556, -37.450864], [-71.263421, -37.452176], [-71.264448, -37.454101], [-71.26831, -37.455293], [-71.268348, -37.456249], [-71.269531, -37.457139], [-71.269086, -37.457963], [-71.268185, -37.456745], [-71.26565, -37.457118], [-71.264413, -37.45583], [-71.263681, -37.455836], [-71.262917, -37.454337], [-71.261484, -37.454808], [-71.262587, -37.454116], [-71.262015, -37.453945], [-71.262273, -37.452972], [-71.261439, -37.451678], [-71.261393, -37.448973], [-71.253655, -37.445494], [-71.25358, -37.442715], [-71.254197, -37.441071], [-71.252882, -37.437712], [-71.254913, -37.435572], [-71.252185, -37.434062], [-71.254824, -37.434839], [-71.254556, -37.433421], [-71.255208, -37.433559], [-71.255825, -37.432377], [-71.255227, -37.431229], [-71.256112, -37.42797], [-71.258365, -37.426083], [-71.258783, -37.426948], [-71.260194, -37.426462], [-71.260393, -37.424967], [-71.262085, -37.423248], [-71.26153, -37.421482], [-71.262435, -37.419013], [-71.263284, -37.418977], [-71.269359, -37.413824], [-71.275298, -37.410196], [-71.276247, -37.409723], [-71.277398, -37.4102], [-71.278414, -37.409522], [-71.279254, -37.40775], [-71.278927, -37.404226], [-71.277891, -37.401669], [-71.276422, -37.399981], [-71.273991, -37.398907], [-71.270279, -37.395217], [-71.266245, -37.393729], [-71.264314, -37.392694], [-71.264164, -37.392007], [-71.260406, -37.391854], [-71.255433, -37.394104], [-71.248283, -37.394234], [-71.249007, -37.393802], [-71.248232, -37.393595], [-71.248867, -37.392775], [-71.249921, -37.392719], [-71.258105, -37.388037], [-71.259671, -37.38639], [-71.260374, -37.384534], [-71.259604, -37.380844], [-71.255382, -37.377571], [-71.25491, -37.375682], [-71.253258, -37.374437], [-71.253022, -37.371099], [-71.251697, -37.369535], [-71.252706, -37.369334], [-71.254854, -37.370475], [-71.25682, -37.373306], [-71.257531, -37.373075], [-71.259097, -37.37516], [-71.263311, -37.377575], [-71.265829, -37.380804], [-71.268029, -37.381081], [-71.270081, -37.383325], [-71.276199, -37.386705], [-71.278991, -37.391897], [-71.27883, -37.393621], [-71.280445, -37.395643], [-71.28538, -37.393486], [-71.290519, -37.393563], [-71.294146, -37.394882], [-71.297724, -37.39393], [-71.29715, -37.39348], [-71.298383, -37.392076], [-71.295117, -37.38899], [-71.293985, -37.385154], [-71.29391, -37.381859], [-71.295841, -37.378138], [-71.292332, -37.373212], [-71.290404, -37.371355], [-71.288526, -37.370982], [-71.287802, -37.368676], [-71.286273, -37.368107], [-71.285407, -37.366337], [-71.283647, -37.365932], [-71.283551, -37.362221], [-71.281405, -37.362242], [-71.279294, -37.361415], [-71.275722, -37.358417], [-71.275719, -37.357377], [-71.27695, -37.355872], [-71.274595, -37.354467], [-71.275684, -37.35358], [-71.275547, -37.351025], [-71.278353, -37.347565], [-71.275662, -37.343795], [-71.271451, -37.341637], [-71.271392, -37.340351], [-71.270263, -37.339321], [-71.272707, -37.33705], [-71.277049, -37.336182], [-71.276912, -37.333601], [-71.276167, -37.332605], [-71.276215, -37.330759], [-71.277253, -37.329338], [-71.276867, -37.327067], [-71.274, -37.32568], [-71.268946, -37.326751], [-71.268984, -37.323025], [-71.267618, -37.321773], [-71.266457, -37.321591], [-71.269201, -37.318852], [-71.270985, -37.32019], [-71.273074, -37.320128], [-71.274788, -37.318349], [-71.276381, -37.318227], [-71.279066, -37.316058], [-71.279511, -37.31375], [-71.276491, -37.309995], [-71.278473, -37.309377], [-71.279466, -37.308338], [-71.278227, -37.306836], [-71.27831, -37.305411], [-71.278841, -37.304338], [-71.281172, -37.303864], [-71.282974, -37.301099], [-71.282717, -37.297322], [-71.283296, -37.296053], [-71.282996, -37.293505], [-71.281408, -37.294233], [-71.280643, -37.291721], [-71.273737, -37.285872], [-71.273042, -37.283164], [-71.268989, -37.282082], [-71.269051, -37.280829], [-71.267283, -37.280313], [-71.271081, -37.279645], [-71.271285, -37.280859], [-71.273986, -37.280246], [-71.279037, -37.281661], [-71.282325, -37.28403], [-71.282778, -37.284737], [-71.282406, -37.285462], [-71.283546, -37.286792], [-71.286147, -37.286501], [-71.290774, -37.288788], [-71.2923, -37.285541], [-71.294454, -37.283053], [-71.294245, -37.281083], [-71.295323, -37.27871], [-71.295213, -37.277862], [-71.292619, -37.277145], [-71.291718, -37.275972], [-71.295395, -37.273903], [-71.29705, -37.27032], [-71.295455, -37.26591], [-71.296061, -37.26318], [-71.29072, -37.256869], [-71.290211, -37.255644], [-71.290393, -37.252802], [-71.288459, -37.250714], [-71.288813, -37.250304], [-71.28324, -37.249384], [-71.281325, -37.249598], [-71.27849, -37.251054], [-71.275483, -37.248799], [-71.27036, -37.24805], [-71.266524, -37.248248], [-71.263845, -37.247454], [-71.257461, -37.24907], [-71.25182, -37.248308], [-71.249514, -37.248786], [-71.249819, -37.248223], [-71.249181, -37.248257], [-71.252405, -37.24689], [-71.249986, -37.240532], [-71.24894, -37.235842], [-71.246461, -37.230892], [-71.244552, -37.22871], [-71.244943, -37.226147], [-71.244015, -37.223678], [-71.245249, -37.224096], [-71.249374, -37.229948], [-71.251683, -37.231125], [-71.25576, -37.234693], [-71.258429, -37.236015], [-71.263137, -37.236124], [-71.262852, -37.236752], [-71.266495, -37.238048]], [[-71.338865, -37.363793], [-71.338865, -37.363793]], [[-71.338322, -37.363837], [-71.339005, -37.363643], [-71.338322, -37.363837]], [[-71.337852, -37.364231], [-71.338242, -37.364055], [-71.337852, -37.364231]], [[-71.337862, -37.363957], [-71.338268, -37.363566], [-71.337862, -37.363957]], [[-71.33744, -37.363646], [-71.337907, -37.363344], [-71.33744, -37.363646]], [[-71.341264, -37.363534], [-71.342855, -37.363059], [-71.341264, -37.363534]], [[-71.341631, -37.363171], [-71.342307, -37.362903], [-71.341631, -37.363171]], [[-71.34213, -37.363587], [-71.342608, -37.363581], [-71.34213, -37.363587]]]]}}