{"type": "Feature", "properties": {"id": "laguna-del-maule", "name": "Laguna del Maule", "type": "lake", "region": "maule"}, "geometry": {"type": "MultiPolygon", "coordinates": [[[[-70.475911, -36.105714], [-70.479497, -36.110516], [-70.480366, -36.113848], [-70.479293, -36.115276], [-70.479223, -36.116984], [-70.481007, -36.11379], [-70.479985, -36.111159], [-70.480575, -36.109712], [-70.480117, -36.109469], [-70.481737, -36.107504], [-70.482504, -36.104427], [-70.480562, -36.102186], [-70.479022, -36.101488], [-70.482273, -36.098515], [-70.483754, -36.09812], [-70.484054, -36.097583], [-70.483515, -36.097054], [-70.485234, -36.095584], [-70.486994, -36.095021], [-70.491693, -36.095394], [-70.499064, -36.098779], [-70.504643, -36.10024], [-70.505088, -36.096295], [-70.506408, -36.094756], [-70.506467, -36.091345], [-70.508409, -36.089563], [-70.509675, -36.086655], [-70.514224, -36.082961], [-70.517056, -36.079627], [-70.525296, -36.077958], [-70.528171, -36.079839], [-70.532983, -36.081652], [-70.534528, -36.081643], [-70.534812, -36.080451], [-70.536212, -36.080264], [-70.535172, -36.07977], [-70.536373, -36.079709], [-70.535912, -36.079306], [-70.536234, -36.077212], [-70.537902, -36.073518], [-70.536255, -36.071987], [-70.535429, -36.072642], [-70.531722, -36.07127], [-70.53176, -36.070468], [-70.533171, -36.06952], [-70.532709, -36.068228], [-70.53051, -36.066775], [-70.52918, -36.067283], [-70.526385, -36.066793], [-70.523391, -36.069082], [-70.518333, -36.065245], [-70.519583, -36.064243], [-70.522098, -36.064724], [-70.523032, -36.062881], [-70.526417, -36.061268], [-70.524593, -36.06119], [-70.523863, -36.062066], [-70.520653, -36.061559], [-70.520122, -36.06034], [-70.522378, -36.060583], [-70.519491, -36.059393], [-70.518421, -36.061765], [-70.517091, -36.062456], [-70.516423, -36.061741], [-70.518276, -36.058944], [-70.517646, -36.058465], [-70.515095, -36.062292], [-70.514213, -36.062736], [-70.513408, -36.062177], [-70.515954, -36.058432], [-70.515211, -36.057237], [-70.516257, -36.057116], [-70.516976, -36.055706], [-70.516332, -36.054301], [-70.514261, -36.053586], [-70.514693, -36.052968], [-70.518411, -36.052619], [-70.518671, -36.054475], [-70.520205, -36.054644], [-70.519408, -36.055182], [-70.519298, -36.057309], [-70.519846, -36.057803], [-70.521643, -36.057244], [-70.522581, -36.058358], [-70.524287, -36.057456], [-70.524534, -36.056719], [-70.527103, -36.055982], [-70.527458, -36.055067], [-70.527951, -36.056086], [-70.527683, -36.058371], [-70.53198, -36.060652], [-70.53434, -36.060991], [-70.536368, -36.060028], [-70.535719, -36.059855], [-70.535751, -36.058749], [-70.535123, -36.058653], [-70.535188, -36.057448], [-70.536717, -36.056489], [-70.536727, -36.055418], [-70.538589, -36.05495], [-70.539656, -36.052391], [-70.541748, -36.051515], [-70.541882, -36.049997], [-70.543916, -36.047737], [-70.545847, -36.048223], [-70.548921, -36.046878], [-70.554838, -36.049086], [-70.559365, -36.049082], [-70.560803, -36.048544], [-70.562755, -36.047013], [-70.563362, -36.045122], [-70.565078, -36.045304], [-70.562841, -36.042276], [-70.561071, -36.04196], [-70.561618, -36.040042], [-70.561237, -36.036407], [-70.560465, -36.034971], [-70.560942, -36.034334], [-70.561742, -36.034564], [-70.559183, -36.032117], [-70.555873, -36.03288], [-70.554607, -36.032425], [-70.554859, -36.030525], [-70.556876, -36.0299], [-70.556914, -36.030677], [-70.558893, -36.031223], [-70.559317, -36.02944], [-70.561141, -36.026811], [-70.564306, -36.027562], [-70.566087, -36.027354], [-70.568254, -36.025241], [-70.569386, -36.025089], [-70.569407, -36.023757], [-70.570228, -36.023861], [-70.56996, -36.023245], [-70.567567, -36.023748], [-70.567535, -36.024677], [-70.56525, -36.026078], [-70.564113, -36.023657], [-70.565432, -36.02341], [-70.563775, -36.02216], [-70.564177, -36.020446], [-70.561709, -36.018177], [-70.558088, -36.017292], [-70.557305, -36.015333], [-70.556734, -36.015424], [-70.555707, -36.017175], [-70.555728, -36.022225], [-70.554317, -36.023028], [-70.554022, -36.026299], [-70.551812, -36.029002], [-70.552123, -36.030651], [-70.55406, -36.03288], [-70.553223, -36.034568], [-70.549656, -36.035188], [-70.546845, -36.037865], [-70.543899, -36.037535], [-70.53978, -36.038316], [-70.539849, -36.03714], [-70.538873, -36.036412], [-70.537484, -36.037344], [-70.535129, -36.037474], [-70.532232, -36.0394], [-70.531781, -36.038914], [-70.532001, -36.036277], [-70.527699, -36.034568], [-70.525972, -36.033136], [-70.521503, -36.024933], [-70.519368, -36.023909], [-70.51712, -36.023809], [-70.513365, -36.021076], [-70.511987, -36.022121], [-70.509884, -36.021787], [-70.507389, -36.026894], [-70.506805, -36.030694], [-70.505962, -36.031436], [-70.505549, -36.030295], [-70.50504, -36.030833], [-70.505319, -36.036412], [-70.504369, -36.037253], [-70.502958, -36.036225], [-70.495807, -36.035752], [-70.490494, -36.032798], [-70.489233, -36.03018], [-70.486581, -36.029076], [-70.483861, -36.02398], [-70.48098, -36.025247], [-70.475444, -36.031692], [-70.471914, -36.031813], [-70.469549, -36.027848], [-70.466475, -36.024837], [-70.464603, -36.020338], [-70.466276, -36.014828], [-70.468798, -36.013348], [-70.467097, -36.011808], [-70.467006, -36.010922], [-70.465273, -36.010015], [-70.462908, -36.009994], [-70.461094, -36.008644], [-70.458375, -36.007859], [-70.453386, -36.004543], [-70.453595, -36.003617], [-70.451903, -36.002521], [-70.447608, -36.002868], [-70.446295, -36.003685], [-70.445122, -36.005324], [-70.445862, -36.005721], [-70.444864, -36.0058], [-70.447085, -36.007034], [-70.448348, -36.006861], [-70.450545, -36.008803], [-70.454598, -36.011018], [-70.453686, -36.016689], [-70.45404, -36.025067], [-70.455499, -36.02938], [-70.459008, -36.035028], [-70.45934, -36.037422], [-70.463551, -36.043686], [-70.463398, -36.050812], [-70.462629, -36.052239], [-70.459828, -36.054542], [-70.459689, -36.055847], [-70.461121, -36.057864], [-70.464823, -36.059642], [-70.46707, -36.062131], [-70.472832, -36.077593], [-70.478684, -36.087942], [-70.477799, -36.092277], [-70.475771, -36.091553], [-70.47199, -36.094895], [-70.471373, -36.094167], [-70.466142, -36.09604], [-70.465407, -36.09897], [-70.466765, -36.10131], [-70.468916, -36.103152], [-70.472494, -36.104968], [-70.475911, -36.105714]], [[-70.560325, -36.033622], [-70.560492, -36.03413], [-70.560325, -36.033622]], [[-70.519722, -36.028646], [-70.520275, -36.028811], [-70.518976, -36.028703], [-70.519722, -36.028646]], [[-70.515012, -36.024319], [-70.514159, -36.026039], [-70.513204, -36.02636], [-70.515012, -36.024319]], [[-70.47583, -36.03629], [-70.477268, -36.036949], [-70.47707, -36.038897], [-70.475723, -36.038182], [-70.474902, -36.035765], [-70.47583, -36.03629]], [[-70.487536, -36.032833], [-70.490824, -36.037574], [-70.489767, -36.042905], [-70.488737, -36.043669], [-70.487874, -36.040598], [-70.486194, -36.038776], [-70.483448, -36.032863], [-70.484623, -36.031497], [-70.487536, -36.032833]], [[-70.539694, -36.040949], [-70.539275, -36.041517], [-70.539694, -36.040949]]]]}}