{"type": "Feature", "properties": {"id": "rio-enco", "name": "Río Enco", "type": "river", "region": "los-rios"}, "geometry": {"type": "MultiLineString", "coordinates": [[[-72.128537, -39.855923], [-72.133457, -39.860337], [-72.138274, -39.866711], [-72.139775, -39.870024], [-72.140898, -39.876829], [-72.146378, -39.886685], [-72.147936, -39.887702], [-72.153199, -39.88862], [-72.157144, -39.894823], [-72.163469, -39.899299], [-72.163164, -39.901253], [-72.16043, -39.905335], [-72.160408, -39.910316], [-72.158665, -39.914625], [-72.160682, -39.916144], [-72.163403, -39.91646], [-72.16559, -39.917887]], [[-72.16559, -39.917887], [-72.168653, -39.920401], [-72.177476, -39.918688]], [[-72.128537, -39.855923], [-72.133457, -39.860337], [-72.138274, -39.866711], [-72.139775, -39.870024], [-72.140898, -39.876829], [-72.146378, -39.886685], [-72.147936, -39.887702], [-72.153199, -39.88862], [-72.157144, -39.894823], [-72.163469, -39.899299], [-72.163164, -39.901253], [-72.16043, -39.905335], [-72.160408, -39.910316], [-72.158665, -39.914625], [-72.160682, -39.916144], [-72.163403, -39.91646], [-72.16559, -39.917887]], [[-72.16559, -39.917887], [-72.168653, -39.920401], [-72.177476, -39.918688]]]}}