{"type": "Feature", "properties": {"id": "rio-cortaderal", "name": "Río Cortaderal", "type": "river", "region": "ohiggins"}, "geometry": {"type": "MultiLineString", "coordinates": [[[-70.245323, -34.488584], [-70.250789, -34.483849], [-70.259372, -34.478401], [-70.263836, -34.472741], [-70.267269, -34.470264], [-70.269071, -34.469839], [-70.26993, -34.467787], [-70.277569, -34.464178], [-70.285905, -34.458667], [-70.284697, -34.454957], [-70.287793, -34.453901], [-70.287911, -34.453213], [-70.289939, -34.451802], [-70.292117, -34.448272], [-70.296119, -34.446972], [-70.301, -34.442309], [-70.301858, -34.440822], [-70.301773, -34.43969], [-70.303923, -34.437041], [-70.303551, -34.436559], [-70.304837, -34.432641], [-70.306064, -34.430859], [-70.305206, -34.429107], [-70.306869, -34.425806], [-70.307974, -34.419664], [-70.309326, -34.417318], [-70.311469, -34.415391], [-70.310865, -34.414048], [-70.313012, -34.413424], [-70.312905, -34.412326], [-70.313967, -34.411751], [-70.315126, -34.405369], [-70.314364, -34.404254], [-70.316059, -34.401616], [-70.31686, -34.391971], [-70.320136, -34.389487], [-70.323754, -34.38245], [-70.324134, -34.38124], [-70.323097, -34.378295], [-70.323484, -34.376383], [-70.323005, -34.374594], [-70.324536, -34.372421], [-70.324353, -34.370828], [-70.328784, -34.370333], [-70.331705, -34.36749], [-70.335294, -34.366586], [-70.335997, -34.364966]], [[-70.323484, -34.376383], [-70.325034, -34.372648], [-70.327364, -34.371486], [-70.327757, -34.370592]], [[-70.319054, -34.390166], [-70.318759, -34.388838], [-70.319681, -34.386996], [-70.322231, -34.384823], [-70.321462, -34.382144], [-70.322986, -34.380249], [-70.323097, -34.378295]], [[-70.314986, -34.406414], [-70.316205, -34.405588], [-70.318093, -34.402365], [-70.316317, -34.399527]], [[-70.306869, -34.425806], [-70.308169, -34.424192], [-70.308277, -34.420271], [-70.310937, -34.41767], [-70.31068, -34.417094], [-70.311613, -34.417041], [-70.314092, -34.41428], [-70.313967, -34.411751]], [[-70.310682, -34.416098], [-70.312396, -34.415457], [-70.314161, -34.413552]], [[-70.309328, -34.418776], [-70.308837, -34.418011]], [[-70.292734, -34.44787], [-70.294104, -34.446199], [-70.296779, -34.446243]]]}}