{"type": "Feature", "properties": {"id": "rio-simpson", "name": "Río Simpson", "type": "river", "region": "aysen"}, "geometry": {"type": "GeometryCollection", "geometries": [{"type": "MultiPolygon", "coordinates": [[[[-72.171113, -45.695515], [-72.170716, -45.695908], [-72.172698, -45.69858], [-72.178105, -45.699964], [-72.176059, -45.701131], [-72.176415, -45.703557], [-72.177228, -45.705846], [-72.180838, -45.70942], [-72.181906, -45.71245], [-72.180817, -45.712291], [-72.179454, -45.710811], [-72.178196, -45.710774], [-72.176429, -45.713115], [-72.17876, -45.714587], [-72.180994, -45.714606], [-72.182252, -45.716203], [-72.181082, -45.717091], [-72.178245, -45.717555], [-72.176008, -45.720293], [-72.173749, -45.721596], [-72.165595, -45.724476], [-72.163053, -45.727847], [-72.162792, -45.729483], [-72.159866, -45.729921], [-72.160386, -45.73109], [-72.159936, -45.731584], [-72.15499, -45.730869], [-72.152984, -45.728539], [-72.152418, -45.723976], [-72.148925, -45.723542], [-72.147885, -45.723937], [-72.144465, -45.720628], [-72.14134, -45.720495], [-72.139835, -45.718795], [-72.136965, -45.718117], [-72.137556, -45.715589], [-72.137073, -45.714638], [-72.134578, -45.714049], [-72.129064, -45.714538], [-72.128221, -45.713341], [-72.126223, -45.713055], [-72.123452, -45.713563], [-72.122178, -45.715068], [-72.119263, -45.716355], [-72.119912, -45.716443], [-72.119056, -45.718645], [-72.117907, -45.719391], [-72.112976, -45.72022], [-72.108773, -45.721904], [-72.104602, -45.719106], [-72.100643, -45.720106], [-72.097843, -45.721836], [-72.097634, -45.723615], [-72.098157, -45.724649], [-72.096043, -45.725682], [-72.087473, -45.725589], [-72.082476, -45.724338], [-72.081041, -45.725564], [-72.080258, -45.728245], [-72.07591, -45.731487], [-72.075865, -45.73246], [-72.074489, -45.733615], [-72.070197, -45.732026], [-72.068934, -45.733082], [-72.068813, -45.734939], [-72.070009, -45.732277], [-72.074135, -45.734115], [-72.076133, -45.732967], [-72.07631, -45.731436], [-72.080526, -45.728465], [-72.081699, -45.725117], [-72.082581, -45.724559], [-72.083571, -45.724428], [-72.086628, -45.725825], [-72.093208, -45.726366], [-72.096182, -45.725982], [-72.098285, -45.725117], [-72.09846, -45.721795], [-72.100514, -45.720713], [-72.105525, -45.720551], [-72.106882, -45.721926], [-72.108942, -45.722203], [-72.118925, -45.719284], [-72.120089, -45.716952], [-72.122648, -45.716124], [-72.124799, -45.71366], [-72.126199, -45.713297], [-72.127325, -45.713375], [-72.128887, -45.714956], [-72.134117, -45.714469], [-72.136708, -45.71496], [-72.137201, -45.715499], [-72.136107, -45.717154], [-72.136654, -45.718421], [-72.139581, -45.718977], [-72.141254, -45.72081], [-72.144991, -45.721993], [-72.14693, -45.724074], [-72.150001, -45.724989], [-72.152294, -45.724555], [-72.151401, -45.728592], [-72.152265, -45.729532], [-72.151718, -45.730854], [-72.152308, -45.732198], [-72.16081, -45.732939], [-72.162114, -45.731625], [-72.166204, -45.724379], [-72.175042, -45.721821], [-72.178196, -45.718009], [-72.182536, -45.716368], [-72.181737, -45.714808], [-72.178609, -45.714289], [-72.176973, -45.713104], [-72.179387, -45.711422], [-72.18109, -45.712823], [-72.182198, -45.712405], [-72.180905, -45.708936], [-72.177767, -45.705996], [-72.176724, -45.703023], [-72.17681, -45.701412], [-72.178706, -45.699788], [-72.173127, -45.698357], [-72.171113, -45.695515]]], [[[-72.080234, -45.577532], [-72.081969, -45.582124], [-72.081964, -45.58405], [-72.083675, -45.587519], [-72.083664, -45.58931], [-72.086277, -45.59163], [-72.087004, -45.593871], [-72.08982, -45.595299], [-72.090791, -45.597363], [-72.093902, -45.599386], [-72.094605, -45.600939], [-72.096427, -45.602214], [-72.096936, -45.604866], [-72.099074, -45.607251], [-72.105173, -45.609889], [-72.109145, -45.616234], [-72.109089, -45.617927], [-72.112142, -45.620968], [-72.115296, -45.621335], [-72.118198, -45.620123], [-72.119075, -45.620347], [-72.120035, -45.621286], [-72.120706, -45.62414], [-72.122535, -45.625886], [-72.12695, -45.628532], [-72.131318, -45.63014], [-72.134694, -45.63018], [-72.134849, -45.632637], [-72.135742, -45.634538], [-72.142762, -45.640735], [-72.142389, -45.641526], [-72.143341, -45.642842], [-72.14586, -45.643874], [-72.148188, -45.644029], [-72.150781, -45.647067], [-72.157608, -45.646754], [-72.163015, -45.649066], [-72.176067, -45.652459], [-72.179827, -45.654522], [-72.182818, -45.652958], [-72.189429, -45.654314], [-72.195116, -45.657025], [-72.1965, -45.658433], [-72.196065, -45.66024], [-72.193941, -45.662124], [-72.191189, -45.661839], [-72.189389, -45.66286], [-72.196057, -45.66275], [-72.197063, -45.659865], [-72.196154, -45.657162], [-72.186924, -45.652696], [-72.182158, -45.652428], [-72.179913, -45.654316], [-72.176662, -45.652268], [-72.163197, -45.64865], [-72.15849, -45.646627], [-72.155905, -45.646336], [-72.150937, -45.646949], [-72.148523, -45.643996], [-72.143429, -45.642615], [-72.143371, -45.64098], [-72.135541, -45.633638], [-72.135544, -45.630935], [-72.13483, -45.629857], [-72.130769, -45.629591], [-72.122608, -45.625674], [-72.120904, -45.623879], [-72.119748, -45.620011], [-72.118201, -45.619821], [-72.115307, -45.621024], [-72.112276, -45.620666], [-72.109492, -45.617912], [-72.109478, -45.616202], [-72.105463, -45.609595], [-72.099232, -45.607172], [-72.09722, -45.604675], [-72.097379, -45.603605], [-72.096464, -45.601897], [-72.094887, -45.600963], [-72.094176, -45.599285], [-72.090972, -45.59727], [-72.090083, -45.595121], [-72.087578, -45.594089], [-72.086678, -45.591694], [-72.084355, -45.589932], [-72.083064, -45.584882], [-72.082216, -45.583978], [-72.082195, -45.582061], [-72.080234, -45.577532]]], [[[-72.171113, -45.695515], [-72.170115, -45.693381], [-72.168559, -45.691961], [-72.170303, -45.689902], [-72.172303, -45.689064], [-72.172869, -45.684695], [-72.174444, -45.684297], [-72.176112, -45.682888], [-72.17567, -45.681676], [-72.178668, -45.678111], [-72.177558, -45.676867], [-72.177778, -45.675154], [-72.177223, -45.676431], [-72.178269, -45.678162], [-72.175407, -45.681614], [-72.175911, -45.682897], [-72.174441, -45.684134], [-72.172226, -45.684739], [-72.172067, -45.688026], [-72.168385, -45.69173], [-72.170675, -45.695676], [-72.171113, -45.695515]]], [[[-72.177925, -45.67533], [-72.180834, -45.672993], [-72.190046, -45.67128], [-72.190013, -45.670073], [-72.188925, -45.669061], [-72.18918, -45.667728], [-72.186675, -45.665601], [-72.185948, -45.66346], [-72.18701, -45.662604], [-72.189588, -45.66295], [-72.186653, -45.662403], [-72.18568, -45.663535], [-72.186398, -45.665702], [-72.188917, -45.66771], [-72.188499, -45.669052], [-72.189875, -45.671102], [-72.184929, -45.672431], [-72.181404, -45.672598], [-72.177925, -45.67533]]]]}, {"type": "MultiLineString", "coordinates": [[[-72.066447, -45.548541], [-72.066218, -45.546746], [-72.069888, -45.543817], [-72.071865, -45.540393], [-72.076392, -45.539656], [-72.077939, -45.538071], [-72.078387, -45.535864], [-72.081149, -45.535104], [-72.08971, -45.534882], [-72.091781, -45.535686], [-72.092569, -45.536953], [-72.101877, -45.540774], [-72.104119, -45.539106], [-72.106426, -45.538591], [-72.110277, -45.540454], [-72.115551, -45.541476], [-72.124772, -45.540297], [-72.129546, -45.5361], [-72.129305, -45.533747], [-72.13004, -45.532034], [-72.134251, -45.529948], [-72.134106, -45.528885], [-72.130372, -45.525502], [-72.133001, -45.523507], [-72.135587, -45.522954], [-72.13843, -45.519932], [-72.139149, -45.517767], [-72.138183, -45.514174], [-72.138553, -45.509129]], [[-72.119324, -45.620348], [-72.118068, -45.620027], [-72.115054, -45.621191], [-72.112235, -45.620838], [-72.109298, -45.617878], [-72.109288, -45.616234], [-72.105307, -45.609727], [-72.099548, -45.607569], [-72.09722, -45.6049], [-72.096491, -45.602137], [-72.094753, -45.600972], [-72.094018, -45.599281], [-72.091156, -45.597567], [-72.08996, -45.595265], [-72.087146, -45.593893], [-72.086534, -45.59171], [-72.083799, -45.589325], [-72.083945, -45.588237], [-72.082125, -45.583989], [-72.081543, -45.580495], [-72.079543, -45.576543], [-72.079617, -45.5729], [-72.08065, -45.570685], [-72.079727, -45.568364], [-72.077976, -45.567414], [-72.0783, -45.566648], [-72.0774, -45.563124], [-72.075739, -45.560887], [-72.076015, -45.559095], [-72.075123, -45.557558], [-72.068254, -45.552319], [-72.066447, -45.548541]], [[-72.29557, -45.472896], [-72.299164, -45.470823], [-72.300897, -45.47138], [-72.302915, -45.471028], [-72.308404, -45.468888], [-72.311386, -45.468597], [-72.313261, -45.466222], [-72.315091, -45.466356], [-72.321088, -45.463648], [-72.324348, -45.463534], [-72.331883, -45.46144], [-72.335958, -45.458973], [-72.343181, -45.460277], [-72.35719, -45.45902], [-72.361615, -45.460585], [-72.368154, -45.461492], [-72.37288, -45.459461], [-72.379785, -45.458888], [-72.386744, -45.456796], [-72.397961, -45.454828], [-72.401056, -45.453356], [-72.401403, -45.452176], [-72.400391, -45.451487], [-72.396707, -45.451282], [-72.395419, -45.445796], [-72.396926, -45.444865], [-72.401657, -45.444203], [-72.405075, -45.442528], [-72.405142, -45.440034], [-72.403025, -45.436914], [-72.406567, -45.431287], [-72.409426, -45.430908], [-72.413259, -45.433497], [-72.416081, -45.433599], [-72.419812, -45.428936], [-72.42029, -45.423937], [-72.425589, -45.423418], [-72.429947, -45.42497], [-72.434938, -45.42551], [-72.448538, -45.424138], [-72.450336, -45.423039], [-72.453434, -45.418741], [-72.461702, -45.417273], [-72.464321, -45.418746], [-72.4655, -45.4207], [-72.46534, -45.423541], [-72.463642, -45.426594], [-72.464133, -45.427403], [-72.468259, -45.429736], [-72.471121, -45.430338], [-72.472968, -45.429299], [-72.472959, -45.428096], [-72.471967, -45.426732], [-72.472378, -45.425452], [-72.475803, -45.421099], [-72.477123, -45.418113], [-72.476449, -45.414268], [-72.477225, -45.410024], [-72.492953, -45.405286], [-72.496596, -45.405394], [-72.499026, -45.406394]], [[-71.926707, -45.806152], [-71.928991, -45.80573], [-71.932127, -45.806108], [-71.939445, -45.810112], [-71.941787, -45.809617], [-71.943233, -45.80762], [-71.948525, -45.80794], [-71.949461, -45.80678], [-71.952533, -45.805155], [-71.957532, -45.805709], [-71.95981, -45.808115], [-71.961645, -45.808615], [-71.962986, -45.808142], [-71.964923, -45.806053], [-71.974524, -45.804228], [-71.981495, -45.801457], [-71.983838, -45.801625], [-71.989201, -45.800506], [-71.990443, -45.798327], [-71.995114, -45.797833], [-71.998402, -45.795656], [-71.998253, -45.792976], [-71.999171, -45.791414], [-72.000952, -45.790704], [-72.005094, -45.791302], [-72.007089, -45.789462], [-72.011026, -45.788893], [-72.012314, -45.786417], [-72.015413, -45.785841], [-72.015456, -45.785033], [-72.014523, -45.784225], [-72.01461, -45.78302], [-72.020275, -45.78112], [-72.020746, -45.779702], [-72.02014, -45.777534], [-72.025547, -45.772805], [-72.025799, -45.77128], [-72.023774, -45.769629], [-72.023716, -45.767317], [-72.026213, -45.765554], [-72.028122, -45.762686], [-72.02816, -45.761606], [-72.029934, -45.760214], [-72.030017, -45.758515], [-72.029291, -45.7572], [-72.031135, -45.755257], [-72.031952, -45.751967], [-72.034641, -45.75066], [-72.036409, -45.748985], [-72.037012, -45.746833], [-72.044007, -45.746084], [-72.046024, -45.746683], [-72.057123, -45.742756], [-72.059928, -45.743568], [-72.068505, -45.743104], [-72.069885, -45.74249], [-72.070736, -45.74112], [-72.0691, -45.739589], [-72.068639, -45.738045], [-72.06645, -45.737219]], [[-72.138553, -45.509129], [-72.138226, -45.50649], [-72.136343, -45.505373], [-72.137319, -45.5027], [-72.140163, -45.502508], [-72.142828, -45.49947], [-72.146806, -45.498728], [-72.150496, -45.49952], [-72.151591, -45.50058], [-72.152587, -45.503051], [-72.155114, -45.503892], [-72.15682, -45.503569], [-72.161874, -45.500813], [-72.169462, -45.501278], [-72.173662, -45.500062], [-72.177239, -45.499996], [-72.178802, -45.499186], [-72.184601, -45.499682], [-72.188947, -45.499038], [-72.192895, -45.497086], [-72.199075, -45.495545], [-72.200829, -45.493571], [-72.208505, -45.495285], [-72.216343, -45.492732], [-72.226406, -45.497011], [-72.229249, -45.497173], [-72.233981, -45.495579], [-72.236872, -45.496428], [-72.241653, -45.493668], [-72.243479, -45.489977], [-72.249994, -45.491596], [-72.25185, -45.489298], [-72.258931, -45.486188], [-72.26598, -45.486556], [-72.270406, -45.484431], [-72.273538, -45.481393], [-72.278634, -45.481032], [-72.282518, -45.479554], [-72.286799, -45.478873], [-72.288344, -45.477331], [-72.29557, -45.472896]], [[-71.769355, -45.84638], [-71.771396, -45.846294], [-71.771788, -45.844896], [-71.774148, -45.845804], [-71.777051, -45.845812], [-71.779196, -45.842486], [-71.778708, -45.841238], [-71.785532, -45.841738], [-71.786658, -45.839672], [-71.789453, -45.838349], [-71.790955, -45.838775], [-71.791985, -45.839941], [-71.789517, -45.842419], [-71.790113, -45.842949], [-71.791395, -45.842501], [-71.794158, -45.839358], [-71.798744, -45.836891], [-71.802129, -45.837717], [-71.804715, -45.837519], [-71.80627, -45.838749], [-71.80906, -45.836461], [-71.812397, -45.83586], [-71.812515, -45.834716], [-71.811592, -45.832746], [-71.813083, -45.832672], [-71.815444, -45.831363], [-71.81856, -45.826265], [-71.821157, -45.826048], [-71.821291, -45.827338], [-71.823587, -45.828474], [-71.827149, -45.824377], [-71.836043, -45.824332], [-71.839251, -45.823379], [-71.843451, -45.823424], [-71.849765, -45.825783], [-71.855307, -45.818317], [-71.861197, -45.815838], [-71.863219, -45.815984], [-71.864249, -45.816904], [-71.864453, -45.817939], [-71.863616, -45.819513], [-71.864174, -45.820119], [-71.86824, -45.821461], [-71.873985, -45.826347], [-71.884564, -45.82474], [-71.887177, -45.823551], [-71.887139, -45.822908], [-71.885621, -45.823285], [-71.884489, -45.822306], [-71.882166, -45.822209], [-71.881598, -45.821454], [-71.88428, -45.820235], [-71.885326, -45.820908], [-71.886855, -45.820717], [-71.886967, -45.820224], [-71.885031, -45.81899], [-71.885895, -45.817143], [-71.891323, -45.816724], [-71.89429, -45.815274], [-71.897734, -45.81598], [-71.89974, -45.817876], [-71.900834, -45.817962], [-71.902202, -45.817251], [-71.903216, -45.81484], [-71.903002, -45.813322], [-71.900663, -45.811948], [-71.901451, -45.810413], [-71.903367, -45.810226], [-71.906907, -45.808633], [-71.911606, -45.807967], [-71.91497, -45.806535], [-71.924846, -45.80679], [-71.926707, -45.806152]], [[-72.06645, -45.737219], [-72.065978, -45.7365], [-72.069047, -45.734899], [-72.069219, -45.732696], [-72.070013, -45.732157], [-72.074159, -45.733879], [-72.075624, -45.733066], [-72.076042, -45.731587], [-72.080479, -45.728345], [-72.081406, -45.72524], [-72.082506, -45.724427], [-72.087248, -45.725622], [-72.097129, -45.725678], [-72.098148, -45.724941], [-72.098095, -45.721959], [-72.09958, -45.720761], [-72.105417, -45.719911], [-72.107251, -45.721656], [-72.108625, -45.721941], [-72.118785, -45.719237], [-72.119493, -45.717327], [-72.122497, -45.716001], [-72.123817, -45.713656], [-72.126778, -45.713154], [-72.128344, -45.713956], [-72.128827, -45.714892], [-72.132207, -45.714315], [-72.136273, -45.71454], [-72.137305, -45.715484], [-72.136466, -45.717244], [-72.136702, -45.718345], [-72.139223, -45.718686], [-72.141932, -45.720888], [-72.14388, -45.720997], [-72.146712, -45.723634], [-72.152452, -45.724592], [-72.15301, -45.728786], [-72.152232, -45.730254], [-72.15228, -45.731767], [-72.153364, -45.732389], [-72.16081, -45.732793], [-72.165858, -45.724502], [-72.173663, -45.721888], [-72.176173, -45.7203], [-72.178073, -45.717836], [-72.182321, -45.716443], [-72.181528, -45.71481], [-72.178931, -45.71451], [-72.176861, -45.713327], [-72.177697, -45.711206], [-72.178507, -45.710889], [-72.179578, -45.711103], [-72.180443, -45.712261], [-72.182075, -45.712547], [-72.180991, -45.709431], [-72.177504, -45.705969], [-72.176442, -45.702568], [-72.176656, -45.70116], [-72.178373, -45.699908], [-72.172837, -45.698372], [-72.170559, -45.694788]], [[-72.170559, -45.694788], [-72.168413, -45.69191], [-72.170119, -45.689894], [-72.17184, -45.688944], [-72.172719, -45.686523], [-72.172655, -45.684672], [-72.175868, -45.683207], [-72.175632, -45.681569], [-72.178432, -45.677956], [-72.177429, -45.676712], [-72.177504, -45.675707], [-72.181207, -45.672767], [-72.189998, -45.671141], [-72.188777, -45.668936], [-72.189075, -45.667847], [-72.186377, -45.665361], [-72.186061, -45.663018], [-72.187053, -45.662512], [-72.189123, -45.663102], [-72.190271, -45.662528], [-72.196001, -45.662336], [-72.196838, -45.659692], [-72.196585, -45.657983], [-72.194998, -45.656622], [-72.186443, -45.652987], [-72.182322, -45.652815], [-72.181439, -45.653014], [-72.180685, -45.654277], [-72.179644, -45.654379], [-72.175641, -45.652174], [-72.163767, -45.649005], [-72.157701, -45.646489], [-72.150604, -45.64688], [-72.148568, -45.644127], [-72.143313, -45.642661], [-72.142943, -45.640805], [-72.138233, -45.636957], [-72.135246, -45.633402], [-72.134908, -45.630146], [-72.131225, -45.629996], [-72.122511, -45.625747], [-72.120773, -45.623963], [-72.120315, -45.621479], [-72.119324, -45.620348]], [[-71.767283, -46.104835], [-71.767061, -46.104538]], [[-71.76296, -46.101646], [-71.762639, -46.10122]], [[-71.72073, -46.090862], [-71.720446, -46.090877]], [[-71.733237, -46.094442], [-71.732983, -46.094447]], [[-71.711873, -46.079228], [-71.712048, -46.079032]], [[-71.663816, -46.024969], [-71.662981, -46.024289]], [[-71.647133, -46.00516], [-71.647141, -46.004523]], [[-71.678715, -46.050731], [-71.67838, -46.050282]], [[-71.680237, -46.051121], [-71.679772, -46.050837]], [[-71.646533, -46.010152], [-71.647582, -46.009667]], [[-71.64645, -46.011356], [-71.64645, -46.010459]], [[-72.400391, -45.451487], [-72.399482, -45.449833], [-72.395813, -45.447774]]]}]}}