{"type": "Feature", "properties": {"id": "rio-laja", "name": "Río Laja", "type": "river", "region": "biobio"}, "geometry": {"type": "MultiLineString", "coordinates": [[[-72.422113, -37.214473], [-72.425718, -37.213721], [-72.429226, -37.214129], [-72.442109, -37.213354]], [[-72.383258, -37.215787], [-72.383349, -37.217338]], [[-72.363819, -37.210889], [-72.366191, -37.212959], [-72.370138, -37.21467], [-72.371349, -37.215899], [-72.377681, -37.216609], [-72.383195, -37.218082]], [[-72.382276, -37.21416], [-72.381923, -37.215756], [-72.38298, -37.216651]], [[-72.367252, -37.213515], [-72.367915, -37.215528], [-72.369981, -37.217086], [-72.372962, -37.217357], [-72.376346, -37.216542]], [[-71.898709, -37.351541], [-71.899391, -37.352931], [-71.900676, -37.353521], [-71.908049, -37.35172], [-71.914626, -37.352411], [-71.921697, -37.346824], [-71.929958, -37.344521], [-71.935729, -37.3421], [-71.937875, -37.342236], [-71.93927, -37.341571], [-71.941437, -37.339097], [-71.942623, -37.336636], [-71.945992, -37.336018], [-71.948218, -37.334883], [-71.949007, -37.33394], [-71.949297, -37.33171], [-71.951104, -37.330063], [-71.958732, -37.329389], [-71.960191, -37.327905], [-71.961564, -37.324834], [-71.964397, -37.322462], [-71.964826, -37.319499], [-71.966285, -37.318435], [-71.967337, -37.316553], [-71.968265, -37.313131], [-71.968023, -37.310062], [-71.96969, -37.30539], [-71.967941, -37.302232]], [[-71.410237, -37.388741], [-71.410975, -37.389318], [-71.41249, -37.388994], [-71.413035, -37.389825], [-71.415105, -37.389587]], [[-71.497576, -37.361534], [-71.497799, -37.361461]], [[-71.497799, -37.361461], [-71.499366, -37.360967], [-71.501289, -37.361268], [-71.502795, -37.359673], [-71.505123, -37.359707], [-71.509768, -37.357477], [-71.512524, -37.357712], [-71.513872, -37.355691], [-71.515987, -37.355386], [-71.520444, -37.353388], [-71.521747, -37.352071], [-71.533909, -37.347767], [-71.537914, -37.344096], [-71.540079, -37.343125], [-71.540411, -37.341206], [-71.544535, -37.33926], [-71.546176, -37.336918], [-71.547934, -37.336234], [-71.549246, -37.333611], [-71.548945, -37.331932], [-71.550376, -37.330442], [-71.55704, -37.327423], [-71.56323, -37.329368], [-71.565075, -37.329257], [-71.566363, -37.327184], [-71.566942, -37.324309], [-71.57272, -37.321403]], [[-71.445706, -37.396356], [-71.448798, -37.396768], [-71.455392, -37.395753]], [[-71.41032, -37.38667], [-71.410984, -37.387309]], [[-71.410984, -37.387309], [-71.414451, -37.38699], [-71.414043, -37.388749], [-71.415601, -37.38997], [-71.416403, -37.392321], [-71.417468, -37.393048], [-71.422969, -37.392437], [-71.428705, -37.394618], [-71.431165, -37.394338], [-71.43367, -37.395552], [-71.442781, -37.397201]], [[-71.455392, -37.395753], [-71.457476, -37.39423], [-71.458451, -37.394588], [-71.459833, -37.393587], [-71.46095, -37.393566], [-71.463987, -37.39095], [-71.465726, -37.388495], [-71.468757, -37.38676], [-71.473276, -37.385885], [-71.474152, -37.384479], [-71.474367, -37.382131], [-71.479522, -37.379934], [-71.479868, -37.378438], [-71.482486, -37.375702], [-71.486554, -37.368184], [-71.489536, -37.367066], [-71.492699, -37.363242], [-71.49556, -37.362735], [-71.497516, -37.361555]], [[-71.393833, -37.380245], [-71.403188, -37.383218], [-71.404179, -37.384429], [-71.408819, -37.385782], [-71.410984, -37.387309]], [[-71.634847, -37.309169], [-71.642323, -37.307355]], [[-71.691655, -37.316432], [-71.694529, -37.316527], [-71.701159, -37.313285], [-71.70294, -37.313046], [-71.705408, -37.313934], [-71.708798, -37.318166], [-71.71015, -37.318984], [-71.714056, -37.31989], [-71.720111, -37.319493], [-71.73487, -37.322953], [-71.737047, -37.322764], [-71.740876, -37.320539], [-71.746109, -37.320045], [-71.749757, -37.318902], [-71.756343, -37.319902], [-71.760313, -37.319544], [-71.764239, -37.321216], [-71.776406, -37.324526], [-71.783895, -37.329406], [-71.78559, -37.329901], [-71.797713, -37.327427], [-71.802713, -37.325089], [-71.807155, -37.32468], [-71.811631, -37.325478], [-71.814909, -37.327266], [-71.819536, -37.326813], [-71.826102, -37.330208], [-71.833204, -37.33072], [-71.841229, -37.329577], [-71.845607, -37.330618], [-71.849027, -37.332999], [-71.850413, -37.332733], [-71.856465, -37.334491], [-71.859104, -37.333928], [-71.862945, -37.335531], [-71.867258, -37.334678], [-71.87439, -37.335831], [-71.877601, -37.334738], [-71.882686, -37.336231], [-71.886484, -37.339123], [-71.888866, -37.342671], [-71.89452, -37.344607], [-71.898146, -37.349597], [-71.898709, -37.351541]], [[-71.967941, -37.302232], [-71.966758, -37.295228], [-71.967584, -37.292692], [-71.971257, -37.289825], [-71.977805, -37.28735], [-71.980563, -37.28547], [-71.982505, -37.283617], [-71.986881, -37.275798], [-71.990969, -37.273797], [-71.994036, -37.270268], [-71.994967, -37.26835], [-71.996136, -37.258917], [-71.998424, -37.257606], [-72.00175, -37.258905], [-72.003697, -37.259003], [-72.006567, -37.257527], [-72.007463, -37.256259], [-72.007946, -37.252416], [-72.009518, -37.249945], [-72.013708, -37.247603], [-72.016171, -37.245061], [-72.016705, -37.243355], [-72.015909, -37.241109], [-72.019904, -37.234095], [-72.021776, -37.233465], [-72.025233, -37.233549], [-72.027024, -37.232072], [-72.027719, -37.230264], [-72.031121, -37.228527], [-72.033068, -37.218626], [-72.031712, -37.210526], [-72.032483, -37.20909], [-72.033839, -37.208255], [-72.036741, -37.208302], [-72.039285, -37.207359], [-72.038105, -37.203146], [-72.040996, -37.201753], [-72.047523, -37.200902], [-72.050773, -37.197452], [-72.060868, -37.194331], [-72.065451, -37.191562], [-72.080065, -37.189036], [-72.086144, -37.185239], [-72.096305, -37.186846], [-72.104452, -37.186801], [-72.105783, -37.185891], [-72.105817, -37.184353], [-72.109037, -37.179899], [-72.112711, -37.17846], [-72.121331, -37.178658], [-72.12756, -37.180571], [-72.136424, -37.179185], [-72.13829, -37.18039], [-72.13991, -37.182506], [-72.139884, -37.185617], [-72.141203, -37.187472], [-72.14793, -37.189463], [-72.150595, -37.192778], [-72.153511, -37.194976], [-72.159339, -37.195615], [-72.162416, -37.195164], [-72.166271, -37.19758], [-72.173901, -37.196866], [-72.178808, -37.194134], [-72.179929, -37.192865], [-72.182305, -37.19216], [-72.185476, -37.19304], [-72.188373, -37.196147], [-72.191307, -37.19619], [-72.192761, -37.195429], [-72.196328, -37.190775], [-72.20681, -37.19245], [-72.214117, -37.1876], [-72.217107, -37.186594], [-72.218564, -37.185401], [-72.231688, -37.18689], [-72.243229, -37.185724], [-72.246759, -37.183549], [-72.249618, -37.189194], [-72.25288, -37.192233], [-72.257761, -37.193596], [-72.263099, -37.193032], [-72.268597, -37.193655], [-72.271494, -37.195433], [-72.272776, -37.199903], [-72.2762, -37.204104], [-72.280807, -37.205385], [-72.283886, -37.204338], [-72.290618, -37.204351], [-72.294636, -37.20368], [-72.299309, -37.199728], [-72.302983, -37.199202], [-72.311357, -37.203013], [-72.313626, -37.204923], [-72.316014, -37.208833], [-72.31913, -37.210495], [-72.337037, -37.214117], [-72.34055, -37.213468], [-72.350265, -37.210067], [-72.370658, -37.211609], [-72.374558, -37.212972], [-72.382053, -37.213887], [-72.383293, -37.215577], [-72.38298, -37.216651], [-72.383766, -37.21996], [-72.385297, -37.220338], [-72.389685, -37.21981], [-72.392877, -37.218514], [-72.395587, -37.219838], [-72.400021, -37.218648], [-72.404592, -37.219524], [-72.40944, -37.216786], [-72.41686, -37.213959], [-72.419438, -37.214833], [-72.422113, -37.214473]], [[-71.968002, -37.310369], [-71.965771, -37.308946], [-71.965712, -37.306569], [-71.968111, -37.302537]], [[-72.548113, -37.235598], [-72.550763, -37.23286], [-72.552646, -37.232312], [-72.564555, -37.23197], [-72.568184, -37.230973], [-72.576995, -37.230439], [-72.583328, -37.228859], [-72.586458, -37.229341], [-72.588279, -37.228462], [-72.594223, -37.228722], [-72.597114, -37.230162], [-72.618261, -37.229777], [-72.623599, -37.230375], [-72.627043, -37.231296], [-72.631431, -37.233756], [-72.637621, -37.234636], [-72.646515, -37.240489], [-72.654219, -37.241113], [-72.659605, -37.243743], [-72.666911, -37.244777], [-72.674303, -37.24903], [-72.689527, -37.252446], [-72.697338, -37.252198], [-72.70591, -37.253727], [-72.7093, -37.255418], [-72.711468, -37.257399], [-72.713667, -37.263342], [-72.717401, -37.267509], [-72.723216, -37.270139], [-72.731423, -37.271526]], [[-72.529715, -37.244113], [-72.529774, -37.243935]], [[-72.529774, -37.243935], [-72.531821, -37.237587], [-72.548113, -37.235598]], [[-71.497516, -37.361555], [-71.497576, -37.361534]], [[-71.445563, -37.396358], [-71.445706, -37.396356]], [[-71.442781, -37.397201], [-71.445563, -37.396358]], [[-71.57272, -37.321403], [-71.57971, -37.317569], [-71.588507, -37.316238], [-71.598893, -37.317245], [-71.602412, -37.318687], [-71.611746, -37.318431], [-71.616145, -37.315888], [-71.630328, -37.314514], [-71.634652, -37.312364], [-71.636926, -37.310051], [-71.644329, -37.306945], [-71.648975, -37.308046], [-71.65176, -37.310275], [-71.658577, -37.311903], [-71.66421, -37.311425], [-71.667708, -37.312688], [-71.672664, -37.312389], [-71.688605, -37.316417], [-71.691415, -37.316476]], [[-71.383777, -37.384484], [-71.383975, -37.384547]], [[-71.376618, -37.382739], [-71.383777, -37.384484]], [[-71.44557, -37.397184], [-71.44568, -37.397162]], [[-71.44568, -37.397162], [-71.447205, -37.396715]], [[-71.443975, -37.397123], [-71.44557, -37.397184]], [[-71.383975, -37.384547], [-71.389943, -37.383941], [-71.391054, -37.381286], [-71.393833, -37.380245]], [[-71.374271, -37.377151], [-71.375384, -37.379519], [-71.375415, -37.381524]], [[-71.375415, -37.381524], [-71.375461, -37.381635]], [[-71.376216, -37.382503], [-71.376408, -37.382635]], [[-71.375961, -37.382281], [-71.376216, -37.382503]], [[-71.376408, -37.382635], [-71.376618, -37.382739]], [[-71.375461, -37.381635], [-71.375961, -37.382281]], [[-71.376618, -37.382739], [-71.383777, -37.384484]], [[-71.383777, -37.384484], [-71.383975, -37.384547]], [[-71.383975, -37.384547], [-71.389943, -37.383941], [-71.391054, -37.381286], [-71.393833, -37.380245]], [[-71.393833, -37.380245], [-71.403188, -37.383218], [-71.404179, -37.384429], [-71.408819, -37.385782], [-71.410984, -37.387309]], [[-71.410984, -37.387309], [-71.414451, -37.38699], [-71.414043, -37.388749], [-71.415601, -37.38997], [-71.416403, -37.392321], [-71.417468, -37.393048], [-71.422969, -37.392437], [-71.428705, -37.394618], [-71.431165, -37.394338], [-71.43367, -37.395552], [-71.442781, -37.397201]], [[-71.442781, -37.397201], [-71.445563, -37.396358]], [[-71.445563, -37.396358], [-71.445706, -37.396356]], [[-71.445706, -37.396356], [-71.448798, -37.396768], [-71.455392, -37.395753]], [[-71.455392, -37.395753], [-71.457476, -37.39423], [-71.458451, -37.394588], [-71.459833, -37.393587], [-71.46095, -37.393566], [-71.463987, -37.39095], [-71.465726, -37.388495], [-71.468757, -37.38676], [-71.473276, -37.385885], [-71.474152, -37.384479], [-71.474367, -37.382131], [-71.479522, -37.379934], [-71.479868, -37.378438], [-71.482486, -37.375702], [-71.486554, -37.368184], [-71.489536, -37.367066], [-71.492699, -37.363242], [-71.49556, -37.362735], [-71.497516, -37.361555]], [[-71.497516, -37.361555], [-71.497576, -37.361534]], [[-71.497576, -37.361534], [-71.497799, -37.361461]], [[-71.497799, -37.361461], [-71.499366, -37.360967], [-71.501289, -37.361268], [-71.502795, -37.359673], [-71.505123, -37.359707], [-71.509768, -37.357477], [-71.512524, -37.357712], [-71.513872, -37.355691], [-71.515987, -37.355386], [-71.520444, -37.353388], [-71.521747, -37.352071], [-71.533909, -37.347767], [-71.537914, -37.344096], [-71.540079, -37.343125], [-71.540411, -37.341206], [-71.544535, -37.33926], [-71.546176, -37.336918], [-71.547934, -37.336234], [-71.549246, -37.333611], [-71.548945, -37.331932], [-71.550376, -37.330442], [-71.55704, -37.327423], [-71.56323, -37.329368], [-71.565075, -37.329257], [-71.566363, -37.327184], [-71.566942, -37.324309], [-71.57272, -37.321403]], [[-71.57272, -37.321403], [-71.57971, -37.317569], [-71.588507, -37.316238], [-71.598893, -37.317245], [-71.602412, -37.318687], [-71.611746, -37.318431], [-71.616145, -37.315888], [-71.630328, -37.314514], [-71.634652, -37.312364], [-71.636926, -37.310051], [-71.644329, -37.306945], [-71.648975, -37.308046], [-71.65176, -37.310275], [-71.658577, -37.311903], [-71.66421, -37.311425], [-71.667708, -37.312688], [-71.672664, -37.312389], [-71.688605, -37.316417], [-71.691415, -37.316476]], [[-71.691415, -37.316476], [-71.691655, -37.316432]], [[-71.691655, -37.316432], [-71.694529, -37.316527], [-71.701159, -37.313285], [-71.70294, -37.313046], [-71.705408, -37.313934], [-71.708798, -37.318166], [-71.71015, -37.318984], [-71.714056, -37.31989], [-71.720111, -37.319493], [-71.73487, -37.322953], [-71.737047, -37.322764], [-71.740876, -37.320539], [-71.746109, -37.320045], [-71.749757, -37.318902], [-71.756343, -37.319902], [-71.760313, -37.319544], [-71.764239, -37.321216], [-71.776406, -37.324526], [-71.783895, -37.329406], [-71.78559, -37.329901], [-71.797713, -37.327427], [-71.802713, -37.325089], [-71.807155, -37.32468], [-71.811631, -37.325478], [-71.814909, -37.327266], [-71.819536, -37.326813], [-71.826102, -37.330208], [-71.833204, -37.33072], [-71.841229, -37.329577], [-71.845607, -37.330618], [-71.849027, -37.332999], [-71.850413, -37.332733], [-71.856465, -37.334491], [-71.859104, -37.333928], [-71.862945, -37.335531], [-71.867258, -37.334678], [-71.87439, -37.335831], [-71.877601, -37.334738], [-71.882686, -37.336231], [-71.886484, -37.339123], [-71.888866, -37.342671], [-71.89452, -37.344607], [-71.898146, -37.349597], [-71.898709, -37.351541]], [[-71.898709, -37.351541], [-71.899391, -37.352931], [-71.900676, -37.353521], [-71.908049, -37.35172], [-71.914626, -37.352411], [-71.921697, -37.346824], [-71.929958, -37.344521], [-71.935729, -37.3421], [-71.937875, -37.342236], [-71.93927, -37.341571], [-71.941437, -37.339097], [-71.942623, -37.336636], [-71.945992, -37.336018], [-71.948218, -37.334883], [-71.949007, -37.33394], [-71.949297, -37.33171], [-71.951104, -37.330063], [-71.958732, -37.329389], [-71.960191, -37.327905], [-71.961564, -37.324834], [-71.964397, -37.322462], [-71.964826, -37.319499], [-71.966285, -37.318435], [-71.967337, -37.316553], [-71.968265, -37.313131], [-71.968023, -37.310062], [-71.96969, -37.30539], [-71.967941, -37.302232]], [[-71.967941, -37.302232], [-71.966758, -37.295228], [-71.967584, -37.292692], [-71.971257, -37.289825], [-71.977805, -37.28735], [-71.980563, -37.28547], [-71.982505, -37.283617], [-71.986881, -37.275798], [-71.990969, -37.273797], [-71.994036, -37.270268], [-71.994967, -37.26835], [-71.996136, -37.258917], [-71.998424, -37.257606], [-72.00175, -37.258905], [-72.003697, -37.259003], [-72.006567, -37.257527], [-72.007463, -37.256259], [-72.007946, -37.252416], [-72.009518, -37.249945], [-72.013708, -37.247603], [-72.016171, -37.245061], [-72.016705, -37.243355], [-72.015909, -37.241109], [-72.019904, -37.234095], [-72.021776, -37.233465], [-72.025233, -37.233549], [-72.027024, -37.232072], [-72.027719, -37.230264], [-72.031121, -37.228527], [-72.033068, -37.218626], [-72.031712, -37.210526], [-72.032483, -37.20909], [-72.033839, -37.208255], [-72.036741, -37.208302], [-72.039285, -37.207359], [-72.038105, -37.203146], [-72.040996, -37.201753], [-72.047523, -37.200902], [-72.050773, -37.197452], [-72.060868, -37.194331], [-72.065451, -37.191562], [-72.080065, -37.189036], [-72.086144, -37.185239], [-72.096305, -37.186846], [-72.104452, -37.186801], [-72.105783, -37.185891], [-72.105817, -37.184353], [-72.109037, -37.179899], [-72.112711, -37.17846], [-72.121331, -37.178658], [-72.12756, -37.180571], [-72.136424, -37.179185], [-72.13829, -37.18039], [-72.13991, -37.182506], [-72.139884, -37.185617], [-72.141203, -37.187472], [-72.14793, -37.189463], [-72.150595, -37.192778], [-72.153511, -37.194976], [-72.159339, -37.195615], [-72.162416, -37.195164], [-72.166271, -37.19758], [-72.173901, -37.196866], [-72.178808, -37.194134], [-72.179929, -37.192865], [-72.182305, -37.19216], [-72.185476, -37.19304], [-72.188373, -37.196147], [-72.191307, -37.19619], [-72.192761, -37.195429], [-72.196328, -37.190775], [-72.20681, -37.19245], [-72.214117, -37.1876], [-72.217107, -37.186594], [-72.218564, -37.185401], [-72.231688, -37.18689], [-72.243229, -37.185724], [-72.246759, -37.183549], [-72.249618, -37.189194], [-72.25288, -37.192233], [-72.257761, -37.193596], [-72.263099, -37.193032], [-72.268597, -37.193655], [-72.271494, -37.195433], [-72.272776, -37.199903], [-72.2762, -37.204104], [-72.280807, -37.205385], [-72.283886, -37.204338], [-72.290618, -37.204351], [-72.294636, -37.20368], [-72.299309, -37.199728], [-72.302983, -37.199202], [-72.311357, -37.203013], [-72.313626, -37.204923], [-72.316014, -37.208833], [-72.31913, -37.210495], [-72.337037, -37.214117], [-72.34055, -37.213468], [-72.350265, -37.210067], [-72.370658, -37.211609], [-72.374558, -37.212972], [-72.382053, -37.213887], [-72.383293, -37.215577], [-72.38298, -37.216651], [-72.383766, -37.21996], [-72.385297, -37.220338], [-72.389685, -37.21981], [-72.392877, -37.218514], [-72.395587, -37.219838], [-72.400021, -37.218648], [-72.404592, -37.219524], [-72.40944, -37.216786], [-72.41686, -37.213959], [-72.419438, -37.214833], [-72.422113, -37.214473]], [[-72.422113, -37.214473], [-72.425718, -37.213721], [-72.429226, -37.214129], [-72.442109, -37.213354]], [[-72.442109, -37.213354], [-72.444483, -37.21391], [-72.448082, -37.216009], [-72.460406, -37.215746], [-72.469206, -37.218573], [-72.474132, -37.223874], [-72.485449, -37.229933], [-72.486717, -37.231593], [-72.487907, -37.236282], [-72.493315, -37.241299], [-72.501013, -37.243291], [-72.50705, -37.248641], [-72.509637, -37.248984], [-72.511594, -37.248514], [-72.513579, -37.246669], [-72.515509, -37.242467], [-72.516718, -37.241672], [-72.519046, -37.242022], [-72.521278, -37.245795], [-72.524216, -37.246931], [-72.528152, -37.24606], [-72.529311, -37.245276], [-72.529715, -37.244113]], [[-72.529715, -37.244113], [-72.529774, -37.243935]], [[-72.529774, -37.243935], [-72.531821, -37.237587], [-72.548113, -37.235598]], [[-72.548113, -37.235598], [-72.550763, -37.23286], [-72.552646, -37.232312], [-72.564555, -37.23197], [-72.568184, -37.230973], [-72.576995, -37.230439], [-72.583328, -37.228859], [-72.586458, -37.229341], [-72.588279, -37.228462], [-72.594223, -37.228722], [-72.597114, -37.230162], [-72.618261, -37.229777], [-72.623599, -37.230375], [-72.627043, -37.231296], [-72.631431, -37.233756], [-72.637621, -37.234636], [-72.646515, -37.240489], [-72.654219, -37.241113], [-72.659605, -37.243743], [-72.666911, -37.244777], [-72.674303, -37.24903], [-72.689527, -37.252446], [-72.697338, -37.252198], [-72.70591, -37.253727], [-72.7093, -37.255418], [-72.711468, -37.257399], [-72.713667, -37.263342], [-72.717401, -37.267509], [-72.723216, -37.270139], [-72.731423, -37.271526]]]}}