{"type": "Feature", "properties": {"id": "rio-blanco-ohiggins", "name": "Río Blanco (O'Higgins)", "type": "river", "region": "ohiggins"}, "geometry": {"type": "MultiLineString", "coordinates": [[[-70.204182, -34.095174], [-70.204526, -34.096774], [-70.207444, -34.099332], [-70.207272, -34.1015], [-70.209424, -34.10607], [-70.209504, -34.109957], [-70.210234, -34.110917], [-70.215426, -34.112906], [-70.219847, -34.116708], [-70.221992, -34.116992], [-70.224653, -34.118307], [-70.229123, -34.121455], [-70.232807, -34.121149], [-70.239201, -34.123068], [-70.240875, -34.122855], [-70.241347, -34.123991], [-70.242334, -34.123991], [-70.244995, -34.128041], [-70.246325, -34.129107], [-70.248814, -34.129462], [-70.251518, -34.131238], [-70.253878, -34.133974], [-70.255724, -34.134684], [-70.258305, -34.134457], [-70.262161, -34.137632], [-70.264779, -34.137881], [-70.266453, -34.138911], [-70.266496, -34.139586], [-70.26744, -34.139764], [-70.267697, -34.141362], [-70.273963, -34.147791], [-70.275085, -34.150831], [-70.279334, -34.153104], [-70.2804, -34.154325], [-70.280872, -34.155888], [-70.280529, -34.159297], [-70.282031, -34.162777], [-70.284091, -34.162635], [-70.285507, -34.168814], [-70.287009, -34.170092], [-70.287659, -34.171605], [-70.289627, -34.172719], [-70.2907, -34.175205], [-70.292159, -34.175986], [-70.292202, -34.177477], [-70.293103, -34.178649], [-70.295942, -34.1808], [-70.296028, -34.182114], [-70.297352, -34.183406], [-70.298553, -34.183406], [-70.301042, -34.184897], [-70.302416, -34.186672], [-70.306879, -34.189228], [-70.307737, -34.191358], [-70.308724, -34.191997], [-70.310533, -34.191308], [-70.314009, -34.194326], [-70.317221, -34.19473], [-70.32044, -34.19718], [-70.324217, -34.198599], [-70.325547, -34.200197], [-70.327349, -34.203604], [-70.328379, -34.208005], [-70.32628, -34.213295], [-70.325904, -34.215984], [-70.325819, -34.219603], [-70.327246, -34.221652], [-70.32716, -34.222708], [-70.324821, -34.227951], [-70.324306, -34.23141], [-70.325111, -34.233282], [-70.323555, -34.235748], [-70.320819, -34.237123], [-70.320572, -34.238577], [-70.318542, -34.241125]]]}}