{"type": "Feature", "properties": {"id": "rio-cholchol", "name": "Río Cholchol", "type": "river", "region": "araucania"}, "geometry": {"type": "MultiLineString", "coordinates": [[[-72.824208, -38.710519], [-72.828095, -38.708619], [-72.837826, -38.710017], [-72.849757, -38.702691], [-72.852357, -38.699678], [-72.855551, -38.697257], [-72.860565, -38.695321], [-72.868425, -38.68931], [-72.873629, -38.687032], [-72.875849, -38.688825], [-72.877654, -38.693709], [-72.879017, -38.69494], [-72.885991, -38.698725], [-72.892516, -38.701264], [-72.897826, -38.707041], [-72.901494, -38.708627], [-72.924231, -38.708911], [-72.929536, -38.708017], [-72.934823, -38.708348], [-72.941312, -38.705463], [-72.949679, -38.706395], [-72.959721, -38.701685], [-72.972191, -38.70039], [-72.977126, -38.702118], [-72.980178, -38.703926], [-72.982339, -38.706346], [-72.981043, -38.715664], [-72.979451, -38.719638], [-72.97315, -38.724037], [-72.971774, -38.726628], [-72.973223, -38.730895], [-72.976347, -38.734457], [-72.977442, -38.734742], [-72.977561, -38.73608], [-72.972152, -38.740423], [-72.959844, -38.741206], [-72.958359, -38.74243], [-72.958087, -38.744612], [-72.958762, -38.74608], [-72.960626, -38.747439], [-72.97058, -38.748889], [-72.977208, -38.75204], [-72.982414, -38.750812]], [[-72.952529, -38.389815], [-72.945753, -38.393116], [-72.945936, -38.394176], [-72.947819, -38.394815], [-72.948028, -38.396526], [-72.946971, -38.400457], [-72.943806, -38.404837], [-72.939365, -38.405753], [-72.938225, -38.402837], [-72.93587, -38.402631], [-72.935913, -38.403951], [-72.937707, -38.406599], [-72.938259, -38.410596], [-72.935974, -38.413421], [-72.932407, -38.414522], [-72.928587, -38.417086], [-72.926699, -38.419738], [-72.925916, -38.422264], [-72.922102, -38.426912], [-72.923228, -38.428971], [-72.925889, -38.430564], [-72.925975, -38.433522], [-72.928206, -38.438001], [-72.928078, -38.439342], [-72.923309, -38.439111], [-72.917016, -38.437207], [-72.915718, -38.43835], [-72.915954, -38.439981], [-72.914881, -38.442304], [-72.911496, -38.447468], [-72.909383, -38.449602], [-72.906845, -38.449686], [-72.90353, -38.451308], [-72.901202, -38.451614], [-72.896031, -38.446951], [-72.894077, -38.446674], [-72.88585, -38.449797], [-72.877832, -38.454284], [-72.874414, -38.45521], [-72.872186, -38.457479], [-72.865759, -38.460953], [-72.860856, -38.468561], [-72.858227, -38.479046], [-72.856688, -38.481528], [-72.856511, -38.484048], [-72.858061, -38.485861], [-72.865523, -38.486869], [-72.868779, -38.490951], [-72.869831, -38.495959]], [[-72.898528, -38.355079], [-72.899673, -38.356679], [-72.905509, -38.357394], [-72.909409, -38.356688], [-72.91317, -38.355119], [-72.915772, -38.356036], [-72.921726, -38.362017], [-72.927107, -38.363086], [-72.934016, -38.362901], [-72.936661, -38.361727], [-72.946247, -38.363061], [-72.951214, -38.359174], [-72.952872, -38.358821], [-72.955554, -38.35959], [-72.956874, -38.361437], [-72.955989, -38.37318], [-72.956509, -38.374185], [-72.959154, -38.375005], [-72.959744, -38.378134], [-72.957024, -38.382171], [-72.958757, -38.385539], [-72.957625, -38.388037], [-72.956214, -38.389004], [-72.952529, -38.389815]], [[-72.869831, -38.495959], [-72.869965, -38.497547], [-72.871901, -38.49957], [-72.87078, -38.503802], [-72.872958, -38.50627]], [[-72.872958, -38.50627], [-72.87394, -38.507769], [-72.873361, -38.511517], [-72.874283, -38.51323], [-72.877325, -38.515484], [-72.879363, -38.518082], [-72.884706, -38.520743], [-72.887378, -38.525792], [-72.892367, -38.530459], [-72.893659, -38.534009], [-72.894003, -38.544834], [-72.892984, -38.547981], [-72.891707, -38.549336], [-72.889974, -38.550016], [-72.889792, -38.553158], [-72.888901, -38.554353], [-72.882475, -38.554349], [-72.879229, -38.555222], [-72.880157, -38.563611], [-72.883054, -38.566925], [-72.883548, -38.568544], [-72.883097, -38.569836], [-72.873666, -38.570113], [-72.866483, -38.571463], [-72.86511, -38.572084], [-72.863061, -38.575187], [-72.863308, -38.577599], [-72.861725, -38.589353], [-72.865169, -38.593814], [-72.872593, -38.59599], [-72.873371, -38.598355], [-72.872931, -38.600824], [-72.871419, -38.602908], [-72.868173, -38.604413], [-72.862439, -38.603302], [-72.855538, -38.604445], [-72.851112, -38.60614], [-72.844035, -38.60992], [-72.832764, -38.617425], [-72.829834, -38.617559], [-72.827586, -38.618639], [-72.831062, -38.622072], [-72.836473, -38.625915], [-72.834594, -38.628482], [-72.834972, -38.631364], [-72.844161, -38.641073], [-72.845765, -38.644174], [-72.845665, -38.649113], [-72.842707, -38.650321], [-72.837568, -38.653742], [-72.832226, -38.655446], [-72.831727, -38.657005], [-72.824273, -38.66797], [-72.826208, -38.674041], [-72.824673, -38.67586], [-72.820238, -38.676297], [-72.801694, -38.674211], [-72.799805, -38.674678], [-72.797226, -38.678363], [-72.792559, -38.681556], [-72.78939, -38.682455], [-72.788552, -38.683351]], [[-72.788552, -38.683351], [-72.788329, -38.686314], [-72.791612, -38.690392], [-72.793382, -38.700013], [-72.799616, -38.707725], [-72.803269, -38.709742], [-72.808065, -38.710098], [-72.811117, -38.71312], [-72.814062, -38.713836]], [[-72.814062, -38.713836], [-72.819893, -38.712979], [-72.824208, -38.710519]]]}}