{"type": "Feature", "properties": {"id": "rio-cisnes", "name": "Río Cisnes", "type": "river", "region": "aysen"}, "geometry": {"type": "MultiLineString", "coordinates": [[[-71.658883, -44.629191], [-71.660289, -44.63281], [-71.661855, -44.634498], [-71.669387, -44.635185], [-71.671994, -44.637399], [-71.676033, -44.638765], [-71.679225, -44.641002], [-71.683924, -44.64172], [-71.691177, -44.641437], [-71.692443, -44.64004], [-71.692153, -44.637422], [-71.694589, -44.636475], [-71.699245, -44.64017], [-71.703773, -44.641765], [-71.708729, -44.639117], [-71.713364, -44.639468], [-71.715338, -44.639025], [-71.716454, -44.637941], [-71.716196, -44.634963], [-71.717323, -44.634131], [-71.725324, -44.636014], [-71.728331, -44.634616], [-71.731171, -44.634663], [-71.734845, -44.636763], [-71.739712, -44.636861], [-71.741089, -44.637874], [-71.744732, -44.638816], [-71.748721, -44.638651], [-71.748723, -44.636594], [-71.749896, -44.635782], [-71.751159, -44.635942], [-71.753932, -44.6378], [-71.755888, -44.637071], [-71.756174, -44.636259], [-71.757771, -44.635349], [-71.760808, -44.635683], [-71.761899, -44.635273], [-71.761569, -44.634803], [-71.762262, -44.633354], [-71.775657, -44.635273], [-71.782724, -44.63552], [-71.784536, -44.636483], [-71.78716, -44.643475], [-71.789051, -44.644811], [-71.790537, -44.644823], [-71.790984, -44.643041], [-71.792303, -44.641476], [-71.795373, -44.640777], [-71.796048, -44.641476], [-71.794683, -44.642315], [-71.79721, -44.645918], [-71.795766, -44.64779], [-71.798751, -44.648144], [-71.803826, -44.650489], [-71.809201, -44.649327], [-71.812828, -44.650464], [-71.813322, -44.653784], [-71.806212, -44.656195], [-71.804572, -44.658649], [-71.806476, -44.659372], [-71.810293, -44.664061], [-71.811626, -44.664744], [-71.813686, -44.664378], [-71.817843, -44.665378], [-71.830761, -44.671848], [-71.840125, -44.672655], [-71.841667, -44.674389], [-71.840776, -44.675972], [-71.841298, -44.676854], [-71.860717, -44.685006], [-71.864354, -44.687816], [-71.865863, -44.687451], [-71.866025, -44.684834], [-71.867159, -44.683709], [-71.871462, -44.682092], [-71.879632, -44.683121], [-71.88359, -44.681499], [-71.886127, -44.681533], [-71.889821, -44.682874], [-71.89986, -44.682567], [-71.918537, -44.679044], [-71.921911, -44.678945], [-71.923778, -44.677623], [-71.930416, -44.676952], [-71.933613, -44.677326], [-71.937379, -44.675865], [-71.942153, -44.676231], [-71.943608, -44.675817], [-71.945, -44.67373], [-71.947162, -44.672567], [-71.964608, -44.670478], [-71.966915, -44.671363], [-71.967522, -44.67291], [-71.973544, -44.672525], [-71.974087, -44.673587], [-71.976977, -44.675484], [-71.97813, -44.678505], [-71.97811, -44.679645], [-71.976004, -44.682546], [-71.981887, -44.6852], [-71.983341, -44.686895], [-71.986389, -44.687068], [-71.987311, -44.687956], [-71.988977, -44.688033], [-71.990245, -44.689569], [-71.994962, -44.692058], [-72.003745, -44.690546], [-72.013151, -44.684493], [-72.017274, -44.685177], [-72.020993, -44.684728], [-72.022717, -44.685116], [-72.024493, -44.686649], [-72.024396, -44.688971], [-72.025069, -44.690145], [-72.028094, -44.691908], [-72.034655, -44.685933], [-72.036957, -44.685132], [-72.039338, -44.68636], [-72.039227, -44.687617], [-72.040095, -44.689144], [-72.04214, -44.690595], [-72.043644, -44.694456], [-72.055273, -44.698864], [-72.058264, -44.701888], [-72.061311, -44.703829], [-72.065565, -44.704382], [-72.073256, -44.710625], [-72.083423, -44.714854], [-72.08657, -44.716947], [-72.092517, -44.723241], [-72.094779, -44.723796], [-72.09776, -44.723282], [-72.098893, -44.722266], [-72.100562, -44.718556], [-72.104175, -44.717121], [-72.111313, -44.71684], [-72.112896, -44.717301], [-72.114223, -44.718779], [-72.114183, -44.720881], [-72.112552, -44.722001], [-72.112362, -44.72287], [-72.113571, -44.724601], [-72.11505, -44.725384], [-72.122895, -44.726278], [-72.131212, -44.725325], [-72.134785, -44.723732], [-72.136756, -44.721689], [-72.136937, -44.720704], [-72.135941, -44.718525], [-72.136931, -44.715727], [-72.139544, -44.713781], [-72.142559, -44.712615], [-72.14668, -44.713013], [-72.15161, -44.715476], [-72.153663, -44.715588], [-72.155178, -44.714477], [-72.159901, -44.715475], [-72.161315, -44.715986], [-72.16563, -44.719684], [-72.170883, -44.721085], [-72.177, -44.719539], [-72.177182, -44.716451], [-72.183125, -44.712378], [-72.183999, -44.710975], [-72.183633, -44.709178], [-72.184709, -44.709159], [-72.19165, -44.705231], [-72.195737, -44.705255], [-72.199396, -44.703863], [-72.205125, -44.704107], [-72.208882, -44.703063], [-72.213544, -44.702786], [-72.218648, -44.703457], [-72.220768, -44.704915], [-72.222784, -44.705219], [-72.228965, -44.702815], [-72.23128, -44.701104], [-72.23434, -44.701766], [-72.236576, -44.69773], [-72.238694, -44.696931], [-72.243672, -44.691943], [-72.250151, -44.687435], [-72.247792, -44.682927], [-72.247139, -44.679108], [-72.249841, -44.675324], [-72.249232, -44.670883], [-72.250732, -44.669055], [-72.253516, -44.668467], [-72.258, -44.670402], [-72.259875, -44.670327], [-72.272471, -44.664303], [-72.279583, -44.667541], [-72.283728, -44.667207], [-72.285821, -44.666401], [-72.290283, -44.666375], [-72.292987, -44.672381], [-72.295159, -44.674022], [-72.298289, -44.673991], [-72.30471, -44.672666], [-72.308754, -44.670558], [-72.311548, -44.669942], [-72.318379, -44.670639], [-72.325412, -44.666105], [-72.33075, -44.666115], [-72.33768, -44.6612], [-72.339395, -44.655203], [-72.341382, -44.653045], [-72.344714, -44.651736], [-72.347131, -44.649032], [-72.351667, -44.646553], [-72.350748, -44.643583], [-72.351435, -44.641814], [-72.356368, -44.641551], [-72.360815, -44.642306], [-72.367077, -44.63974], [-72.373766, -44.63892], [-72.383402, -44.644541], [-72.383699, -44.646542], [-72.385147, -44.647315], [-72.388728, -44.651444], [-72.388675, -44.655085], [-72.392795, -44.657286], [-72.392477, -44.658], [-72.393005, -44.658473], [-72.405793, -44.658076], [-72.408829, -44.657264], [-72.41165, -44.657531], [-72.413662, -44.656894], [-72.419236, -44.656722], [-72.419783, -44.658214], [-72.422916, -44.660343], [-72.427679, -44.660614], [-72.429004, -44.664403], [-72.430397, -44.665467], [-72.434056, -44.666344], [-72.437393, -44.668227], [-72.443057, -44.669265], [-72.447617, -44.671334], [-72.453797, -44.671578], [-72.457533, -44.673698], [-72.461017, -44.674373], [-72.463996, -44.676201], [-72.466329, -44.679374], [-72.468747, -44.681016], [-72.484556, -44.680724], [-72.486381, -44.68128], [-72.496436, -44.68112], [-72.509024, -44.682223], [-72.510226, -44.683289], [-72.509823, -44.688571], [-72.51095, -44.690189], [-72.52402, -44.6952], [-72.526407, -44.697617], [-72.537819, -44.697857], [-72.544091, -44.696599], [-72.545261, -44.696919], [-72.55336, -44.706726], [-72.559241, -44.709519], [-72.559563, -44.71283], [-72.561944, -44.716363], [-72.561555, -44.717954], [-72.562916, -44.721144], [-72.562332, -44.723015], [-72.560577, -44.724769], [-72.560819, -44.725664], [-72.564451, -44.729246], [-72.575677, -44.733438], [-72.579281, -44.733682], [-72.580826, -44.734414], [-72.581828, -44.735168], [-72.581837, -44.737366], [-72.582925, -44.739546], [-72.592214, -44.739906], [-72.593684, -44.750654], [-72.596345, -44.75547], [-72.600722, -44.756993], [-72.61085, -44.756323], [-72.612738, -44.757725], [-72.617116, -44.764429], [-72.61909, -44.766196], [-72.623295, -44.766866], [-72.63348, -44.766694], [-72.63658, -44.767547], [-72.638082, -44.768568], [-72.639488, -44.770921], [-72.64059, -44.77558], [-72.643594, -44.777651], [-72.646985, -44.778291], [-72.649989, -44.777194], [-72.648873, -44.774848], [-72.649412, -44.768766], [-72.651064, -44.766922], [-72.654709, -44.765739], [-72.661404, -44.766165], [-72.662177, -44.767018], [-72.661418, -44.77118], [-72.662705, -44.772978], [-72.667962, -44.775986], [-72.671814, -44.775994], [-72.673928, -44.774684], [-72.674453, -44.773374], [-72.674708, -44.770827], [-72.673198, -44.767319], [-72.67396, -44.765475], [-72.676081, -44.764063], [-72.679743, -44.763845], [-72.683111, -44.765582], [-72.684839, -44.768316], [-72.6825, -44.773945], [-72.677798, -44.776676], [-72.674837, -44.780027], [-72.674493, -44.783226], [-72.674922, -44.784688], [-72.675824, -44.785632], [-72.67724, -44.785815], [-72.681266, -44.781698], [-72.682564, -44.778576], [-72.701018, -44.770099], [-72.701576, -44.768027], [-72.700868, -44.763159], [-72.701672, -44.761598], [-72.704183, -44.761049], [-72.709665, -44.761925], [-72.713128, -44.759569]], [[-71.311049, -44.718193], [-71.311065, -44.716189], [-71.309617, -44.715312], [-71.309823, -44.714195], [-71.305883, -44.712647], [-71.306304, -44.711736], [-71.304636, -44.708535], [-71.302125, -44.707826], [-71.300824, -44.705036], [-71.297858, -44.702937], [-71.298646, -44.701009], [-71.295516, -44.700822], [-71.294078, -44.699837], [-71.295379, -44.697086], [-71.301946, -44.695455], [-71.301777, -44.69368], [-71.300258, -44.692763], [-71.30062, -44.691579], [-71.301806, -44.690902], [-71.300438, -44.689096], [-71.300511, -44.688129], [-71.301551, -44.687569], [-71.301076, -44.685736], [-71.301902, -44.683465], [-71.30054, -44.680896], [-71.301784, -44.678478], [-71.299786, -44.676637], [-71.298646, -44.676429], [-71.297885, -44.675218], [-71.296071, -44.674791], [-71.295763, -44.672838], [-71.293424, -44.671108], [-71.29218, -44.671724], [-71.292477, -44.672985], [-71.290213, -44.673881], [-71.288411, -44.67375], [-71.287024, -44.672886], [-71.285396, -44.673307], [-71.283961, -44.672191], [-71.27912, -44.670907], [-71.277229, -44.667449], [-71.274241, -44.66643], [-71.273653, -44.665481], [-71.272095, -44.665395], [-71.267176, -44.666934], [-71.265465, -44.665149], [-71.266369, -44.664323], [-71.266143, -44.662928], [-71.261699, -44.660805], [-71.259977, -44.65905], [-71.259564, -44.65706], [-71.256887, -44.655877], [-71.254535, -44.652576], [-71.252824, -44.652284], [-71.250935, -44.652973], [-71.247848, -44.649977], [-71.247529, -44.649059], [-71.250401, -44.648162], [-71.250525, -44.647359], [-71.245944, -44.647422], [-71.244954, -44.646935], [-71.24424, -44.645435], [-71.245869, -44.643905], [-71.245662, -44.640977], [-71.241303, -44.639193], [-71.240944, -44.638164], [-71.242889, -44.635044], [-71.242612, -44.633584], [-71.24534, -44.633467], [-71.246885, -44.632723], [-71.246182, -44.632194], [-71.246196, -44.630123], [-71.24873, -44.628239], [-71.248958, -44.626343], [-71.247859, -44.623178], [-71.24667, -44.622216], [-71.243688, -44.621659], [-71.243071, -44.620834], [-71.243318, -44.618207], [-71.24438, -44.616714], [-71.242395, -44.615782], [-71.24122, -44.613945], [-71.242368, -44.611333], [-71.242038, -44.60895], [-71.242481, -44.608078], [-71.239654, -44.607014], [-71.241901, -44.604581], [-71.240695, -44.603814], [-71.241183, -44.603195]], [[-71.551957, -44.593238], [-71.556354, -44.591228], [-71.560494, -44.59215], [-71.564041, -44.594367], [-71.568831, -44.592778], [-71.571127, -44.594513], [-71.571411, -44.596157], [-71.572784, -44.59774], [-71.574506, -44.598824], [-71.578257, -44.599184], [-71.580342, -44.600329], [-71.581603, -44.6019], [-71.581743, -44.603588], [-71.584232, -44.605322], [-71.589724, -44.604313], [-71.591319, -44.605503], [-71.594218, -44.605435], [-71.598583, -44.606375], [-71.600921, -44.607785], [-71.605137, -44.606197], [-71.607186, -44.606212], [-71.608602, -44.607278], [-71.610737, -44.606899], [-71.617401, -44.611262], [-71.61914, -44.614999], [-71.622155, -44.617179], [-71.633255, -44.619617], [-71.633728, -44.622936], [-71.632063, -44.625177], [-71.632702, -44.626917], [-71.640193, -44.627618], [-71.643745, -44.628917], [-71.651072, -44.628428], [-71.654463, -44.629413], [-71.658883, -44.629191]], [[-72.713128, -44.759569], [-72.714858, -44.757048], [-72.714837, -44.753802], [-72.713217, -44.75237], [-72.707348, -44.750015], [-72.70561, -44.747295], [-72.709333, -44.742784], [-72.709794, -44.737053]], [[-71.274002, -44.66623], [-71.274303, -44.665751], [-71.273653, -44.665481]], [[-71.292578, -44.672895], [-71.291447, -44.673267]], [[-71.292496, -44.671135], [-71.291772, -44.671442], [-71.292166, -44.671959]], [[-71.293172, -44.6711], [-71.29218, -44.671724]], [[-71.241183, -44.603195], [-71.242669, -44.602889], [-71.247561, -44.598583], [-71.245324, -44.596955], [-71.246268, -44.596608], [-71.246383, -44.595796], [-71.243387, -44.595519], [-71.245952, -44.592732], [-71.245675, -44.589736], [-71.244493, -44.587315], [-71.242626, -44.587642], [-71.241805, -44.586899], [-71.243758, -44.583117], [-71.242068, -44.580834], [-71.242183, -44.578406], [-71.240888, -44.577508], [-71.241979, -44.574286], [-71.244535, -44.572049], [-71.244522, -44.569058], [-71.249691, -44.566015], [-71.252633, -44.565101], [-71.254956, -44.565162], [-71.258199, -44.563823], [-71.259186, -44.562814], [-71.258515, -44.561189], [-71.259674, -44.560067], [-71.261356, -44.560056], [-71.267782, -44.557803], [-71.27268, -44.557407], [-71.279536, -44.555167], [-71.285115, -44.555637], [-71.289269, -44.55462], [-71.291337, -44.555303], [-71.292743, -44.555022], [-71.296275, -44.556885], [-71.303834, -44.553265], [-71.304735, -44.553655], [-71.305652, -44.555364], [-71.307508, -44.555517], [-71.308597, -44.556786], [-71.310411, -44.556943], [-71.312138, -44.556285], [-71.313157, -44.556977], [-71.315721, -44.557218], [-71.316649, -44.558372], [-71.320077, -44.557956], [-71.321611, -44.55682], [-71.323336, -44.557589], [-71.32586, -44.555941], [-71.329733, -44.555643], [-71.330736, -44.554959], [-71.336744, -44.556962], [-71.342812, -44.557031], [-71.345746, -44.557978], [-71.346717, -44.55778], [-71.34823, -44.556182], [-71.349544, -44.556224], [-71.353294, -44.558456], [-71.354538, -44.558483], [-71.355354, -44.557478], [-71.35464, -44.555987], [-71.355155, -44.554687], [-71.357387, -44.553258], [-71.358304, -44.551125], [-71.363829, -44.551828], [-71.36914, -44.551025], [-71.37032, -44.551346], [-71.371023, -44.552325], [-71.373351, -44.552837], [-71.374419, -44.552455], [-71.375132, -44.550467], [-71.378619, -44.550949], [-71.380255, -44.549783], [-71.382809, -44.54968], [-71.384193, -44.548055], [-71.385351, -44.547913], [-71.388935, -44.547887], [-71.391279, -44.549209], [-71.395281, -44.549316], [-71.395769, -44.550192], [-71.394986, -44.551576], [-71.39512, -44.55265], [-71.397625, -44.553854], [-71.397706, -44.554982], [-71.399927, -44.557822], [-71.40226, -44.558705], [-71.402577, -44.5595], [-71.402045, -44.560383], [-71.404814, -44.562007], [-71.410156, -44.562133], [-71.413343, -44.563742], [-71.415446, -44.565806], [-71.415022, -44.56812], [-71.417613, -44.569093], [-71.419185, -44.570824], [-71.427661, -44.572769], [-71.429458, -44.574271], [-71.431491, -44.574149], [-71.432751, -44.574825], [-71.433728, -44.574668], [-71.436903, -44.571504], [-71.438041, -44.571107], [-71.442096, -44.573277], [-71.444714, -44.573449], [-71.446592, -44.576109], [-71.44841, -44.574985], [-71.45025, -44.575509], [-71.450829, -44.577167], [-71.451758, -44.577871], [-71.456076, -44.578245], [-71.458688, -44.57771], [-71.461912, -44.579273], [-71.465498, -44.579086], [-71.466486, -44.580137], [-71.475067, -44.582763], [-71.478142, -44.589937], [-71.481912, -44.593196], [-71.486628, -44.592986], [-71.485737, -44.592154], [-71.486784, -44.588486], [-71.488446, -44.58878], [-71.495205, -44.586797], [-71.497524, -44.586999], [-71.499132, -44.58909], [-71.500918, -44.589838], [-71.503939, -44.58737], [-71.508194, -44.588806], [-71.511991, -44.587573], [-71.521309, -44.589984], [-71.522018, -44.592306], [-71.523465, -44.592073], [-71.524422, -44.590055], [-71.525583, -44.58963], [-71.52759, -44.590152], [-71.528302, -44.592977], [-71.530916, -44.594487], [-71.531489, -44.595582], [-71.538154, -44.596164], [-71.539624, -44.600304], [-71.544806, -44.600698], [-71.547448, -44.599601], [-71.548597, -44.595675], [-71.551957, -44.593238]], [[-71.241837, -44.612502], [-71.243318, -44.610757], [-71.242288, -44.608456]], [[-71.243859, -44.616271], [-71.242953, -44.616561], [-71.242363, -44.615721]], [[-71.247792, -44.648905], [-71.249103, -44.649042], [-71.249916, -44.648363]]]}}