{"type": "Feature", "properties": {"id": "rio-petrohue", "name": "Río Petrohué", "type": "river", "region": "los-lagos"}, "geometry": {"type": "GeometryCollection", "geometries": [{"type": "MultiPolygon", "coordinates": [[[[-72.311652, -41.376945], [-72.31353, -41.373713], [-72.319144, -41.370166], [-72.323133, -41.36489], [-72.329213, -41.362125], [-72.331803, -41.362093], [-72.336999, -41.363282], [-72.339963, -41.36545], [-72.34375, -41.366393], [-72.346371, -41.365805], [-72.348053, -41.364335], [-72.349434, -41.364919], [-72.352792, -41.362211], [-72.354871, -41.362597], [-72.361056, -41.36141], [-72.36722, -41.362669], [-72.374215, -41.361732], [-72.382382, -41.356769], [-72.388854, -41.354748], [-72.390445, -41.353514], [-72.390313, -41.352555], [-72.392534, -41.351157], [-72.391947, -41.349251], [-72.39475, -41.347421], [-72.396182, -41.345503], [-72.395791, -41.340243], [-72.3942, -41.338609], [-72.397188, -41.336245], [-72.397502, -41.335369], [-72.394597, -41.329969], [-72.3967, -41.327919], [-72.405937, -41.324297], [-72.407563, -41.322109], [-72.408593, -41.319043], [-72.410537, -41.31679], [-72.41013, -41.313373], [-72.406941, -41.310163], [-72.405468, -41.303715], [-72.405763, -41.297423], [-72.403604, -41.297763], [-72.403314, -41.299645], [-72.404087, -41.302966], [-72.401217, -41.306246], [-72.401528, -41.307894], [-72.404966, -41.309837], [-72.40653, -41.311476], [-72.406911, -41.312938], [-72.406361, -41.316396], [-72.407718, -41.318447], [-72.405871, -41.320144], [-72.401286, -41.32167], [-72.39777, -41.325992], [-72.393073, -41.328789], [-72.392685, -41.332115], [-72.391504, -41.33485], [-72.393052, -41.337312], [-72.391824, -41.338597], [-72.391587, -41.340973], [-72.391915, -41.342286], [-72.394007, -41.34434], [-72.394205, -41.346209], [-72.393438, -41.347336], [-72.383388, -41.350855], [-72.381167, -41.352616], [-72.378069, -41.353727], [-72.375006, -41.356513], [-72.374818, -41.360041], [-72.373461, -41.361084], [-72.371991, -41.360725], [-72.37087, -41.358869], [-72.365342, -41.355885], [-72.352591, -41.358985], [-72.342031, -41.360279], [-72.338123, -41.363022], [-72.334623, -41.362555], [-72.331208, -41.361151], [-72.329744, -41.361317], [-72.323226, -41.363805], [-72.316819, -41.370656], [-72.312264, -41.373222], [-72.310569, -41.375267], [-72.310107, -41.377022], [-72.311652, -41.376945]], [[-72.394946, -41.34316], [-72.393782, -41.342113], [-72.393551, -41.339962], [-72.395477, -41.341936], [-72.394946, -41.34316]], [[-72.341586, -41.365404], [-72.339166, -41.36395], [-72.345598, -41.364482], [-72.343667, -41.365513], [-72.341586, -41.365404]], [[-72.344394, -41.366068], [-72.342232, -41.366062], [-72.344394, -41.366068]], [[-72.345636, -41.363491], [-72.344445, -41.364035], [-72.343309, -41.363635], [-72.346124, -41.363205], [-72.345636, -41.363491]], [[-72.341299, -41.361941], [-72.340438, -41.362271], [-72.341234, -41.361017], [-72.343807, -41.361058], [-72.341299, -41.361941]], [[-72.342181, -41.362251], [-72.341366, -41.362257], [-72.343045, -41.361859], [-72.342181, -41.362251]], [[-72.35122, -41.360419], [-72.34695, -41.362501], [-72.34509, -41.361944], [-72.34569, -41.360766], [-72.349793, -41.359779], [-72.351725, -41.360138], [-72.35122, -41.360419]], [[-72.344571, -41.361859], [-72.342452, -41.362368], [-72.344233, -41.361182], [-72.344571, -41.361859]], [[-72.356397, -41.360584], [-72.354552, -41.361162], [-72.352191, -41.360574], [-72.35427, -41.359836], [-72.356397, -41.360584]], [[-72.354694, -41.361633], [-72.353422, -41.361891], [-72.351502, -41.360977], [-72.354694, -41.361633]], [[-72.357818, -41.359054], [-72.355056, -41.359453], [-72.357566, -41.358084], [-72.360056, -41.357758], [-72.357818, -41.359054]], [[-72.355823, -41.358567], [-72.354214, -41.359348], [-72.354643, -41.358644], [-72.356563, -41.358197], [-72.355823, -41.358567]], [[-72.356971, -41.361953], [-72.355753, -41.362159], [-72.357443, -41.361052], [-72.360844, -41.361281], [-72.356971, -41.361953]], [[-72.365339, -41.361873], [-72.359975, -41.359034], [-72.362099, -41.35744], [-72.363955, -41.357089], [-72.37035, -41.361506], [-72.367871, -41.362231], [-72.365339, -41.361873]], [[-72.370967, -41.360081], [-72.36756, -41.357971], [-72.370114, -41.358736], [-72.370967, -41.360081]], [[-72.364478, -41.361754], [-72.364763, -41.362302], [-72.360211, -41.360848], [-72.356638, -41.360993], [-72.360029, -41.359598], [-72.364478, -41.361754]], [[-72.393352, -41.337759], [-72.393696, -41.336627], [-72.392322, -41.335689], [-72.392049, -41.334621], [-72.393122, -41.331137], [-72.395466, -41.333792], [-72.396147, -41.335822], [-72.393352, -41.337759]], [[-72.39104, -41.349847], [-72.392025, -41.349811], [-72.392143, -41.351412], [-72.390263, -41.352388], [-72.389865, -41.353546], [-72.38843, -41.354665], [-72.382109, -41.356622], [-72.382321, -41.352902], [-72.39104, -41.349847]], [[-72.38183, -41.353844], [-72.38205, -41.356304], [-72.376696, -41.359441], [-72.375618, -41.35781], [-72.376127, -41.356687], [-72.381765, -41.35326], [-72.38183, -41.353844]], [[-72.403234, -41.324619], [-72.406463, -41.321344], [-72.405331, -41.323741], [-72.403234, -41.324619]], [[-72.400519, -41.324003], [-72.401206, -41.3219], [-72.406383, -41.320155], [-72.402241, -41.325227], [-72.399205, -41.325517], [-72.400519, -41.324003]], [[-72.404864, -41.308031], [-72.404934, -41.309349], [-72.402847, -41.308692], [-72.401866, -41.307902], [-72.401469, -41.305811], [-72.403904, -41.304179], [-72.404864, -41.308031]], [[-72.406737, -41.316167], [-72.406779, -41.314349], [-72.407498, -41.313125], [-72.409596, -41.315002], [-72.409762, -41.31628], [-72.408485, -41.317722], [-72.406737, -41.316167]], [[-72.40753, -41.317146], [-72.408204, -41.317964], [-72.406908, -41.316819], [-72.40753, -41.317146]]]]}, {"type": "MultiLineString", "coordinates": [[[-72.401147, -41.139631], [-72.403904, -41.14031], [-72.416736, -41.146506], [-72.422028, -41.148159], [-72.424689, -41.147616], [-72.429554, -41.149915], [-72.433429, -41.157597], [-72.436225, -41.158635], [-72.439688, -41.162066], [-72.447011, -41.171172], [-72.447786, -41.175496], [-72.450284, -41.176832], [-72.453049, -41.180609], [-72.46, -41.183568], [-72.461604, -41.187576], [-72.46773, -41.191646], [-72.46924, -41.193935], [-72.474023, -41.195432], [-72.486618, -41.205402], [-72.48878, -41.208073], [-72.489343, -41.209857], [-72.486509, -41.21434], [-72.486404, -41.218235], [-72.485787, -41.219485], [-72.484079, -41.2204], [-72.479025, -41.221026], [-72.477185, -41.222398], [-72.476769, -41.224896], [-72.47049, -41.227175], [-72.466671, -41.230306], [-72.46607, -41.2315], [-72.466113, -41.235889], [-72.464353, -41.243313], [-72.460043, -41.248588], [-72.455288, -41.248095], [-72.45375, -41.249772], [-72.452034, -41.249898], [-72.446986, -41.247763], [-72.445285, -41.245055], [-72.443359, -41.244502], [-72.43972, -41.250604], [-72.438706, -41.251309], [-72.437178, -41.252031], [-72.431499, -41.252649], [-72.425622, -41.255761], [-72.422625, -41.259261], [-72.422655, -41.262662], [-72.421436, -41.264666], [-72.42003, -41.265462], [-72.417819, -41.265324], [-72.413705, -41.266759], [-72.410882, -41.268646], [-72.408495, -41.271234], [-72.40749, -41.273532], [-72.407143, -41.278364], [-72.403604, -41.283792], [-72.403475, -41.28944], [-72.405076, -41.298316], [-72.405268, -41.307673], [-72.406791, -41.31103], [-72.409954, -41.314453], [-72.410156, -41.316356], [-72.407805, -41.319423], [-72.407015, -41.32227], [-72.405358, -41.324112], [-72.402495, -41.325609], [-72.396522, -41.327034], [-72.393975, -41.329171], [-72.393936, -41.331016], [-72.396647, -41.334918], [-72.3961, -41.336393], [-72.393422, -41.338331], [-72.392232, -41.340268], [-72.392644, -41.342059], [-72.394973, -41.344677], [-72.394605, -41.346887], [-72.393028, -41.348049], [-72.382549, -41.352199], [-72.376183, -41.356128], [-72.375229, -41.357577], [-72.375415, -41.360569], [-72.374489, -41.361308]], [[-72.444507, -41.168257], [-72.447818, -41.170418], [-72.449825, -41.173242], [-72.453642, -41.174455]], [[-72.453642, -41.174455], [-72.455823, -41.176774], [-72.45882, -41.178401], [-72.459361, -41.180859], [-72.45807, -41.182441]], [[-72.310714, -41.378596], [-72.313471, -41.383836], [-72.319726, -41.386074], [-72.321614, -41.388401], [-72.321303, -41.392691], [-72.322612, -41.397069], [-72.318503, -41.401117], [-72.317837, -41.404079]], [[-72.310844, -41.377004], [-72.310386, -41.380113], [-72.307645, -41.384859], [-72.308396, -41.391073], [-72.30698, -41.395854], [-72.30286, -41.399524], [-72.298268, -41.401568], [-72.29594, -41.404908]], [[-72.337464, -41.363185], [-72.330679, -41.361567], [-72.323944, -41.36392], [-72.318139, -41.370241], [-72.312795, -41.373629], [-72.310844, -41.377004]], [[-72.374489, -41.361308], [-72.370445, -41.360613], [-72.365173, -41.357178], [-72.363043, -41.356663], [-72.354525, -41.362075], [-72.349909, -41.361841], [-72.346149, -41.363081], [-72.337464, -41.363185]], [[-72.422663, -41.260114], [-72.424643, -41.261025], [-72.425058, -41.261958], [-72.421716, -41.264435]], [[-72.401147, -41.139631], [-72.403904, -41.14031], [-72.416736, -41.146506], [-72.422028, -41.148159], [-72.424689, -41.147616], [-72.429554, -41.149915], [-72.433429, -41.157597], [-72.436225, -41.158635], [-72.439688, -41.162066], [-72.447011, -41.171172], [-72.447786, -41.175496], [-72.450284, -41.176832], [-72.453049, -41.180609], [-72.46, -41.183568], [-72.461604, -41.187576], [-72.46773, -41.191646], [-72.46924, -41.193935], [-72.474023, -41.195432], [-72.486618, -41.205402], [-72.48878, -41.208073], [-72.489343, -41.209857], [-72.486509, -41.21434], [-72.486404, -41.218235], [-72.485787, -41.219485], [-72.484079, -41.2204], [-72.479025, -41.221026], [-72.477185, -41.222398], [-72.476769, -41.224896], [-72.47049, -41.227175], [-72.466671, -41.230306], [-72.46607, -41.2315], [-72.466113, -41.235889], [-72.464353, -41.243313], [-72.460043, -41.248588], [-72.455288, -41.248095], [-72.45375, -41.249772], [-72.452034, -41.249898], [-72.446986, -41.247763], [-72.445285, -41.245055], [-72.443359, -41.244502], [-72.43972, -41.250604], [-72.438706, -41.251309], [-72.437178, -41.252031], [-72.431499, -41.252649], [-72.425622, -41.255761], [-72.422625, -41.259261], [-72.422655, -41.262662], [-72.421436, -41.264666], [-72.42003, -41.265462], [-72.417819, -41.265324], [-72.413705, -41.266759], [-72.410882, -41.268646], [-72.408495, -41.271234], [-72.40749, -41.273532], [-72.407143, -41.278364], [-72.403604, -41.283792], [-72.403475, -41.28944], [-72.405076, -41.298316], [-72.405268, -41.307673], [-72.406791, -41.31103], [-72.409954, -41.314453], [-72.410156, -41.316356], [-72.407805, -41.319423], [-72.407015, -41.32227], [-72.405358, -41.324112], [-72.402495, -41.325609], [-72.396522, -41.327034], [-72.393975, -41.329171], [-72.393936, -41.331016], [-72.396647, -41.334918], [-72.3961, -41.336393], [-72.393422, -41.338331], [-72.392232, -41.340268], [-72.392644, -41.342059], [-72.394973, -41.344677], [-72.394605, -41.346887], [-72.393028, -41.348049], [-72.382549, -41.352199], [-72.376183, -41.356128], [-72.375229, -41.357577], [-72.375415, -41.360569], [-72.374489, -41.361308]], [[-72.374489, -41.361308], [-72.370445, -41.360613], [-72.365173, -41.357178], [-72.363043, -41.356663], [-72.354525, -41.362075], [-72.349909, -41.361841], [-72.346149, -41.363081], [-72.337464, -41.363185]], [[-72.337464, -41.363185], [-72.330679, -41.361567], [-72.323944, -41.36392], [-72.318139, -41.370241], [-72.312795, -41.373629], [-72.310844, -41.377004]]]}]}}