{"type": "Feature", "properties": {"id": "rio-longavi", "name": "Río Longaví", "type": "river", "region": "maule"}, "geometry": {"type": "MultiLineString", "coordinates": [[[-71.523303, -36.237701], [-71.524998, -36.23655], [-71.525502, -36.232474], [-71.527798, -36.229649], [-71.532336, -36.229354], [-71.534804, -36.231224], [-71.542277, -36.229185], [-71.545281, -36.227061], [-71.549127, -36.225615], [-71.555961, -36.220171], [-71.560221, -36.218163], [-71.561508, -36.216103], [-71.561819, -36.212796], [-71.564083, -36.210295], [-71.563632, -36.207092], [-71.566422, -36.203642], [-71.566046, -36.202252], [-71.561787, -36.199227], [-71.564609, -36.197066], [-71.56558, -36.193858], [-71.56904, -36.190079], [-71.570869, -36.188624], [-71.574367, -36.18804], [-71.574748, -36.187226], [-71.573562, -36.184775], [-71.581035, -36.179588], [-71.583749, -36.175851], [-71.584838, -36.171928], [-71.589398, -36.168273], [-71.594419, -36.167125], [-71.598008, -36.164419], [-71.60025, -36.16085], [-71.60275, -36.159377], [-71.604767, -36.156952], [-71.605843, -36.154631], [-71.607524, -36.153015], [-71.607674, -36.150723], [-71.608645, -36.149359], [-71.610877, -36.148306], [-71.617502, -36.149186], [-71.618377, -36.14647], [-71.620249, -36.144291], [-71.628365, -36.140517], [-71.631959, -36.138091], [-71.635296, -36.137416], [-71.636261, -36.135561], [-71.638413, -36.134244], [-71.645021, -36.132308], [-71.645907, -36.131255], [-71.644989, -36.129244], [-71.645719, -36.127745], [-71.650767, -36.12609], [-71.655182, -36.12372], [-71.658207, -36.12096], [-71.662804, -36.119192], [-71.66391, -36.117177], [-71.664076, -36.114069], [-71.666608, -36.111209], [-71.669505, -36.106113], [-71.675438, -36.103209], [-71.678265, -36.100907], [-71.678753, -36.098744], [-71.681783, -36.095862]], [[-71.295447, -36.319859], [-71.295117, -36.318146], [-71.295707, -36.317105], [-71.299338, -36.315769], [-71.297568, -36.313059], [-71.297697, -36.312307], [-71.299124, -36.31139], [-71.301425, -36.307526], [-71.302611, -36.306674], [-71.301307, -36.303112], [-71.30165, -36.302018], [-71.304279, -36.300315], [-71.30555, -36.298127], [-71.310732, -36.293592], [-71.312454, -36.289424], [-71.31416, -36.287707], [-71.317416, -36.288114], [-71.319401, -36.289614], [-71.322588, -36.288983], [-71.325694, -36.286505], [-71.326048, -36.285065], [-71.324911, -36.282613], [-71.325356, -36.281437], [-71.327947, -36.279746], [-71.330752, -36.279184], [-71.333976, -36.275417], [-71.338343, -36.274193], [-71.338348, -36.272399], [-71.334894, -36.269626], [-71.335527, -36.267913], [-71.336889, -36.267148]], [[-71.725273, -35.94908], [-71.724401, -35.948317], [-71.723937, -35.945742], [-71.724506, -35.944129], [-71.727007, -35.942697], [-71.72719, -35.939109], [-71.728165, -35.937184], [-71.733402, -35.933259]], [[-71.336889, -36.267148], [-71.339652, -36.263614], [-71.34066, -36.256962], [-71.341369, -36.256079], [-71.342822, -36.255703], [-71.346669, -36.256858], [-71.347886, -36.255603], [-71.350601, -36.254604], [-71.354018, -36.250936], [-71.356368, -36.246817], [-71.360359, -36.242279], [-71.362622, -36.241184], [-71.368126, -36.240743], [-71.369907, -36.239319], [-71.370036, -36.238562], [-71.367992, -36.237346], [-71.369017, -36.235559], [-71.371506, -36.235776], [-71.372858, -36.2371], [-71.37768, -36.235862], [-71.379563, -36.233448], [-71.382406, -36.233205], [-71.388178, -36.228857], [-71.391826, -36.230479], [-71.395748, -36.22916], [-71.407909, -36.230778], [-71.415317, -36.235481], [-71.420118, -36.235014], [-71.423809, -36.232388], [-71.427221, -36.234244], [-71.434082, -36.234698], [-71.436823, -36.236096], [-71.44201, -36.23401], [-71.445492, -36.23366], [-71.447171, -36.234075], [-71.446474, -36.236494], [-71.448753, -36.237502], [-71.451479, -36.233867], [-71.463382, -36.224711], [-71.467931, -36.220054], [-71.469884, -36.219587], [-71.470179, -36.221509], [-71.476246, -36.218834], [-71.481965, -36.21876], [-71.489319, -36.220846], [-71.495569, -36.224828], [-71.496261, -36.226135], [-71.496191, -36.229112], [-71.497033, -36.232414], [-71.498364, -36.234434], [-71.504334, -36.235118], [-71.508567, -36.238104], [-71.510514, -36.238575], [-71.523303, -36.237701]], [[-71.733402, -35.933259], [-71.732566, -35.930159], [-71.729463, -35.925852], [-71.728529, -35.922585], [-71.725928, -35.921082], [-71.725627, -35.919154], [-71.729447, -35.916812], [-71.72957, -35.914344], [-71.730251, -35.913171], [-71.73578, -35.907973], [-71.735489, -35.905732], [-71.736059, -35.904975], [-71.741636, -35.900733], [-71.745707, -35.899479], [-71.756953, -35.899462], [-71.760359, -35.897291], [-71.76034, -35.893214], [-71.763522, -35.889824], [-71.764939, -35.889214], [-71.767257, -35.882055], [-71.767685, -35.876342], [-71.766515, -35.874407], [-71.764289, -35.87312], [-71.764474, -35.870849], [-71.765978, -35.86963], [-71.768306, -35.869938], [-71.771584, -35.868569], [-71.77277, -35.864404], [-71.773566, -35.856285], [-71.775205, -35.850666], [-71.776593, -35.849953], [-71.779032, -35.849973], [-71.784409, -35.851223], [-71.788443, -35.850464], [-71.791765, -35.843869], [-71.791862, -35.840516], [-71.793144, -35.835428], [-71.794748, -35.83268], [-71.795939, -35.831858], [-71.798664, -35.831179], [-71.800557, -35.83241], [-71.8059, -35.832358], [-71.812493, -35.833584], [-71.81796, -35.831227], [-71.820982, -35.828805], [-71.82327, -35.829942]], [[-71.725273, -35.94908], [-71.726661, -35.947513], [-71.730721, -35.946224], [-71.733732, -35.943979], [-71.733508, -35.942405], [-71.731866, -35.940784], [-71.731961, -35.939982], [-71.735091, -35.93739], [-71.735104, -35.936261], [-71.733402, -35.933259]], [[-71.681783, -36.095862], [-71.682838, -36.090323]], [[-71.682838, -36.090323], [-71.681771, -36.083677], [-71.682926, -36.082158], [-71.687422, -36.080785], [-71.689497, -36.079091], [-71.690608, -36.074511], [-71.688559, -36.071979], [-71.690222, -36.068328], [-71.697276, -36.063809], [-71.702045, -36.064382], [-71.702887, -36.063354], [-71.70337, -36.059811], [-71.708879, -36.055639], [-71.709974, -36.05302], [-71.705983, -36.04746], [-71.705886, -36.043616], [-71.706583, -36.043009], [-71.71404, -36.042333], [-71.718256, -36.040207], [-71.719244, -36.038221], [-71.718776, -36.03525], [-71.714957, -36.031051], [-71.714764, -36.028916], [-71.717725, -36.024404], [-71.720166, -36.022483], [-71.719324, -36.01603], [-71.721572, -36.012372], [-71.721641, -36.009686], [-71.724082, -36.003671], [-71.725906, -36.001857], [-71.72942, -36.000368], [-71.730665, -35.998085], [-71.729218, -35.990551], [-71.729615, -35.98697], [-71.729073, -35.983759], [-71.725867, -35.978476], [-71.725797, -35.971222], [-71.72369, -35.968478], [-71.72094, -35.968119], [-71.723178, -35.964562], [-71.723564, -35.957829], [-71.725142, -35.955267], [-71.725273, -35.94908]], [[-71.295447, -36.319859], [-71.295117, -36.318146], [-71.295707, -36.317105], [-71.299338, -36.315769], [-71.297568, -36.313059], [-71.297697, -36.312307], [-71.299124, -36.31139], [-71.301425, -36.307526], [-71.302611, -36.306674], [-71.301307, -36.303112], [-71.30165, -36.302018], [-71.304279, -36.300315], [-71.30555, -36.298127], [-71.310732, -36.293592], [-71.312454, -36.289424], [-71.31416, -36.287707], [-71.317416, -36.288114], [-71.319401, -36.289614], [-71.322588, -36.288983], [-71.325694, -36.286505], [-71.326048, -36.285065], [-71.324911, -36.282613], [-71.325356, -36.281437], [-71.327947, -36.279746], [-71.330752, -36.279184], [-71.333976, -36.275417], [-71.338343, -36.274193], [-71.338348, -36.272399], [-71.334894, -36.269626], [-71.335527, -36.267913], [-71.336889, -36.267148]], [[-71.336889, -36.267148], [-71.339652, -36.263614], [-71.34066, -36.256962], [-71.341369, -36.256079], [-71.342822, -36.255703], [-71.346669, -36.256858], [-71.347886, -36.255603], [-71.350601, -36.254604], [-71.354018, -36.250936], [-71.356368, -36.246817], [-71.360359, -36.242279], [-71.362622, -36.241184], [-71.368126, -36.240743], [-71.369907, -36.239319], [-71.370036, -36.238562], [-71.367992, -36.237346], [-71.369017, -36.235559], [-71.371506, -36.235776], [-71.372858, -36.2371], [-71.37768, -36.235862], [-71.379563, -36.233448], [-71.382406, -36.233205], [-71.388178, -36.228857], [-71.391826, -36.230479], [-71.395748, -36.22916], [-71.407909, -36.230778], [-71.415317, -36.235481], [-71.420118, -36.235014], [-71.423809, -36.232388], [-71.427221, -36.234244], [-71.434082, -36.234698], [-71.436823, -36.236096], [-71.44201, -36.23401], [-71.445492, -36.23366], [-71.447171, -36.234075], [-71.446474, -36.236494], [-71.448753, -36.237502], [-71.451479, -36.233867], [-71.463382, -36.224711], [-71.467931, -36.220054], [-71.469884, -36.219587], [-71.470179, -36.221509], [-71.476246, -36.218834], [-71.481965, -36.21876], [-71.489319, -36.220846], [-71.495569, -36.224828], [-71.496261, -36.226135], [-71.496191, -36.229112], [-71.497033, -36.232414], [-71.498364, -36.234434], [-71.504334, -36.235118], [-71.508567, -36.238104], [-71.510514, -36.238575], [-71.523303, -36.237701]], [[-71.523303, -36.237701], [-71.524998, -36.23655], [-71.525502, -36.232474], [-71.527798, -36.229649], [-71.532336, -36.229354], [-71.534804, -36.231224], [-71.542277, -36.229185], [-71.545281, -36.227061], [-71.549127, -36.225615], [-71.555961, -36.220171], [-71.560221, -36.218163], [-71.561508, -36.216103], [-71.561819, -36.212796], [-71.564083, -36.210295], [-71.563632, -36.207092], [-71.566422, -36.203642], [-71.566046, -36.202252], [-71.561787, -36.199227], [-71.564609, -36.197066], [-71.56558, -36.193858], [-71.56904, -36.190079], [-71.570869, -36.188624], [-71.574367, -36.18804], [-71.574748, -36.187226], [-71.573562, -36.184775], [-71.581035, -36.179588], [-71.583749, -36.175851], [-71.584838, -36.171928], [-71.589398, -36.168273], [-71.594419, -36.167125], [-71.598008, -36.164419], [-71.60025, -36.16085], [-71.60275, -36.159377], [-71.604767, -36.156952], [-71.605843, -36.154631], [-71.607524, -36.153015], [-71.607674, -36.150723], [-71.608645, -36.149359], [-71.610877, -36.148306], [-71.617502, -36.149186], [-71.618377, -36.14647], [-71.620249, -36.144291], [-71.628365, -36.140517], [-71.631959, -36.138091], [-71.635296, -36.137416], [-71.636261, -36.135561], [-71.638413, -36.134244], [-71.645021, -36.132308], [-71.645907, -36.131255], [-71.644989, -36.129244], [-71.645719, -36.127745], [-71.650767, -36.12609], [-71.655182, -36.12372], [-71.658207, -36.12096], [-71.662804, -36.119192], [-71.66391, -36.117177], [-71.664076, -36.114069], [-71.666608, -36.111209], [-71.669505, -36.106113], [-71.675438, -36.103209], [-71.678265, -36.100907], [-71.678753, -36.098744], [-71.681783, -36.095862]], [[-71.681783, -36.095862], [-71.682838, -36.090323]], [[-71.682838, -36.090323], [-71.681771, -36.083677], [-71.682926, -36.082158], [-71.687422, -36.080785], [-71.689497, -36.079091], [-71.690608, -36.074511], [-71.688559, -36.071979], [-71.690222, -36.068328], [-71.697276, -36.063809], [-71.702045, -36.064382], [-71.702887, -36.063354], [-71.70337, -36.059811], [-71.708879, -36.055639], [-71.709974, -36.05302], [-71.705983, -36.04746], [-71.705886, -36.043616], [-71.706583, -36.043009], [-71.71404, -36.042333], [-71.718256, -36.040207], [-71.719244, -36.038221], [-71.718776, -36.03525], [-71.714957, -36.031051], [-71.714764, -36.028916], [-71.717725, -36.024404], [-71.720166, -36.022483], [-71.719324, -36.01603], [-71.721572, -36.012372], [-71.721641, -36.009686], [-71.724082, -36.003671], [-71.725906, -36.001857], [-71.72942, -36.000368], [-71.730665, -35.998085], [-71.729218, -35.990551], [-71.729615, -35.98697], [-71.729073, -35.983759], [-71.725867, -35.978476], [-71.725797, -35.971222], [-71.72369, -35.968478], [-71.72094, -35.968119], [-71.723178, -35.964562], [-71.723564, -35.957829], [-71.725142, -35.955267], [-71.725273, -35.94908]], [[-71.725273, -35.94908], [-71.724401, -35.948317], [-71.723937, -35.945742], [-71.724506, -35.944129], [-71.727007, -35.942697], [-71.72719, -35.939109], [-71.728165, -35.937184], [-71.733402, -35.933259]], [[-71.733402, -35.933259], [-71.732566, -35.930159], [-71.729463, -35.925852], [-71.728529, -35.922585], [-71.725928, -35.921082], [-71.725627, -35.919154], [-71.729447, -35.916812], [-71.72957, -35.914344], [-71.730251, -35.913171], [-71.73578, -35.907973], [-71.735489, -35.905732], [-71.736059, -35.904975], [-71.741636, -35.900733], [-71.745707, -35.899479], [-71.756953, -35.899462], [-71.760359, -35.897291], [-71.76034, -35.893214], [-71.763522, -35.889824], [-71.764939, -35.889214], [-71.767257, -35.882055], [-71.767685, -35.876342], [-71.766515, -35.874407], [-71.764289, -35.87312], [-71.764474, -35.870849], [-71.765978, -35.86963], [-71.768306, -35.869938], [-71.771584, -35.868569], [-71.77277, -35.864404], [-71.773566, -35.856285], [-71.775205, -35.850666], [-71.776593, -35.849953], [-71.779032, -35.849973], [-71.784409, -35.851223], [-71.788443, -35.850464], [-71.791765, -35.843869], [-71.791862, -35.840516], [-71.793144, -35.835428], [-71.794748, -35.83268], [-71.795939, -35.831858], [-71.798664, -35.831179], [-71.800557, -35.83241], [-71.8059, -35.832358], [-71.812493, -35.833584], [-71.81796, -35.831227], [-71.820982, -35.828805], [-71.82327, -35.829942]], [[-71.725273, -35.94908], [-71.726661, -35.947513], [-71.730721, -35.946224], [-71.733732, -35.943979], [-71.733508, -35.942405], [-71.731866, -35.940784], [-71.731961, -35.939982], [-71.735091, -35.93739], [-71.735104, -35.936261], [-71.733402, -35.933259]]]}}