{"type": "Feature", "properties": {"id": "rio-itata", "name": "Río Itata", "type": "river", "region": "nuble"}, "geometry": {"type": "GeometryCollection", "geometries": [{"type": "MultiPolygon", "coordinates": [[[[-72.384724, -36.90859], [-72.384209, -36.908772], [-72.38298, -36.906126], [-72.383691, -36.905354], [-72.384724, -36.90859]]]]}, {"type": "MultiLineString", "coordinates": [[[-72.720319, -36.420013], [-72.721682, -36.419469], [-72.722722, -36.418123], [-72.726091, -36.417583], [-72.72695, -36.415619], [-72.728559, -36.414626], [-72.728698, -36.411613], [-72.732056, -36.410223], [-72.733473, -36.40828], [-72.734277, -36.404498], [-72.735382, -36.403591], [-72.738537, -36.403202], [-72.744856, -36.404178], [-72.748386, -36.406596], [-72.752559, -36.405391], [-72.75522, -36.406298], [-72.756717, -36.404683], [-72.760558, -36.405668], [-72.766378, -36.402589], [-72.771206, -36.40379], [-72.772418, -36.402451], [-72.772204, -36.400491], [-72.773368, -36.399096], [-72.775379, -36.398181], [-72.779204, -36.398444], [-72.782155, -36.395392], [-72.786934, -36.395888], [-72.789939, -36.393358], [-72.794176, -36.393755], [-72.797524, -36.391855], [-72.801912, -36.394005], [-72.806085, -36.393358], [-72.809358, -36.388987], [-72.812126, -36.387062], [-72.813542, -36.383563], [-72.816846, -36.382242], [-72.82647, -36.382466], [-72.834098, -36.38561], [-72.840793, -36.386794], [-72.868774, -36.386837]], [[-72.451028, -36.67753], [-72.451326, -36.672085], [-72.453471, -36.668953], [-72.453665, -36.667171], [-72.453139, -36.665243], [-72.449148, -36.660415], [-72.449137, -36.658522], [-72.452538, -36.654623], [-72.458412, -36.650465], [-72.47038, -36.644108], [-72.471871, -36.642146], [-72.472978, -36.637262]], [[-72.380282, -36.866579], [-72.382265, -36.862094], [-72.381583, -36.858746], [-72.382055, -36.857351], [-72.392843, -36.849084], [-72.393771, -36.840322], [-72.400358, -36.83435], [-72.406307, -36.829971], [-72.40693, -36.826763], [-72.404897, -36.823963], [-72.405691, -36.819558], [-72.409955, -36.816938], [-72.412782, -36.816878], [-72.414998, -36.815796], [-72.418142, -36.806545], [-72.419584, -36.804633], [-72.421339, -36.803735], [-72.428012, -36.802438], [-72.429472, -36.801244], [-72.429611, -36.799724], [-72.42783, -36.795892], [-72.426628, -36.779764], [-72.426848, -36.775304], [-72.430008, -36.772043], [-72.4306, -36.771192], [-72.430391, -36.77026], [-72.426977, -36.767849], [-72.424394, -36.764909], [-72.416945, -36.760996], [-72.414239, -36.758108], [-72.4162, -36.752983], [-72.422605, -36.745341], [-72.42636, -36.742787], [-72.434299, -36.739443], [-72.436327, -36.737659], [-72.438413, -36.732526], [-72.437534, -36.728906], [-72.437974, -36.726773], [-72.435415, -36.721493], [-72.435699, -36.720272], [-72.438762, -36.717606], [-72.440431, -36.715116], [-72.442914, -36.713336], [-72.445157, -36.712304], [-72.447404, -36.712811], [-72.44911, -36.71208], [-72.448788, -36.705079], [-72.449861, -36.703272], [-72.449341, -36.701961], [-72.451851, -36.700494], [-72.452018, -36.699311], [-72.449239, -36.69686], [-72.448488, -36.694898], [-72.444339, -36.691905], [-72.444014, -36.689921]], [[-72.444014, -36.689921], [-72.44462, -36.685998], [-72.449952, -36.681223], [-72.450907, -36.679545], [-72.451028, -36.67753]], [[-72.195335, -37.02723], [-72.198713, -37.024616], [-72.200382, -37.024775], [-72.203082, -37.023701], [-72.209276, -37.020346], [-72.211782, -37.019913], [-72.215272, -37.018168], [-72.219887, -37.017839], [-72.22305, -37.012528], [-72.229857, -37.009084], [-72.24353, -37.006956], [-72.245719, -37.005097], [-72.249715, -37.003084]], [[-72.035099, -37.165407], [-72.035629, -37.165312]], [[-72.182661, -37.047843], [-72.182949, -37.045893], [-72.188271, -37.043378], [-72.188509, -37.042662], [-72.187521, -37.041553], [-72.187317, -37.039996], [-72.192756, -37.035094], [-72.192112, -37.032319], [-72.192388, -37.030573], [-72.195335, -37.02723]], [[-72.249715, -37.003084], [-72.253674, -37.000805], [-72.26135, -37.000368], [-72.266967, -36.998926], [-72.27066, -36.997268], [-72.27507, -36.99721], [-72.28155, -36.99865], [-72.287271, -36.997555], [-72.288778, -36.996563], [-72.289559, -36.994123], [-72.292914, -36.992341], [-72.298721, -36.990728], [-72.312958, -36.982582], [-72.314935, -36.982792], [-72.316596, -36.984388], [-72.319007, -36.984911], [-72.321995, -36.982246], [-72.326142, -36.981234], [-72.327402, -36.976912], [-72.330125, -36.974767], [-72.330382, -36.972856], [-72.332067, -36.970859], [-72.337066, -36.970325], [-72.34054, -36.971176], [-72.343627, -36.97042], [-72.343954, -36.968684], [-72.342388, -36.967237], [-72.343396, -36.965418], [-72.342959, -36.963774], [-72.34474, -36.961299], [-72.345708, -36.958442], [-72.348173, -36.955788], [-72.348377, -36.945339], [-72.351894, -36.94332], [-72.352634, -36.938882], [-72.358551, -36.937353], [-72.363542, -36.938783], [-72.36594, -36.937994], [-72.368132, -36.934393], [-72.369725, -36.926498], [-72.375049, -36.917597], [-72.377189, -36.915781], [-72.383139, -36.914031], [-72.385386, -36.911938], [-72.385472, -36.909806], [-72.384227, -36.908236], [-72.383399, -36.905695], [-72.379791, -36.903681], [-72.379593, -36.901759], [-72.377653, -36.901096], [-72.37631, -36.899691], [-72.375956, -36.897379], [-72.376468, -36.896422]], [[-72.035629, -37.165312], [-72.042259, -37.16532], [-72.046792, -37.163548], [-72.053047, -37.162877], [-72.057025, -37.160295], [-72.069382, -37.157151], [-72.077043, -37.158702], [-72.078196, -37.157493], [-72.07811, -37.156199], [-72.082002, -37.154772], [-72.084105, -37.15313], [-72.086898, -37.153856], [-72.087184, -37.155075], [-72.08846, -37.156231], [-72.095619, -37.155887], [-72.097706, -37.154643], [-72.098618, -37.151945], [-72.101378, -37.149773], [-72.109457, -37.14064], [-72.109003, -37.139455], [-72.109455, -37.138046], [-72.107086, -37.134469], [-72.107544, -37.129362], [-72.109567, -37.126439], [-72.108804, -37.124582], [-72.108993, -37.12285], [-72.110661, -37.12069], [-72.112777, -37.120481], [-72.116025, -37.118154], [-72.117533, -37.116225], [-72.12173, -37.106685], [-72.124533, -37.103352], [-72.1328, -37.099178], [-72.132481, -37.097499], [-72.135571, -37.092204], [-72.133259, -37.091151], [-72.133615, -37.088768], [-72.135002, -37.088537], [-72.138663, -37.08558], [-72.140906, -37.086836], [-72.143491, -37.086337], [-72.150124, -37.081467], [-72.15024, -37.080196], [-72.153154, -37.076856], [-72.155679, -37.076468], [-72.162712, -37.07344], [-72.164147, -37.072118], [-72.163798, -37.071011], [-72.166341, -37.06959], [-72.165901, -37.066868], [-72.169544, -37.066632], [-72.174012, -37.062951], [-72.179476, -37.062607], [-72.181994, -37.061423], [-72.182992, -37.059548], [-72.181965, -37.05168]], [[-72.181965, -37.05168], [-72.182504, -37.050958], [-72.182661, -37.047843]], [[-72.376468, -36.896422], [-72.376291, -36.895075], [-72.378659, -36.893749], [-72.376747, -36.890495], [-72.376926, -36.888829], [-72.379515, -36.88693], [-72.379544, -36.883485], [-72.380521, -36.881268], [-72.379955, -36.876042], [-72.380746, -36.871836], [-72.380328, -36.869948], [-72.381132, -36.868884], [-72.380282, -36.866579]], [[-72.520784, -36.603828], [-72.529678, -36.601946], [-72.533294, -36.599164], [-72.540622, -36.596214], [-72.543331, -36.595912], [-72.547284, -36.596692], [-72.553486, -36.594995], [-72.554451, -36.594237], [-72.555578, -36.591618], [-72.556382, -36.585373], [-72.560191, -36.583555], [-72.561071, -36.582332], [-72.562112, -36.575491], [-72.56842, -36.572484], [-72.574305, -36.568412], [-72.57593, -36.568404], [-72.582861, -36.571308], [-72.590543, -36.569985], [-72.593493, -36.567555], [-72.597238, -36.562531], [-72.597452, -36.561083], [-72.596487, -36.55842], [-72.596895, -36.557429], [-72.598257, -36.556119], [-72.602838, -36.554603], [-72.603493, -36.552189], [-72.602372, -36.547419], [-72.604587, -36.545467], [-72.608932, -36.544325], [-72.615831, -36.540786], [-72.619382, -36.537985], [-72.622601, -36.533519], [-72.626849, -36.529605], [-72.62759, -36.52664], [-72.632632, -36.525881], [-72.636334, -36.524088], [-72.637535, -36.52288], [-72.643018, -36.520578], [-72.646687, -36.516785], [-72.648135, -36.516121], [-72.649412, -36.512352], [-72.651247, -36.510576], [-72.655581, -36.509809], [-72.658113, -36.507109], [-72.661686, -36.507334], [-72.662362, -36.504902], [-72.663027, -36.504427], [-72.668783, -36.506161], [-72.670323, -36.504807], [-72.671819, -36.501301], [-72.673, -36.500538], [-72.67662, -36.500236], [-72.678337, -36.498123], [-72.678959, -36.494768], [-72.680805, -36.493388], [-72.681459, -36.491594], [-72.685504, -36.490171], [-72.68912, -36.486565], [-72.689495, -36.484926], [-72.68736, -36.482726], [-72.688175, -36.480613], [-72.68942, -36.479492], [-72.692472, -36.478823], [-72.693196, -36.477883], [-72.693384, -36.475998], [-72.695589, -36.475355]], [[-72.472978, -36.637262], [-72.475423, -36.634264], [-72.479124, -36.632353], [-72.484204, -36.628362], [-72.491661, -36.624789], [-72.49283, -36.623579], [-72.494198, -36.620272], [-72.497202, -36.617465], [-72.500732, -36.616587], [-72.502674, -36.61768], [-72.504101, -36.617508], [-72.508628, -36.614649], [-72.511997, -36.608121], [-72.520784, -36.603828]], [[-72.695589, -36.475355], [-72.696437, -36.472797], [-72.694259, -36.469553], [-72.693744, -36.467163], [-72.694495, -36.46221], [-72.697456, -36.459242], [-72.698314, -36.456722], [-72.698357, -36.452563], [-72.695997, -36.44628], [-72.695439, -36.44086], [-72.698293, -36.432099], [-72.703614, -36.426462], [-72.70444, -36.423898], [-72.70649, -36.422461], [-72.715019, -36.42022], [-72.720319, -36.420013]], [[-72.035099, -37.165407], [-72.035629, -37.165312]], [[-72.035629, -37.165312], [-72.042259, -37.16532], [-72.046792, -37.163548], [-72.053047, -37.162877], [-72.057025, -37.160295], [-72.069382, -37.157151], [-72.077043, -37.158702], [-72.078196, -37.157493], [-72.07811, -37.156199], [-72.082002, -37.154772], [-72.084105, -37.15313], [-72.086898, -37.153856], [-72.087184, -37.155075], [-72.08846, -37.156231], [-72.095619, -37.155887], [-72.097706, -37.154643], [-72.098618, -37.151945], [-72.101378, -37.149773], [-72.109457, -37.14064], [-72.109003, -37.139455], [-72.109455, -37.138046], [-72.107086, -37.134469], [-72.107544, -37.129362], [-72.109567, -37.126439], [-72.108804, -37.124582], [-72.108993, -37.12285], [-72.110661, -37.12069], [-72.112777, -37.120481], [-72.116025, -37.118154], [-72.117533, -37.116225], [-72.12173, -37.106685], [-72.124533, -37.103352], [-72.1328, -37.099178], [-72.132481, -37.097499], [-72.135571, -37.092204], [-72.133259, -37.091151], [-72.133615, -37.088768], [-72.135002, -37.088537], [-72.138663, -37.08558], [-72.140906, -37.086836], [-72.143491, -37.086337], [-72.150124, -37.081467], [-72.15024, -37.080196], [-72.153154, -37.076856], [-72.155679, -37.076468], [-72.162712, -37.07344], [-72.164147, -37.072118], [-72.163798, -37.071011], [-72.166341, -37.06959], [-72.165901, -37.066868], [-72.169544, -37.066632], [-72.174012, -37.062951], [-72.179476, -37.062607], [-72.181994, -37.061423], [-72.182992, -37.059548], [-72.181965, -37.05168]], [[-72.181965, -37.05168], [-72.182504, -37.050958], [-72.182661, -37.047843]], [[-72.182661, -37.047843], [-72.182949, -37.045893], [-72.188271, -37.043378], [-72.188509, -37.042662], [-72.187521, -37.041553], [-72.187317, -37.039996], [-72.192756, -37.035094], [-72.192112, -37.032319], [-72.192388, -37.030573], [-72.195335, -37.02723]], [[-72.195335, -37.02723], [-72.198713, -37.024616], [-72.200382, -37.024775], [-72.203082, -37.023701], [-72.209276, -37.020346], [-72.211782, -37.019913], [-72.215272, -37.018168], [-72.219887, -37.017839], [-72.22305, -37.012528], [-72.229857, -37.009084], [-72.24353, -37.006956], [-72.245719, -37.005097], [-72.249715, -37.003084]], [[-72.249715, -37.003084], [-72.253674, -37.000805], [-72.26135, -37.000368], [-72.266967, -36.998926], [-72.27066, -36.997268], [-72.27507, -36.99721], [-72.28155, -36.99865], [-72.287271, -36.997555], [-72.288778, -36.996563], [-72.289559, -36.994123], [-72.292914, -36.992341], [-72.298721, -36.990728], [-72.312958, -36.982582], [-72.314935, -36.982792], [-72.316596, -36.984388], [-72.319007, -36.984911], [-72.321995, -36.982246], [-72.326142, -36.981234], [-72.327402, -36.976912], [-72.330125, -36.974767], [-72.330382, -36.972856], [-72.332067, -36.970859], [-72.337066, -36.970325], [-72.34054, -36.971176], [-72.343627, -36.97042], [-72.343954, -36.968684], [-72.342388, -36.967237], [-72.343396, -36.965418], [-72.342959, -36.963774], [-72.34474, -36.961299], [-72.345708, -36.958442], [-72.348173, -36.955788], [-72.348377, -36.945339], [-72.351894, -36.94332], [-72.352634, -36.938882], [-72.358551, -36.937353], [-72.363542, -36.938783], [-72.36594, -36.937994], [-72.368132, -36.934393], [-72.369725, -36.926498], [-72.375049, -36.917597], [-72.377189, -36.915781], [-72.383139, -36.914031], [-72.385386, -36.911938], [-72.385472, -36.909806], [-72.384227, -36.908236], [-72.383399, -36.905695], [-72.379791, -36.903681], [-72.379593, -36.901759], [-72.377653, -36.901096], [-72.37631, -36.899691], [-72.375956, -36.897379], [-72.376468, -36.896422]], [[-72.376468, -36.896422], [-72.376291, -36.895075], [-72.378659, -36.893749], [-72.376747, -36.890495], [-72.376926, -36.888829], [-72.379515, -36.88693], [-72.379544, -36.883485], [-72.380521, -36.881268], [-72.379955, -36.876042], [-72.380746, -36.871836], [-72.380328, -36.869948], [-72.381132, -36.868884], [-72.380282, -36.866579]], [[-72.380282, -36.866579], [-72.382265, -36.862094], [-72.381583, -36.858746], [-72.382055, -36.857351], [-72.392843, -36.849084], [-72.393771, -36.840322], [-72.400358, -36.83435], [-72.406307, -36.829971], [-72.40693, -36.826763], [-72.404897, -36.823963], [-72.405691, -36.819558], [-72.409955, -36.816938], [-72.412782, -36.816878], [-72.414998, -36.815796], [-72.418142, -36.806545], [-72.419584, -36.804633], [-72.421339, -36.803735], [-72.428012, -36.802438], [-72.429472, -36.801244], [-72.429611, -36.799724], [-72.42783, -36.795892], [-72.426628, -36.779764], [-72.426848, -36.775304], [-72.430008, -36.772043], [-72.4306, -36.771192], [-72.430391, -36.77026], [-72.426977, -36.767849], [-72.424394, -36.764909], [-72.416945, -36.760996], [-72.414239, -36.758108], [-72.4162, -36.752983], [-72.422605, -36.745341], [-72.42636, -36.742787], [-72.434299, -36.739443], [-72.436327, -36.737659], [-72.438413, -36.732526], [-72.437534, -36.728906], [-72.437974, -36.726773], [-72.435415, -36.721493], [-72.435699, -36.720272], [-72.438762, -36.717606], [-72.440431, -36.715116], [-72.442914, -36.713336], [-72.445157, -36.712304], [-72.447404, -36.712811], [-72.44911, -36.71208], [-72.448788, -36.705079], [-72.449861, -36.703272], [-72.449341, -36.701961], [-72.451851, -36.700494], [-72.452018, -36.699311], [-72.449239, -36.69686], [-72.448488, -36.694898], [-72.444339, -36.691905], [-72.444014, -36.689921]], [[-72.444014, -36.689921], [-72.44462, -36.685998], [-72.449952, -36.681223], [-72.450907, -36.679545], [-72.451028, -36.67753]], [[-72.451028, -36.67753], [-72.451326, -36.672085], [-72.453471, -36.668953], [-72.453665, -36.667171], [-72.453139, -36.665243], [-72.449148, -36.660415], [-72.449137, -36.658522], [-72.452538, -36.654623], [-72.458412, -36.650465], [-72.47038, -36.644108], [-72.471871, -36.642146], [-72.472978, -36.637262]], [[-72.472978, -36.637262], [-72.475423, -36.634264], [-72.479124, -36.632353], [-72.484204, -36.628362], [-72.491661, -36.624789], [-72.49283, -36.623579], [-72.494198, -36.620272], [-72.497202, -36.617465], [-72.500732, -36.616587], [-72.502674, -36.61768], [-72.504101, -36.617508], [-72.508628, -36.614649], [-72.511997, -36.608121], [-72.520784, -36.603828]], [[-72.520784, -36.603828], [-72.529678, -36.601946], [-72.533294, -36.599164], [-72.540622, -36.596214], [-72.543331, -36.595912], [-72.547284, -36.596692], [-72.553486, -36.594995], [-72.554451, -36.594237], [-72.555578, -36.591618], [-72.556382, -36.585373], [-72.560191, -36.583555], [-72.561071, -36.582332], [-72.562112, -36.575491], [-72.56842, -36.572484], [-72.574305, -36.568412], [-72.57593, -36.568404], [-72.582861, -36.571308], [-72.590543, -36.569985], [-72.593493, -36.567555], [-72.597238, -36.562531], [-72.597452, -36.561083], [-72.596487, -36.55842], [-72.596895, -36.557429], [-72.598257, -36.556119], [-72.602838, -36.554603], [-72.603493, -36.552189], [-72.602372, -36.547419], [-72.604587, -36.545467], [-72.608932, -36.544325], [-72.615831, -36.540786], [-72.619382, -36.537985], [-72.622601, -36.533519], [-72.626849, -36.529605], [-72.62759, -36.52664], [-72.632632, -36.525881], [-72.636334, -36.524088], [-72.637535, -36.52288], [-72.643018, -36.520578], [-72.646687, -36.516785], [-72.648135, -36.516121], [-72.649412, -36.512352], [-72.651247, -36.510576], [-72.655581, -36.509809], [-72.658113, -36.507109], [-72.661686, -36.507334], [-72.662362, -36.504902], [-72.663027, -36.504427], [-72.668783, -36.506161], [-72.670323, -36.504807], [-72.671819, -36.501301], [-72.673, -36.500538], [-72.67662, -36.500236], [-72.678337, -36.498123], [-72.678959, -36.494768], [-72.680805, -36.493388], [-72.681459, -36.491594], [-72.685504, -36.490171], [-72.68912, -36.486565], [-72.689495, -36.484926], [-72.68736, -36.482726], [-72.688175, -36.480613], [-72.68942, -36.479492], [-72.692472, -36.478823], [-72.693196, -36.477883], [-72.693384, -36.475998], [-72.695589, -36.475355]], [[-72.695589, -36.475355], [-72.696437, -36.472797], [-72.694259, -36.469553], [-72.693744, -36.467163], [-72.694495, -36.46221], [-72.697456, -36.459242], [-72.698314, -36.456722], [-72.698357, -36.452563], [-72.695997, -36.44628], [-72.695439, -36.44086], [-72.698293, -36.432099], [-72.703614, -36.426462], [-72.70444, -36.423898], [-72.70649, -36.422461], [-72.715019, -36.42022], [-72.720319, -36.420013]], [[-72.720319, -36.420013], [-72.721682, -36.419469], [-72.722722, -36.418123], [-72.726091, -36.417583], [-72.72695, -36.415619], [-72.728559, -36.414626], [-72.728698, -36.411613], [-72.732056, -36.410223], [-72.733473, -36.40828], [-72.734277, -36.404498], [-72.735382, -36.403591], [-72.738537, -36.403202], [-72.744856, -36.404178], [-72.748386, -36.406596], [-72.752559, -36.405391], [-72.75522, -36.406298], [-72.756717, -36.404683], [-72.760558, -36.405668], [-72.766378, -36.402589], [-72.771206, -36.40379], [-72.772418, -36.402451], [-72.772204, -36.400491], [-72.773368, -36.399096], [-72.775379, -36.398181], [-72.779204, -36.398444], [-72.782155, -36.395392], [-72.786934, -36.395888], [-72.789939, -36.393358], [-72.794176, -36.393755], [-72.797524, -36.391855], [-72.801912, -36.394005], [-72.806085, -36.393358], [-72.809358, -36.388987], [-72.812126, -36.387062], [-72.813542, -36.383563], [-72.816846, -36.382242], [-72.82647, -36.382466], [-72.834098, -36.38561], [-72.840793, -36.386794], [-72.868774, -36.386837]], [[-72.182472, -37.053176], [-72.181622, -37.053004], [-72.179954, -37.049653]], [[-72.179954, -37.049653], [-72.179844, -37.048842], [-72.181654, -37.048702]], [[-72.181654, -37.048702], [-72.18245, -37.048799]]]}]}}