{"type": "Feature", "properties": {"id": "rio-emperador-guillermo", "name": "Río Emperador Guillermo", "type": "river", "region": "aysen"}, "geometry": {"type": "MultiLineString", "coordinates": [[[-72.208596, -45.271428], [-72.209948, -45.271647], [-72.210935, -45.269058], [-72.216794, -45.268576], [-72.219396, -45.269735], [-72.220904, -45.269722], [-72.225024, -45.267456], [-72.229788, -45.267426], [-72.233366, -45.266554], [-72.234159, -45.265557], [-72.239066, -45.263968], [-72.24191, -45.262246], [-72.248155, -45.262533], [-72.252284, -45.26037], [-72.257649, -45.261325], [-72.262536, -45.260619], [-72.2641, -45.259567], [-72.264991, -45.260857], [-72.266377, -45.260981], [-72.270179, -45.263443], [-72.270989, -45.26493], [-72.273801, -45.265531]], [[-72.210141, -45.271436], [-72.211622, -45.269012]], [[-71.894381, -45.354151], [-71.894445, -45.354901], [-71.896446, -45.354098], [-71.8968, -45.354848], [-71.897975, -45.35504], [-71.899381, -45.354328], [-71.902197, -45.354162], [-71.903007, -45.355655], [-71.907575, -45.356761], [-71.910276, -45.358305], [-71.917475, -45.363977], [-71.919452, -45.363241], [-71.923263, -45.36334], [-71.927152, -45.365798], [-71.932603, -45.366163], [-71.938611, -45.367611], [-71.93919, -45.368417], [-71.941626, -45.368474], [-71.942258, -45.369118], [-71.943852, -45.368843], [-71.944554, -45.369518], [-71.94596, -45.368873], [-71.948256, -45.369405], [-71.949114, -45.368745], [-71.950605, -45.368888], [-71.951721, -45.370091], [-71.960884, -45.367637], [-71.964451, -45.368572], [-71.964574, -45.367249], [-71.967364, -45.367464], [-71.968238, -45.36602], [-71.969027, -45.36628], [-71.969097, -45.367042], [-71.970481, -45.365523], [-71.971795, -45.366099], [-71.972809, -45.365749], [-71.972959, -45.364897], [-71.975191, -45.364501], [-71.975266, -45.36564], [-71.976156, -45.36567], [-71.978487, -45.363846], [-71.978983, -45.364011], [-71.978479, -45.364863], [-71.978892, -45.365248], [-71.981188, -45.364762], [-71.981842, -45.363555], [-71.987234, -45.364475], [-71.987727, -45.363088], [-71.991531, -45.363424], [-71.992174, -45.362722], [-71.993741, -45.363144], [-71.997389, -45.361746], [-71.998931, -45.361733], [-71.999151, -45.362223], [-71.999502, -45.361656]], [[-72.02471, -45.357057], [-72.025246, -45.356273], [-72.028191, -45.355915], [-72.030975, -45.353612], [-72.033094, -45.352733], [-72.031705, -45.350143], [-72.032837, -45.347305], [-72.037466, -45.346803], [-72.04091, -45.347938], [-72.044896, -45.346072], [-72.046419, -45.343617], [-72.048404, -45.342414], [-72.048957, -45.339948], [-72.046387, -45.338124], [-72.046473, -45.336438], [-72.044869, -45.33502], [-72.044365, -45.333285], [-72.044215, -45.331784], [-72.04606, -45.329906], [-72.049896, -45.328047], [-72.054525, -45.327383], [-72.056617, -45.323589], [-72.057309, -45.323706], [-72.058141, -45.325403], [-72.059804, -45.324785], [-72.060276, -45.323397], [-72.062126, -45.321767], [-72.06328, -45.319055], [-72.068891, -45.31723], [-72.068971, -45.316222], [-72.067861, -45.315215], [-72.069401, -45.314276], [-72.072008, -45.314016], [-72.076664, -45.311684], [-72.081395, -45.311933], [-72.082769, -45.311277], [-72.086175, -45.311137], [-72.08691, -45.311239], [-72.086658, -45.312239], [-72.087543, -45.312876], [-72.089651, -45.312163]], [[-71.999502, -45.361656], [-72.001058, -45.360284], [-72.010231, -45.360291], [-72.012575, -45.359183], [-72.017784, -45.360521], [-72.01986, -45.358946], [-72.02471, -45.357057]]]}}