{"type": "Feature", "properties": {"id": "rio-cipreses", "name": "Río de Los Cipreses", "type": "river", "region": "ohiggins"}, "geometry": {"type": "MultiLineString", "coordinates": [[[-70.361711, -34.563831], [-70.367056, -34.557699], [-70.373879, -34.554021], [-70.376875, -34.554848], [-70.384857, -34.552585], [-70.38581, -34.553455], [-70.389415, -34.551829], [-70.398762, -34.551949], [-70.404864, -34.550486], [-70.406486, -34.551172], [-70.408804, -34.55103], [-70.414039, -34.547001], [-70.424339, -34.541345], [-70.427858, -34.535901], [-70.428631, -34.527274], [-70.428116, -34.521219], [-70.429575, -34.513979], [-70.428373, -34.50818], [-70.429369, -34.504644], [-70.427296, -34.500348], [-70.428219, -34.497959], [-70.422429, -34.483764], [-70.421421, -34.473841], [-70.423118, -34.471333], [-70.421554, -34.468662], [-70.421987, -34.465745], [-70.42129, -34.462959], [-70.421989, -34.458724], [-70.420464, -34.455244], [-70.421093, -34.453546], [-70.42052, -34.451944], [-70.418816, -34.451716], [-70.417668, -34.449929], [-70.418688, -34.440583], [-70.419656, -34.440011], [-70.421584, -34.432415], [-70.420861, -34.431369], [-70.421434, -34.430553], [-70.421037, -34.42704], [-70.419973, -34.425328], [-70.419202, -34.420891], [-70.419893, -34.418441], [-70.419599, -34.416708], [-70.420502, -34.415288], [-70.419773, -34.413336], [-70.419275, -34.406913], [-70.417919, -34.401769], [-70.416644, -34.399929], [-70.417492, -34.398651], [-70.417477, -34.397222], [-70.413555, -34.393741], [-70.412632, -34.389123], [-70.41031, -34.388363], [-70.41058, -34.386047], [-70.407639, -34.382914], [-70.405519, -34.381901], [-70.404514, -34.376831], [-70.402974, -34.373243], [-70.401894, -34.371812], [-70.400141, -34.37109], [-70.400006, -34.370181], [-70.400334, -34.369177], [-70.399753, -34.36723], [-70.400635, -34.366311], [-70.400306, -34.365261], [-70.401038, -34.363392], [-70.400427, -34.359344], [-70.404117, -34.356271], [-70.404632, -34.35183], [-70.406293, -34.349715], [-70.406193, -34.347515], [-70.407371, -34.346404], [-70.408048, -34.34375], [-70.407482, -34.342508], [-70.405744, -34.34212], [-70.403335, -34.340517], [-70.400417, -34.335556], [-70.406254, -34.330311], [-70.409069, -34.326323]]]}}