{"type": "Feature", "properties": {"id": "rio-aysen", "name": "Río Aysén", "type": "river", "region": "aysen"}, "geometry": {"type": "MultiLineString", "coordinates": [[[-72.499026, -45.406394], [-72.500989, -45.409026], [-72.507663, -45.411097], [-72.514383, -45.417422], [-72.518429, -45.418093], [-72.52793, -45.417808], [-72.535376, -45.414255], [-72.54621, -45.413263], [-72.548302, -45.411699], [-72.553399, -45.404991], [-72.557036, -45.396945], [-72.560486, -45.393304], [-72.564493, -45.391534], [-72.573559, -45.390208], [-72.589685, -45.391293], [-72.598836, -45.394909], [-72.603589, -45.396024], [-72.605574, -45.397365], [-72.606089, -45.399166], [-72.602613, -45.403]], [[-72.602613, -45.403], [-72.600542, -45.404047], [-72.594684, -45.405041], [-72.593622, -45.407911], [-72.594438, -45.408506], [-72.599806, -45.409136], [-72.605783, -45.411758], [-72.608121, -45.411652], [-72.618225, -45.407648], [-72.623878, -45.406731], [-72.628877, -45.404281], [-72.632675, -45.404763], [-72.636028, -45.406631], [-72.641446, -45.407068], [-72.647444, -45.405754], [-72.657432, -45.400266], [-72.663848, -45.399829], [-72.681507, -45.403806], [-72.688052, -45.405991], [-72.692537, -45.408567], [-72.705712, -45.418508], [-72.708716, -45.417589], [-72.710368, -45.416128], [-72.710969, -45.414863], [-72.710475, -45.411293], [-72.712771, -45.407813], [-72.715303, -45.405817], [-72.718694, -45.405004], [-72.723307, -45.405395], [-72.727448, -45.407414], [-72.72953, -45.409146], [-72.732062, -45.413892], [-72.734744, -45.416693], [-72.737791, -45.418712], [-72.742104, -45.419675], [-72.750537, -45.418952], [-72.755644, -45.417024], [-72.760064, -45.414163], [-72.764549, -45.412445], [-72.771211, -45.411323], [-72.777581, -45.411059]], [[-72.602613, -45.403], [-72.602366, -45.405102], [-72.604254, -45.407045], [-72.605735, -45.407022], [-72.608192, -45.4052], [-72.609898, -45.404763], [-72.620788, -45.407218]], [[-72.499026, -45.406394], [-72.500989, -45.409026], [-72.507663, -45.411097], [-72.514383, -45.417422], [-72.518429, -45.418093], [-72.52793, -45.417808], [-72.535376, -45.414255], [-72.54621, -45.413263], [-72.548302, -45.411699], [-72.553399, -45.404991], [-72.557036, -45.396945], [-72.560486, -45.393304], [-72.564493, -45.391534], [-72.573559, -45.390208], [-72.589685, -45.391293], [-72.598836, -45.394909], [-72.603589, -45.396024], [-72.605574, -45.397365], [-72.606089, -45.399166], [-72.602613, -45.403]], [[-72.602613, -45.403], [-72.600542, -45.404047], [-72.594684, -45.405041], [-72.593622, -45.407911], [-72.594438, -45.408506], [-72.599806, -45.409136], [-72.605783, -45.411758], [-72.608121, -45.411652], [-72.618225, -45.407648], [-72.623878, -45.406731], [-72.628877, -45.404281], [-72.632675, -45.404763], [-72.636028, -45.406631], [-72.641446, -45.407068], [-72.647444, -45.405754], [-72.657432, -45.400266], [-72.663848, -45.399829], [-72.681507, -45.403806], [-72.688052, -45.405991], [-72.692537, -45.408567], [-72.705712, -45.418508], [-72.708716, -45.417589], [-72.710368, -45.416128], [-72.710969, -45.414863], [-72.710475, -45.411293], [-72.712771, -45.407813], [-72.715303, -45.405817], [-72.718694, -45.405004], [-72.723307, -45.405395], [-72.727448, -45.407414], [-72.72953, -45.409146], [-72.732062, -45.413892], [-72.734744, -45.416693], [-72.737791, -45.418712], [-72.742104, -45.419675], [-72.750537, -45.418952], [-72.755644, -45.417024], [-72.760064, -45.414163], [-72.764549, -45.412445], [-72.771211, -45.411323], [-72.777581, -45.411059]]]}}