{"type": "Feature", "properties": {"id": "rio-blanco-ranco", "name": "Río Blanco (Lago Ranco)", "type": "river", "region": "los-rios"}, "geometry": {"type": "MultiLineString", "coordinates": [[[-71.942606, -40.512906], [-71.941276, -40.511199], [-71.944913, -40.511122], [-71.94737, -40.507688], [-71.95075, -40.504416], [-71.95583, -40.502153], [-71.958952, -40.499012], [-71.959038, -40.498123], [-71.96025, -40.497564], [-71.96032, -40.496829], [-71.961951, -40.496103], [-71.961484, -40.495361], [-71.962289, -40.495785], [-71.963828, -40.495075], [-71.965298, -40.493072], [-71.964375, -40.485924], [-71.961843, -40.484019], [-71.959397, -40.483456], [-71.957187, -40.481595], [-71.957348, -40.479824], [-71.959494, -40.4786], [-71.957648, -40.474887], [-71.958818, -40.473704], [-71.956286, -40.46977], [-71.958668, -40.46777], [-71.956683, -40.466129], [-71.95767, -40.464783], [-71.957273, -40.46373], [-71.956039, -40.463477], [-71.956369, -40.462475]]]}}