{"type": "Feature", "properties": {"id": "rio-paloma", "name": "Río Paloma", "type": "river", "region": "aysen"}, "geometry": {"type": "MultiLineString", "coordinates": [[[-72.117316, -41.391805], [-72.116539, -41.396964], [-72.116955, -41.398671], [-72.111934, -41.403466], [-72.112458, -41.405002], [-72.110528, -41.406931], [-72.110787, -41.40904]], [[-73.365361, -41.369327], [-73.363403, -41.369418], [-73.363218, -41.371183], [-73.363851, -41.372171], [-73.36285, -41.373216], [-73.359452, -41.374518], [-73.358529, -41.375814], [-73.356641, -41.376193], [-73.353224, -41.375593], [-73.352419, -41.374417], [-73.350936, -41.37384]]]}}