{"type": "Feature", "properties": {"id": "rio-jeinimeni", "name": "Río Jeinimeni", "type": "river", "region": "aysen"}, "geometry": {"type": "MultiLineString", "coordinates": [[[-72.011437, -46.838391], [-72.010961, -46.837184], [-72.009367, -46.836497], [-72.008418, -46.834861], [-72.009051, -46.832086], [-72.007467, -46.830518], [-72.002417, -46.82775], [-71.998966, -46.827642], [-71.99668, -46.826834], [-71.992663, -46.827091], [-71.988666, -46.825685], [-71.98637, -46.826203], [-71.984578, -46.824628], [-71.979117, -46.825729], [-71.974867, -46.825577], [-71.973358, -46.82455]], [[-71.958439, -46.815912], [-71.955385, -46.81542]], [[-71.930702, -46.80598], [-71.928202, -46.805549]], [[-71.941452, -46.808889], [-71.939407, -46.807443]], [[-71.888723, -46.800763], [-71.886223, -46.800274]], [[-71.841939, -46.798818], [-71.83834, -46.798335]], [[-71.816361, -46.785093], [-71.813737, -46.78456]], [[-71.912999, -46.799231], [-71.912282, -46.798579]], [[-71.891167, -46.79894], [-71.889091, -46.800676]], [[-71.831787, -46.795463], [-71.830417, -46.793707], [-71.82831, -46.792821]], [[-71.836225, -46.796878], [-71.832213, -46.795767]], [[-71.855122, -46.802403], [-71.853436, -46.800654], [-71.851892, -46.80073]], [[-71.898431, -46.800354], [-71.896012, -46.800391], [-71.893412, -46.799553]], [[-71.844351, -46.799564], [-71.840517, -46.797841], [-71.83834, -46.798335]], [[-71.848162, -46.799718], [-71.847252, -46.798442], [-71.845572, -46.797806], [-71.840517, -46.797841]], [[-71.913314, -46.800664], [-71.912769, -46.798677], [-71.910128, -46.798576]], [[-71.973358, -46.82455], [-71.967071, -46.823014], [-71.959288, -46.81848]], [[-71.83382, -46.796686], [-71.832213, -46.795767]], [[-71.842548, -46.798683], [-71.840152, -46.798598]], [[-71.646727, -46.677254], [-71.648007, -46.676015], [-71.647323, -46.674725]], [[-71.644812, -46.679348], [-71.645665, -46.677887]], [[-71.659285, -46.69172], [-71.658143, -46.690716], [-71.656904, -46.690587]], [[-71.647253, -46.686436], [-71.645451, -46.685218]], [[-71.701026, -46.712851], [-71.698896, -46.711524]], [[-71.706364, -46.712888], [-71.702362, -46.713591]], [[-71.715279, -46.719085], [-71.71448, -46.71842], [-71.71289, -46.718426]], [[-71.725976, -46.725635], [-71.723127, -46.724826]], [[-71.724951, -46.725536], [-71.72235, -46.72458]], [[-71.727413, -46.726352], [-71.724131, -46.725525]], [[-71.738963, -46.734982], [-71.74039, -46.732776], [-71.739017, -46.731228]], [[-71.769267, -46.763229], [-71.768124, -46.761388], [-71.764798, -46.759948]], [[-71.788241, -46.773933], [-71.787254, -46.77387], [-71.785306, -46.772316]], [[-71.7872, -46.774186], [-71.785306, -46.773385]], [[-71.779921, -46.768686], [-71.778472, -46.767271], [-71.774846, -46.766886]], [[-71.784834, -46.771574], [-71.783654, -46.769612], [-71.780516, -46.768998]], [[-71.808327, -46.783327], [-71.80612, -46.782628]], [[-71.80612, -46.782628], [-71.8042, -46.780277]], [[-71.666332, -46.594027], [-71.668354, -46.591572], [-71.669377, -46.585596], [-71.669206, -46.58307], [-71.668233, -46.580342], [-71.666522, -46.579479], [-71.667128, -46.577363], [-71.665288, -46.573602], [-71.665825, -46.570239], [-71.663384, -46.566337], [-71.666071, -46.564557], [-71.666871, -46.561616], [-71.670304, -46.5591], [-71.669204, -46.557636], [-71.669993, -46.556356], [-71.669215, -46.554972], [-71.671854, -46.553781], [-71.671377, -46.551615], [-71.673211, -46.549833], [-71.673641, -46.547775], [-71.67459, -46.546948], [-71.674638, -46.545148], [-71.673882, -46.543842], [-71.675347, -46.541975], [-71.673887, -46.538222], [-71.675019, -46.536639], [-71.670996, -46.53041], [-71.672503, -46.528683], [-71.673206, -46.526616]], [[-71.672541, -46.548786], [-71.674032, -46.54741]], [[-71.671763, -46.551125], [-71.671275, -46.549361]], [[-71.664339, -46.565389], [-71.666372, -46.559657], [-71.665235, -46.5581], [-71.668223, -46.55602], [-71.668845, -46.552479], [-71.671151, -46.549465], [-71.672541, -46.548786], [-71.67172, -46.54745], [-71.671688, -46.545163], [-71.672466, -46.544373], [-71.671978, -46.541919], [-71.673936, -46.539045]], [[-71.661823, -46.621748], [-71.665222, -46.619295], [-71.668071, -46.615187], [-71.668564, -46.612998], [-71.668441, -46.61184], [-71.666252, -46.6088], [-71.665911, -46.606516], [-71.666595, -46.603847], [-71.665054, -46.601569], [-71.667797, -46.59677], [-71.666332, -46.594027]]]}}