{"type": "Feature", "properties": {"id": "rio-maipo", "name": "Río Maipo", "type": "river", "region": "metropolitana"}, "geometry": {"type": "GeometryCollection", "geometries": [{"type": "MultiPolygon", "coordinates": [[[[-70.406233, -33.588498], [-70.404334, -33.590032], [-70.400502, -33.588658], [-70.394965, -33.592778], [-70.390198, -33.593203], [-70.385161, -33.595649], [-70.377983, -33.597986], [-70.3756, -33.598142], [-70.373558, -33.59635], [-70.369197, -33.5953], [-70.368193, -33.596922], [-70.365361, -33.597315], [-70.364798, -33.600028], [-70.363392, -33.60152], [-70.355705, -33.603432], [-70.354144, -33.607543], [-70.350432, -33.609611], [-70.349439, -33.611539], [-70.349836, -33.612571], [-70.348994, -33.6118], [-70.350636, -33.608503], [-70.3535, -33.607608], [-70.354112, -33.605036], [-70.355378, -33.603178], [-70.363001, -33.601252], [-70.364331, -33.599759], [-70.36476, -33.597302], [-70.367719, -33.596641], [-70.369124, -33.594929], [-70.373716, -33.59581], [-70.375607, -33.598021], [-70.378093, -33.597796], [-70.390289, -33.592717], [-70.394549, -33.592588], [-70.396276, -33.591777], [-70.398325, -33.589346], [-70.399921, -33.588445], [-70.40169, -33.58834], [-70.403855, -33.589688], [-70.406233, -33.588498]], [[-70.398675, -33.589512], [-70.398167, -33.589892], [-70.398675, -33.589512]], [[-70.352524, -33.608389], [-70.350417, -33.609439], [-70.350955, -33.608657], [-70.352524, -33.608389]], [[-70.522605, -33.616959], [-70.521648, -33.616834], [-70.522605, -33.616959]], [[-70.521598, -33.616809], [-70.51967, -33.61668], [-70.521598, -33.616809]]], [[[-70.518109, -33.614348], [-70.517964, -33.615165], [-70.519165, -33.616326], [-70.526202, -33.616815], [-70.529185, -33.615256], [-70.531647, -33.615877], [-70.529516, -33.615546], [-70.526774, -33.617338], [-70.522925, -33.61688], [-70.521849, -33.6173], [-70.518181, -33.616323], [-70.517225, -33.615028], [-70.518109, -33.614348]]]]}, {"type": "MultiLineString", "coordinates": [[[-71.025318, -33.712937], [-71.028473, -33.712872], [-71.030696, -33.714695], [-71.033788, -33.713438], [-71.038839, -33.714849], [-71.03962, -33.713798], [-71.040806, -33.713544], [-71.043482, -33.715635], [-71.047323, -33.716415], [-71.053981, -33.719891], [-71.058036, -33.719751], [-71.060219, -33.718825], [-71.061952, -33.719535], [-71.069012, -33.716705], [-71.074789, -33.716937], [-71.076404, -33.718423], [-71.078984, -33.718666], [-71.080154, -33.71961], [-71.085156, -33.717928], [-71.089917, -33.714883], [-71.089689, -33.713635], [-71.091671, -33.709191], [-71.093554, -33.706986], [-71.096335, -33.707531], [-71.100119, -33.704887], [-71.106058, -33.704668], [-71.109371, -33.702334], [-71.113794, -33.702948], [-71.119158, -33.699101], [-71.12043, -33.697081], [-71.123353, -33.698244], [-71.12743, -33.698704], [-71.129217, -33.696722], [-71.129023, -33.694504], [-71.130263, -33.693669], [-71.135709, -33.695324], [-71.13705, -33.695127], [-71.140289, -33.693084], [-71.141674, -33.692976], [-71.144324, -33.693735], [-71.146595, -33.695517], [-71.148453, -33.695789], [-71.15068, -33.695307], [-71.152163, -33.69254], [-71.158812, -33.692522], [-71.162857, -33.691367], [-71.165644, -33.691531], [-71.168023, -33.693162], [-71.17027, -33.69329], [-71.174589, -33.697806], [-71.177263, -33.697744], [-71.179642, -33.699565], [-71.184534, -33.699509], [-71.185994, -33.701935], [-71.188965, -33.703836], [-71.191237, -33.703878], [-71.195902, -33.705643], [-71.199155, -33.705937]], [[-71.19083, -33.703851], [-71.193262, -33.70253], [-71.198418, -33.704786], [-71.199155, -33.705937]], [[-71.202261, -33.706902], [-71.205617, -33.707745], [-71.206534, -33.709579], [-71.210679, -33.710678], [-71.212703, -33.712926], [-71.217676, -33.722559], [-71.217131, -33.727251], [-71.219205, -33.729381], [-71.220862, -33.729863], [-71.220758, -33.730931], [-71.221491, -33.731979], [-71.224448, -33.734608], [-71.22716, -33.735489], [-71.230482, -33.738099], [-71.235083, -33.738098], [-71.243463, -33.743342], [-71.247121, -33.743228], [-71.248154, -33.74073], [-71.249135, -33.74011], [-71.251831, -33.74206]], [[-71.304212, -33.723517], [-71.30724, -33.722811], [-71.309665, -33.72314], [-71.310665, -33.722457], [-71.311339, -33.723882], [-71.312744, -33.723715], [-71.316078, -33.722488], [-71.318291, -33.722622], [-71.319147, -33.721511], [-71.3228, -33.720007], [-71.324017, -33.72021], [-71.325796, -33.72173], [-71.329572, -33.72079], [-71.331967, -33.725502], [-71.334159, -33.726111], [-71.337404, -33.725388], [-71.341197, -33.728377], [-71.344322, -33.729285], [-71.345105, -33.73061]], [[-71.280209, -33.729694], [-71.282773, -33.730621], [-71.286753, -33.728864], [-71.292027, -33.728083], [-71.2971, -33.72529]], [[-71.305431, -33.724213], [-71.307667, -33.724625], [-71.309059, -33.726599], [-71.312929, -33.727866], [-71.316287, -33.728145], [-71.318197, -33.730528], [-71.320015, -33.730891], [-71.321847, -33.733263], [-71.323054, -33.733254], [-71.324873, -33.73121], [-71.327872, -33.730871], [-71.329561, -33.729832], [-71.331224, -33.730385], [-71.336589, -33.729595], [-71.342307, -33.730813], [-71.345105, -33.73061]], [[-71.347159, -33.737942], [-71.347563, -33.737604], [-71.348291, -33.739084], [-71.352124, -33.741707], [-71.354898, -33.741703]], [[-71.354898, -33.741703], [-71.355386, -33.743527], [-71.354265, -33.745075], [-71.354447, -33.745762], [-71.355552, -33.747194], [-71.357389, -33.747519], [-71.358199, -33.748343]], [[-71.358199, -33.748343], [-71.358663, -33.749435], [-71.358143, -33.755374], [-71.359393, -33.758411], [-71.362, -33.759334], [-71.366597, -33.758661], [-71.367585, -33.759486], [-71.368641, -33.762019], [-71.37561, -33.7635]], [[-71.422774, -33.786086], [-71.42638, -33.785643], [-71.428487, -33.784328], [-71.430126, -33.784989], [-71.430772, -33.786846], [-71.432186, -33.786887], [-71.434463, -33.785588], [-71.437354, -33.786536]], [[-71.53062, -33.767946], [-71.534589, -33.765672], [-71.538683, -33.760552], [-71.538913, -33.755057], [-71.539959, -33.752149], [-71.536156, -33.748153], [-71.536151, -33.747328], [-71.540346, -33.744825], [-71.543108, -33.747073], [-71.544605, -33.747377], [-71.547223, -33.745303], [-71.554084, -33.742461], [-71.556895, -33.738879], [-71.560891, -33.736542], [-71.561465, -33.733013], [-71.560468, -33.729056], [-71.554604, -33.72253], [-71.55329, -33.719525], [-71.554135, -33.7181], [-71.556546, -33.717754], [-71.5552, -33.715996], [-71.554958, -33.71451], [-71.55579, -33.709871], [-71.557976, -33.704849], [-71.559891, -33.703122], [-71.562106, -33.702158], [-71.565969, -33.703032], [-71.567632, -33.700299], [-71.567693, -33.697195], [-71.568584, -33.695227], [-71.567672, -33.69212], [-71.570145, -33.690156], [-71.571518, -33.686907], [-71.574538, -33.68314], [-71.574673, -33.680917], [-71.572822, -33.680501], [-71.57207, -33.678263], [-71.572761, -33.67733], [-71.574664, -33.676995]], [[-70.211825, -33.83383], [-70.211944, -33.832641], [-70.216917, -33.831991], [-70.218156, -33.831108], [-70.222161, -33.824785], [-70.222431, -33.823276], [-70.224954, -33.821432], [-70.223472, -33.816901], [-70.217274, -33.809689], [-70.218305, -33.807849], [-70.218121, -33.806164], [-70.220232, -33.805829], [-70.221207, -33.803007], [-70.220461, -33.800354], [-70.221739, -33.794944], [-70.225449, -33.794371], [-70.228306, -33.791248], [-70.230285, -33.790546], [-70.233166, -33.78555], [-70.236156, -33.786043], [-70.239158, -33.784208], [-70.24309, -33.78392], [-70.250074, -33.78059], [-70.253151, -33.776891], [-70.258354, -33.776673], [-70.262734, -33.77496], [-70.265572, -33.774876], [-70.266774, -33.773665], [-70.269971, -33.772762], [-70.270947, -33.771248], [-70.273226, -33.769862], [-70.274453, -33.766374], [-70.276118, -33.764722], [-70.27623, -33.762966], [-70.278174, -33.760863], [-70.278785, -33.758761], [-70.28012, -33.75762], [-70.280957, -33.7547], [-70.280789, -33.751042], [-70.281689, -33.749134], [-70.281411, -33.745365], [-70.282019, -33.744283], [-70.283924, -33.743935], [-70.286509, -33.745374], [-70.289194, -33.743226], [-70.293159, -33.743576], [-70.294128, -33.741861], [-70.298054, -33.740237], [-70.301197, -33.73469], [-70.303552, -33.733211], [-70.308656, -33.734851], [-70.317862, -33.734175], [-70.321357, -33.731853], [-70.321838, -33.728778], [-70.323372, -33.726302], [-70.326081, -33.72569], [-70.327329, -33.724486], [-70.331152, -33.723704], [-70.333604, -33.721373], [-70.332959, -33.718904], [-70.334301, -33.714787], [-70.33488, -33.708272], [-70.336077, -33.705342], [-70.335217, -33.702674], [-70.335871, -33.695846], [-70.338065, -33.690874], [-70.336574, -33.688371], [-70.338928, -33.686668], [-70.339905, -33.68446], [-70.338828, -33.682317], [-70.339182, -33.680928], [-70.340466, -33.6794], [-70.343807, -33.678107], [-70.344454, -33.677179], [-70.34427, -33.674583], [-70.345956, -33.673326], [-70.34781, -33.67316], [-70.348655, -33.669525], [-70.356144, -33.663491], [-70.357007, -33.661607], [-70.356932, -33.660115], [-70.354561, -33.657906], [-70.357773, -33.654819], [-70.357111, -33.650822], [-70.358379, -33.645461], [-70.357722, -33.642181], [-70.358486, -33.638749], [-70.357612, -33.635924], [-70.353482, -33.632554], [-70.355423, -33.628438], [-70.352409, -33.625588], [-70.352465, -33.620056], [-70.351231, -33.616869], [-70.352272, -33.614651], [-70.349836, -33.612571], [-70.349396, -33.61088], [-70.350507, -33.608865], [-70.353667, -33.607797], [-70.355673, -33.603218], [-70.362748, -33.601587], [-70.364503, -33.599885], [-70.364995, -33.597372], [-70.36793, -33.596775], [-70.369154, -33.59513], [-70.373962, -33.596268], [-70.375669, -33.5981], [-70.378115, -33.597858], [-70.390034, -33.593058], [-70.394415, -33.592789], [-70.396834, -33.591629], [-70.398014, -33.58988], [-70.400203, -33.588593], [-70.401437, -33.588562], [-70.404028, -33.589831], [-70.406109, -33.588389], [-70.40944, -33.588164], [-70.411237, -33.585853], [-70.416586, -33.583369], [-70.418442, -33.579633], [-70.425915, -33.578068], [-70.433607, -33.579396], [-70.437439, -33.578875], [-70.440011, -33.57952], [-70.443639, -33.578538], [-70.448791, -33.579311], [-70.451959, -33.582618], [-70.453713, -33.583141], [-70.45763, -33.582983], [-70.461692, -33.581317], [-70.462178, -33.582707], [-70.461827, -33.584524], [-70.459437, -33.588801], [-70.460542, -33.590861], [-70.47202, -33.592185], [-70.475144, -33.591428], [-70.47693, -33.589855], [-70.4781, -33.589634], [-70.480361, -33.594259], [-70.483193, -33.595005], [-70.486819, -33.594234], [-70.488163, -33.59463], [-70.491744, -33.598298], [-70.501073, -33.602588], [-70.500767, -33.603939], [-70.497918, -33.605593], [-70.49764, -33.606662], [-70.498342, -33.607934], [-70.500252, -33.60899], [-70.503072, -33.608138], [-70.507682, -33.608365], [-70.508138, -33.608852], [-70.508173, -33.61298], [-70.511364, -33.613625], [-70.512067, -33.614809], [-70.514792, -33.614584], [-70.515817, -33.613414], [-70.517987, -33.613486], [-70.5173, -33.615082], [-70.518971, -33.616538], [-70.525687, -33.616982], [-70.527844, -33.61665], [-70.52948, -33.615312], [-70.539061, -33.619663], [-70.542534, -33.619006], [-70.544063, -33.618048], [-70.549308, -33.618429], [-70.557107, -33.621108], [-70.565084, -33.620404], [-70.566875, -33.621843], [-70.566328, -33.623232], [-70.56702, -33.625334], [-70.570885, -33.625068], [-70.577343, -33.627755], [-70.578854, -33.629218], [-70.580539, -33.634271], [-70.581603, -33.635168], [-70.587856, -33.633938], [-70.591318, -33.638282], [-70.596302, -33.637695], [-70.598611, -33.639314], [-70.60021, -33.639072], [-70.602771, -33.640752], [-70.608074, -33.641069], [-70.610027, -33.642094], [-70.611306, -33.641433], [-70.614074, -33.641375], [-70.616826, -33.642902], [-70.62351, -33.643358], [-70.626184, -33.642371], [-70.629471, -33.642586], [-70.634995, -33.644972], [-70.638254, -33.64549], [-70.642631, -33.647724], [-70.652324, -33.650325], [-70.656571, -33.653571], [-70.661254, -33.654441]], [[-70.784703, -33.72249], [-70.795032, -33.730039], [-70.798027, -33.731136], [-70.799257, -33.733182], [-70.803867, -33.736466], [-70.803989, -33.737402], [-70.807696, -33.739654], [-70.809825, -33.744678], [-70.814257, -33.746743], [-70.816122, -33.750802], [-70.818831, -33.752535], [-70.8194, -33.753851], [-70.822989, -33.756211], [-70.825019, -33.759196], [-70.827267, -33.760635], [-70.826867, -33.761961], [-70.827291, -33.763979], [-70.828965, -33.765447], [-70.832537, -33.766843], [-70.833584, -33.76847], [-70.836346, -33.770013], [-70.836845, -33.772546], [-70.840804, -33.774035], [-70.841488, -33.776131], [-70.842572, -33.777061], [-70.846917, -33.776838], [-70.852509, -33.778423], [-70.85738, -33.78224], [-70.857895, -33.785655], [-70.858734, -33.787], [-70.861044, -33.788029], [-70.862409, -33.792249], [-70.864081, -33.793535], [-70.8652, -33.795792], [-70.867575, -33.795289], [-70.869187, -33.79766], [-70.872728, -33.799748], [-70.874453, -33.80212], [-70.877143, -33.802235], [-70.879361, -33.803966], [-70.880793, -33.803935], [-70.886034, -33.801786], [-70.890597, -33.801568], [-70.894652, -33.802437], [-70.89845, -33.805177], [-70.900075, -33.804735], [-70.901376, -33.803351], [-70.90246, -33.800821], [-70.9029, -33.795817], [-70.904751, -33.794346], [-70.904793, -33.792117], [-70.90393, -33.790356], [-70.905043, -33.787813], [-70.904238, -33.785628], [-70.906169, -33.782712], [-70.905303, -33.779992], [-70.907228, -33.776588], [-70.909498, -33.775179], [-70.909439, -33.769833], [-70.910885, -33.769025], [-70.912631, -33.766015], [-70.914922, -33.766038], [-70.918156, -33.7647], [-70.919932, -33.763139], [-70.922871, -33.763339], [-70.923526, -33.761457], [-70.924843, -33.760113], [-70.92484, -33.758387], [-70.928142, -33.756859], [-70.931232, -33.752551], [-70.931892, -33.746799], [-70.931017, -33.743023], [-70.929212, -33.74036], [-70.928746, -33.738326], [-70.926798, -33.737403], [-70.924159, -33.734179], [-70.92229, -33.733169], [-70.920718, -33.730084], [-70.919235, -33.728993], [-70.918559, -33.726303], [-70.919897, -33.72355], [-70.928909, -33.719079], [-70.933893, -33.718519], [-70.936042, -33.719819], [-70.93713, -33.719804], [-70.938092, -33.719148], [-70.943766, -33.718434], [-70.94787, -33.715933], [-70.952362, -33.715659], [-70.956726, -33.717396], [-70.963931, -33.717621], [-70.967623, -33.719354], [-70.974822, -33.718786], [-70.976895, -33.719554], [-70.978472, -33.718941], [-70.983457, -33.719936], [-70.986604, -33.719902], [-70.987529, -33.720817], [-70.992099, -33.720531], [-70.99413, -33.721078], [-70.996796, -33.719945], [-71.002831, -33.720875], [-71.006597, -33.719541], [-71.00874, -33.717292], [-71.013638, -33.716603], [-71.01449, -33.717723], [-71.015638, -33.717897], [-71.018282, -33.714425], [-71.020543, -33.713663], [-71.022591, -33.714027], [-71.025318, -33.712937]], [[-70.074863, -34.092497], [-70.0762, -34.09236], [-70.076787, -34.091458], [-70.079459, -34.090132], [-70.087428, -34.088379], [-70.087715, -34.087069], [-70.089292, -34.086445], [-70.09117, -34.083072], [-70.092473, -34.082393], [-70.094817, -34.079007], [-70.094925, -34.077678], [-70.10045, -34.071875], [-70.100337, -34.070582], [-70.102757, -34.068625], [-70.103494, -34.067205], [-70.110672, -34.06385], [-70.114148, -34.060733], [-70.115494, -34.057995], [-70.115401, -34.054291], [-70.116651, -34.053033], [-70.116752, -34.046686], [-70.117611, -34.04593], [-70.11896, -34.040803], [-70.118096, -34.036802], [-70.118866, -34.035275], [-70.117973, -34.034026], [-70.118308, -34.032043], [-70.117332, -34.030074], [-70.118936, -34.029113], [-70.120754, -34.026428], [-70.120717, -34.02292], [-70.121387, -34.02184], [-70.120993, -34.019592], [-70.122551, -34.018263], [-70.121508, -34.01381], [-70.123104, -34.011922], [-70.125826, -34.01168], [-70.126768, -34.009527], [-70.128602, -34.0087], [-70.128884, -34.007471], [-70.130104, -34.006461], [-70.130475, -34.003955], [-70.131172, -34.003117], [-70.130161, -34.001209], [-70.133216, -33.999944], [-70.133852, -33.997071], [-70.139342, -33.995603], [-70.141238, -33.991887], [-70.144519, -33.988863], [-70.145404, -33.986846], [-70.147676, -33.985903], [-70.147987, -33.98472], [-70.146997, -33.983812], [-70.146857, -33.982664], [-70.147442, -33.97919], [-70.148968, -33.976566], [-70.148593, -33.975013], [-70.150186, -33.973243], [-70.150328, -33.970729], [-70.151865, -33.968153], [-70.155333, -33.964812], [-70.156739, -33.9609], [-70.161695, -33.960332], [-70.164303, -33.957444], [-70.164608, -33.954427], [-70.165947, -33.953364], [-70.173731, -33.951882], [-70.175451, -33.950296], [-70.179167, -33.95026], [-70.181882, -33.949459], [-70.184934, -33.946866], [-70.185244, -33.94271], [-70.186066, -33.941504], [-70.188142, -33.940569], [-70.191371, -33.94093], [-70.191989, -33.939521], [-70.194091, -33.938425], [-70.195135, -33.931659], [-70.196709, -33.930515], [-70.196215, -33.929087], [-70.197347, -33.92829], [-70.1979, -33.926118], [-70.197817, -33.924003], [-70.196162, -33.921733], [-70.197503, -33.920166], [-70.197036, -33.919325], [-70.198286, -33.918497], [-70.196891, -33.916222], [-70.197637, -33.910684], [-70.196382, -33.908877], [-70.196398, -33.907519], [-70.195121, -33.90499], [-70.198337, -33.902105], [-70.198933, -33.899151], [-70.198538, -33.896735], [-70.20003, -33.891329], [-70.200008, -33.889882], [-70.196819, -33.882877], [-70.199265, -33.880078], [-70.199051, -33.878312], [-70.199802, -33.877457], [-70.199769, -33.876333], [-70.198377, -33.873108], [-70.19649, -33.872294], [-70.19499, -33.870518], [-70.194059, -33.867543], [-70.194762, -33.865414], [-70.196344, -33.864222], [-70.196135, -33.86197], [-70.19691, -33.858792], [-70.198635, -33.855845], [-70.198973, -33.852954], [-70.197846, -33.850009], [-70.198528, -33.847826], [-70.201347, -33.8454], [-70.208006, -33.842979], [-70.209103, -33.84121], [-70.211568, -33.841495], [-70.212789, -33.840412], [-70.213119, -33.837649], [-70.211825, -33.83383]], [[-71.224448, -33.734608], [-71.228186, -33.73745], [-71.230191, -33.738059], [-71.231489, -33.739472], [-71.234724, -33.739934], [-71.238109, -33.741453], [-71.240523, -33.744361], [-71.244515, -33.744712], [-71.246209, -33.745704]], [[-69.940928, -34.171534], [-69.956254, -34.172457], [-69.961223, -34.170981], [-69.965191, -34.17105], [-69.967275, -34.169517], [-69.975405, -34.167731], [-69.97663, -34.165988], [-69.978376, -34.16524], [-69.978949, -34.163711], [-69.981083, -34.161783], [-69.980155, -34.158644], [-69.981623, -34.156671], [-69.980467, -34.156025], [-69.980936, -34.15431], [-69.982627, -34.15357], [-69.984358, -34.148758], [-69.983696, -34.146976], [-69.984951, -34.145702], [-69.98517, -34.143867], [-69.984525, -34.141118], [-69.988655, -34.136029], [-69.989192, -34.133065], [-69.990429, -34.132485], [-69.99041, -34.13104], [-69.99163, -34.130208], [-69.992239, -34.126431], [-69.995329, -34.124499], [-69.997456, -34.12499], [-69.999899, -34.124302], [-70.001895, -34.122934], [-70.004706, -34.12273], [-70.006406, -34.12146], [-70.007844, -34.119146], [-70.010043, -34.118902], [-70.010853, -34.117911], [-70.01249, -34.117365], [-70.017618, -34.112182], [-70.018755, -34.11184], [-70.02045, -34.10965], [-70.021448, -34.109482], [-70.025048, -34.105591], [-70.027687, -34.103721], [-70.028469, -34.102593], [-70.027946, -34.102032], [-70.028339, -34.100666], [-70.032032, -34.097684], [-70.038271, -34.096707], [-70.04164, -34.094059], [-70.045647, -34.095494], [-70.049338, -34.095494], [-70.054911, -34.093739], [-70.059321, -34.094868], [-70.06199, -34.094812], [-70.063531, -34.09414], [-70.067357, -34.094213], [-70.068235, -34.093547], [-70.074251, -34.093088], [-70.074863, -34.092497]], [[-71.422774, -33.786086], [-71.423329, -33.78744], [-71.425118, -33.788372], [-71.429128, -33.788388], [-71.432306, -33.789481], [-71.433443, -33.787757], [-71.437354, -33.786536]], [[-71.37561, -33.7635], [-71.380643, -33.766843], [-71.383029, -33.767282], [-71.383662, -33.769618], [-71.384627, -33.770055], [-71.387842, -33.768119], [-71.391924, -33.768926], [-71.395941, -33.766459], [-71.398223, -33.767866], [-71.401262, -33.772013], [-71.406721, -33.773527], [-71.407791, -33.774963], [-71.407812, -33.777047], [-71.411347, -33.777868], [-71.412222, -33.781145], [-71.415017, -33.783548], [-71.415408, -33.784678]], [[-71.456945, -33.785193], [-71.458747, -33.786348], [-71.465002, -33.78608], [-71.466258, -33.785577], [-71.465957, -33.783214], [-71.469771, -33.78209]], [[-71.471301, -33.784496], [-71.474508, -33.784282], [-71.476498, -33.783272], [-71.478419, -33.776142], [-71.482225, -33.775823], [-71.486691, -33.773935], [-71.489743, -33.77191], [-71.491352, -33.76932], [-71.50199, -33.769748], [-71.504871, -33.770448], [-71.509645, -33.772633], [-71.511359, -33.774907], [-71.516334, -33.774947], [-71.520681, -33.779744], [-71.521618, -33.779549], [-71.526462, -33.775429], [-71.527771, -33.773435], [-71.528066, -33.770969], [-71.53062, -33.767946]], [[-71.574664, -33.676995], [-71.577623, -33.675013], [-71.578712, -33.673086], [-71.581979, -33.672546], [-71.581754, -33.669332], [-71.583894, -33.665885], [-71.58435, -33.661076], [-71.585557, -33.660317], [-71.585836, -33.653903], [-71.587472, -33.647989], [-71.588513, -33.646343]], [[-70.857895, -33.785655], [-70.857423, -33.788036], [-70.859566, -33.789431], [-70.859759, -33.791045], [-70.861722, -33.792387], [-70.864284, -33.797808], [-70.873236, -33.800842], [-70.874988, -33.802402], [-70.877382, -33.802345]], [[-70.652617, -33.650484], [-70.657652, -33.650835], [-70.661254, -33.654441]], [[-70.661254, -33.654441], [-70.664005, -33.654947], [-70.666065, -33.657586], [-70.671959, -33.659226], [-70.672955, -33.660115], [-70.675273, -33.660116], [-70.677711, -33.659194], [-70.689971, -33.662295], [-70.69421, -33.661603], [-70.700063, -33.663845], [-70.701318, -33.666157], [-70.703389, -33.665965], [-70.706441, -33.667595], [-70.709912, -33.667698], [-70.710548, -33.671102], [-70.714334, -33.673579], [-70.715818, -33.675591], [-70.715668, -33.679354], [-70.717353, -33.680575], [-70.718277, -33.683078], [-70.718283, -33.685307], [-70.72248, -33.68883], [-70.72306, -33.691004], [-70.724182, -33.691087], [-70.726856, -33.692808], [-70.730359, -33.69198], [-70.733226, -33.692937], [-70.735015, -33.692564], [-70.73612, -33.693711], [-70.737469, -33.693848], [-70.738496, -33.695715], [-70.739891, -33.696717], [-70.745864, -33.697378], [-70.752221, -33.701533], [-70.754662, -33.702109], [-70.756824, -33.70114], [-70.758433, -33.701551], [-70.760005, -33.702836], [-70.761433, -33.705843], [-70.7684, -33.709166], [-70.770989, -33.709296], [-70.773016, -33.712549], [-70.775052, -33.712924], [-70.776098, -33.7142], [-70.777845, -33.714796], [-70.778719, -33.716576], [-70.782884, -33.717874], [-70.784703, -33.72249]], [[-71.437354, -33.786536], [-71.43892, -33.785967], [-71.444146, -33.786861], [-71.450443, -33.786638], [-71.454853, -33.785309], [-71.458039, -33.785131], [-71.46099, -33.782206], [-71.4678, -33.780574], [-71.469144, -33.78102], [-71.471301, -33.784496]], [[-71.415408, -33.784678], [-71.417305, -33.786147], [-71.419708, -33.786145], [-71.421282, -33.785441], [-71.422774, -33.786086]], [[-71.404502, -33.773038], [-71.405846, -33.774606], [-71.405076, -33.775793], [-71.405916, -33.777462], [-71.407181, -33.778435], [-71.408432, -33.778501], [-71.409588, -33.780102], [-71.410426, -33.784829], [-71.411495, -33.785316], [-71.413084, -33.784601], [-71.415408, -33.784678]], [[-71.347159, -33.737942], [-71.348106, -33.739785], [-71.351051, -33.74197], [-71.353176, -33.74226], [-71.355925, -33.741511], [-71.356907, -33.741977], [-71.358438, -33.746641], [-71.358199, -33.748343]], [[-71.345105, -33.73061], [-71.346481, -33.733878], [-71.347159, -33.737942]], [[-71.246209, -33.745704], [-71.247352, -33.745608], [-71.251831, -33.74206]], [[-71.199155, -33.705937], [-71.201304, -33.706125], [-71.202261, -33.706902]], [[-71.588513, -33.646343], [-71.591291, -33.643282], [-71.592815, -33.640155], [-71.597484, -33.637069], [-71.600218, -33.631638], [-71.606803, -33.629804], [-71.61196, -33.623308], [-71.62042, -33.621695], [-71.62822, -33.618376], [-71.627163, -33.614251], [-71.628081, -33.613459]], [[-71.574664, -33.676995], [-71.574935, -33.671667], [-71.579173, -33.669847], [-71.578548, -33.66618], [-71.581453, -33.665579], [-71.582232, -33.664727], [-71.581141, -33.658315], [-71.582816, -33.653546], [-71.585307, -33.650552], [-71.584473, -33.646083], [-71.588513, -33.646343]], [[-71.296285, -33.725046], [-71.301294, -33.721921], [-71.305431, -33.724213]], [[-71.2971, -33.72529], [-71.302332, -33.724313], [-71.30407, -33.72521], [-71.305431, -33.724213]], [[-71.275579, -33.729975], [-71.278176, -33.727434], [-71.279887, -33.726633], [-71.285855, -33.726863], [-71.291392, -33.725485], [-71.2971, -33.72529]], [[-71.251831, -33.74206], [-71.255028, -33.738415], [-71.260532, -33.738536], [-71.264856, -33.73527], [-71.26712, -33.735377], [-71.268632, -33.73684], [-71.269909, -33.737108], [-71.272248, -33.733914], [-71.274021, -33.733533], [-71.275059, -33.732482], [-71.275754, -33.729644], [-71.280209, -33.729694]], [[-69.84886, -34.225135], [-69.851148, -34.226012], [-69.852638, -34.227812], [-69.854358, -34.227496], [-69.856606, -34.228918], [-69.862939, -34.229382], [-69.864621, -34.230176], [-69.868204, -34.229272], [-69.868979, -34.227515], [-69.874995, -34.224846], [-69.879244, -34.215725], [-69.885307, -34.209866], [-69.888884, -34.205359], [-69.894163, -34.20164], [-69.896616, -34.200851], [-69.899397, -34.197712], [-69.901661, -34.193568], [-69.905062, -34.192937], [-69.90665, -34.19047], [-69.911349, -34.187116], [-69.912658, -34.186805], [-69.913473, -34.187293], [-69.915984, -34.18661], [-69.91813, -34.18503], [-69.9202, -34.182376], [-69.923612, -34.180477], [-69.937023, -34.175737], [-69.940928, -34.171534]], [[-70.074863, -34.092497], [-70.0762, -34.09236], [-70.076787, -34.091458], [-70.079459, -34.090132], [-70.087428, -34.088379], [-70.087715, -34.087069], [-70.089292, -34.086445], [-70.09117, -34.083072], [-70.092473, -34.082393], [-70.094817, -34.079007], [-70.094925, -34.077678], [-70.10045, -34.071875], [-70.100337, -34.070582], [-70.102757, -34.068625], [-70.103494, -34.067205], [-70.110672, -34.06385], [-70.114148, -34.060733], [-70.115494, -34.057995], [-70.115401, -34.054291], [-70.116651, -34.053033], [-70.116752, -34.046686], [-70.117611, -34.04593], [-70.11896, -34.040803], [-70.118096, -34.036802], [-70.118866, -34.035275], [-70.117973, -34.034026], [-70.118308, -34.032043], [-70.117332, -34.030074], [-70.118936, -34.029113], [-70.120754, -34.026428], [-70.120717, -34.02292], [-70.121387, -34.02184], [-70.120993, -34.019592], [-70.122551, -34.018263], [-70.121508, -34.01381], [-70.123104, -34.011922], [-70.125826, -34.01168], [-70.126768, -34.009527], [-70.128602, -34.0087], [-70.128884, -34.007471], [-70.130104, -34.006461], [-70.130475, -34.003955], [-70.131172, -34.003117], [-70.130161, -34.001209], [-70.133216, -33.999944], [-70.133852, -33.997071], [-70.139342, -33.995603], [-70.141238, -33.991887], [-70.144519, -33.988863], [-70.145404, -33.986846], [-70.147676, -33.985903], [-70.147987, -33.98472], [-70.146997, -33.983812], [-70.146857, -33.982664], [-70.147442, -33.97919], [-70.148968, -33.976566], [-70.148593, -33.975013], [-70.150186, -33.973243], [-70.150328, -33.970729], [-70.151865, -33.968153], [-70.155333, -33.964812], [-70.156739, -33.9609], [-70.161695, -33.960332], [-70.164303, -33.957444], [-70.164608, -33.954427], [-70.165947, -33.953364], [-70.173731, -33.951882], [-70.175451, -33.950296], [-70.179167, -33.95026], [-70.181882, -33.949459], [-70.184934, -33.946866], [-70.185244, -33.94271], [-70.186066, -33.941504], [-70.188142, -33.940569], [-70.191371, -33.94093], [-70.191989, -33.939521], [-70.194091, -33.938425], [-70.195135, -33.931659], [-70.196709, -33.930515], [-70.196215, -33.929087], [-70.197347, -33.92829], [-70.1979, -33.926118], [-70.197817, -33.924003], [-70.196162, -33.921733], [-70.197503, -33.920166], [-70.197036, -33.919325], [-70.198286, -33.918497], [-70.196891, -33.916222], [-70.197637, -33.910684], [-70.196382, -33.908877], [-70.196398, -33.907519], [-70.195121, -33.90499], [-70.198337, -33.902105], [-70.198933, -33.899151], [-70.198538, -33.896735], [-70.20003, -33.891329], [-70.200008, -33.889882], [-70.196819, -33.882877], [-70.199265, -33.880078], [-70.199051, -33.878312], [-70.199802, -33.877457], [-70.199769, -33.876333], [-70.198377, -33.873108], [-70.19649, -33.872294], [-70.19499, -33.870518], [-70.194059, -33.867543], [-70.194762, -33.865414], [-70.196344, -33.864222], [-70.196135, -33.86197], [-70.19691, -33.858792], [-70.198635, -33.855845], [-70.198973, -33.852954], [-70.197846, -33.850009], [-70.198528, -33.847826], [-70.201347, -33.8454], [-70.208006, -33.842979], [-70.209103, -33.84121], [-70.211568, -33.841495], [-70.212789, -33.840412], [-70.213119, -33.837649], [-70.211825, -33.83383]], [[-69.940928, -34.171534], [-69.956254, -34.172457], [-69.961223, -34.170981], [-69.965191, -34.17105], [-69.967275, -34.169517], [-69.975405, -34.167731], [-69.97663, -34.165988], [-69.978376, -34.16524], [-69.978949, -34.163711], [-69.981083, -34.161783], [-69.980155, -34.158644], [-69.981623, -34.156671], [-69.980467, -34.156025], [-69.980936, -34.15431], [-69.982627, -34.15357], [-69.984358, -34.148758], [-69.983696, -34.146976], [-69.984951, -34.145702], [-69.98517, -34.143867], [-69.984525, -34.141118], [-69.988655, -34.136029], [-69.989192, -34.133065], [-69.990429, -34.132485], [-69.99041, -34.13104], [-69.99163, -34.130208], [-69.992239, -34.126431], [-69.995329, -34.124499], [-69.997456, -34.12499], [-69.999899, -34.124302], [-70.001895, -34.122934], [-70.004706, -34.12273], [-70.006406, -34.12146], [-70.007844, -34.119146], [-70.010043, -34.118902], [-70.010853, -34.117911], [-70.01249, -34.117365], [-70.017618, -34.112182], [-70.018755, -34.11184], [-70.02045, -34.10965], [-70.021448, -34.109482], [-70.025048, -34.105591], [-70.027687, -34.103721], [-70.028469, -34.102593], [-70.027946, -34.102032], [-70.028339, -34.100666], [-70.032032, -34.097684], [-70.038271, -34.096707], [-70.04164, -34.094059], [-70.045647, -34.095494], [-70.049338, -34.095494], [-70.054911, -34.093739], [-70.059321, -34.094868], [-70.06199, -34.094812], [-70.063531, -34.09414], [-70.067357, -34.094213], [-70.068235, -34.093547], [-70.074251, -34.093088], [-70.074863, -34.092497]], [[-69.84886, -34.225135], [-69.851148, -34.226012], [-69.852638, -34.227812], [-69.854358, -34.227496], [-69.856606, -34.228918], [-69.862939, -34.229382], [-69.864621, -34.230176], [-69.868204, -34.229272], [-69.868979, -34.227515], [-69.874995, -34.224846], [-69.879244, -34.215725], [-69.885307, -34.209866], [-69.888884, -34.205359], [-69.894163, -34.20164], [-69.896616, -34.200851], [-69.899397, -34.197712], [-69.901661, -34.193568], [-69.905062, -34.192937], [-69.90665, -34.19047], [-69.911349, -34.187116], [-69.912658, -34.186805], [-69.913473, -34.187293], [-69.915984, -34.18661], [-69.91813, -34.18503], [-69.9202, -34.182376], [-69.923612, -34.180477], [-69.937023, -34.175737], [-69.940928, -34.171534]], [[-70.211825, -33.83383], [-70.211944, -33.832641], [-70.216917, -33.831991], [-70.218156, -33.831108], [-70.222161, -33.824785], [-70.222431, -33.823276], [-70.224954, -33.821432], [-70.223472, -33.816901], [-70.217274, -33.809689], [-70.218305, -33.807849], [-70.218121, -33.806164], [-70.220232, -33.805829], [-70.221207, -33.803007], [-70.220461, -33.800354], [-70.221739, -33.794944], [-70.225449, -33.794371], [-70.228306, -33.791248], [-70.230285, -33.790546], [-70.233166, -33.78555], [-70.236156, -33.786043], [-70.239158, -33.784208], [-70.24309, -33.78392], [-70.250074, -33.78059], [-70.253151, -33.776891], [-70.258354, -33.776673], [-70.262734, -33.77496], [-70.265572, -33.774876], [-70.266774, -33.773665], [-70.269971, -33.772762], [-70.270947, -33.771248], [-70.273226, -33.769862], [-70.274453, -33.766374], [-70.276118, -33.764722], [-70.27623, -33.762966], [-70.278174, -33.760863], [-70.278785, -33.758761], [-70.28012, -33.75762], [-70.280957, -33.7547], [-70.280789, -33.751042], [-70.281689, -33.749134], [-70.281411, -33.745365], [-70.282019, -33.744283], [-70.283924, -33.743935], [-70.286509, -33.745374], [-70.289194, -33.743226], [-70.293159, -33.743576], [-70.294128, -33.741861], [-70.298054, -33.740237], [-70.301197, -33.73469], [-70.303552, -33.733211], [-70.308656, -33.734851], [-70.317862, -33.734175], [-70.321357, -33.731853], [-70.321838, -33.728778], [-70.323372, -33.726302], [-70.326081, -33.72569], [-70.327329, -33.724486], [-70.331152, -33.723704], [-70.333604, -33.721373], [-70.332959, -33.718904], [-70.334301, -33.714787], [-70.33488, -33.708272], [-70.336077, -33.705342], [-70.335217, -33.702674], [-70.335871, -33.695846], [-70.338065, -33.690874], [-70.336574, -33.688371], [-70.338928, -33.686668], [-70.339905, -33.68446], [-70.338828, -33.682317], [-70.339182, -33.680928], [-70.340466, -33.6794], [-70.343807, -33.678107], [-70.344454, -33.677179], [-70.34427, -33.674583], [-70.345956, -33.673326], [-70.34781, -33.67316], [-70.348655, -33.669525], [-70.356144, -33.663491], [-70.357007, -33.661607], [-70.356932, -33.660115], [-70.354561, -33.657906], [-70.357773, -33.654819], [-70.357111, -33.650822], [-70.358379, -33.645461], [-70.357722, -33.642181], [-70.358486, -33.638749], [-70.357612, -33.635924], [-70.353482, -33.632554], [-70.355423, -33.628438], [-70.352409, -33.625588], [-70.352465, -33.620056], [-70.351231, -33.616869], [-70.352272, -33.614651], [-70.349836, -33.612571], [-70.349396, -33.61088], [-70.350507, -33.608865], [-70.353667, -33.607797], [-70.355673, -33.603218], [-70.362748, -33.601587], [-70.364503, -33.599885], [-70.364995, -33.597372], [-70.36793, -33.596775], [-70.369154, -33.59513], [-70.373962, -33.596268], [-70.375669, -33.5981], [-70.378115, -33.597858], [-70.390034, -33.593058], [-70.394415, -33.592789], [-70.396834, -33.591629], [-70.398014, -33.58988], [-70.400203, -33.588593], [-70.401437, -33.588562], [-70.404028, -33.589831], [-70.406109, -33.588389], [-70.40944, -33.588164], [-70.411237, -33.585853], [-70.416586, -33.583369], [-70.418442, -33.579633], [-70.425915, -33.578068], [-70.433607, -33.579396], [-70.437439, -33.578875], [-70.440011, -33.57952], [-70.443639, -33.578538], [-70.448791, -33.579311], [-70.451959, -33.582618], [-70.453713, -33.583141], [-70.45763, -33.582983], [-70.461692, -33.581317], [-70.462178, -33.582707], [-70.461827, -33.584524], [-70.459437, -33.588801], [-70.460542, -33.590861], [-70.47202, -33.592185], [-70.475144, -33.591428], [-70.47693, -33.589855], [-70.4781, -33.589634], [-70.480361, -33.594259], [-70.483193, -33.595005], [-70.486819, -33.594234], [-70.488163, -33.59463], [-70.491744, -33.598298], [-70.501073, -33.602588], [-70.500767, -33.603939], [-70.497918, -33.605593], [-70.49764, -33.606662], [-70.498342, -33.607934], [-70.500252, -33.60899], [-70.503072, -33.608138], [-70.507682, -33.608365], [-70.508138, -33.608852], [-70.508173, -33.61298], [-70.511364, -33.613625], [-70.512067, -33.614809], [-70.514792, -33.614584], [-70.515817, -33.613414], [-70.517987, -33.613486], [-70.5173, -33.615082], [-70.518971, -33.616538], [-70.525687, -33.616982], [-70.527844, -33.61665], [-70.52948, -33.615312], [-70.539061, -33.619663], [-70.542534, -33.619006], [-70.544063, -33.618048], [-70.549308, -33.618429], [-70.557107, -33.621108], [-70.565084, -33.620404], [-70.566875, -33.621843], [-70.566328, -33.623232], [-70.56702, -33.625334], [-70.570885, -33.625068], [-70.577343, -33.627755], [-70.578854, -33.629218], [-70.580539, -33.634271], [-70.581603, -33.635168], [-70.587856, -33.633938], [-70.591318, -33.638282], [-70.596302, -33.637695], [-70.598611, -33.639314], [-70.60021, -33.639072], [-70.602771, -33.640752], [-70.608074, -33.641069], [-70.610027, -33.642094], [-70.611306, -33.641433], [-70.614074, -33.641375], [-70.616826, -33.642902], [-70.62351, -33.643358], [-70.626184, -33.642371], [-70.629471, -33.642586], [-70.634995, -33.644972], [-70.638254, -33.64549], [-70.642631, -33.647724], [-70.652324, -33.650325], [-70.656571, -33.653571], [-70.661254, -33.654441]], [[-70.661254, -33.654441], [-70.664005, -33.654947], [-70.666065, -33.657586], [-70.671959, -33.659226], [-70.672955, -33.660115], [-70.675273, -33.660116], [-70.677711, -33.659194], [-70.689971, -33.662295], [-70.69421, -33.661603], [-70.700063, -33.663845], [-70.701318, -33.666157], [-70.703389, -33.665965], [-70.706441, -33.667595], [-70.709912, -33.667698], [-70.710548, -33.671102], [-70.714334, -33.673579], [-70.715818, -33.675591], [-70.715668, -33.679354], [-70.717353, -33.680575], [-70.718277, -33.683078], [-70.718283, -33.685307], [-70.72248, -33.68883], [-70.72306, -33.691004], [-70.724182, -33.691087], [-70.726856, -33.692808], [-70.730359, -33.69198], [-70.733226, -33.692937], [-70.735015, -33.692564], [-70.73612, -33.693711], [-70.737469, -33.693848], [-70.738496, -33.695715], [-70.739891, -33.696717], [-70.745864, -33.697378], [-70.752221, -33.701533], [-70.754662, -33.702109], [-70.756824, -33.70114], [-70.758433, -33.701551], [-70.760005, -33.702836], [-70.761433, -33.705843], [-70.7684, -33.709166], [-70.770989, -33.709296], [-70.773016, -33.712549], [-70.775052, -33.712924], [-70.776098, -33.7142], [-70.777845, -33.714796], [-70.778719, -33.716576], [-70.782884, -33.717874], [-70.784703, -33.72249]], [[-70.784703, -33.72249], [-70.795032, -33.730039], [-70.798027, -33.731136], [-70.799257, -33.733182], [-70.803867, -33.736466], [-70.803989, -33.737402], [-70.807696, -33.739654], [-70.809825, -33.744678], [-70.814257, -33.746743], [-70.816122, -33.750802], [-70.818831, -33.752535], [-70.8194, -33.753851], [-70.822989, -33.756211], [-70.825019, -33.759196], [-70.827267, -33.760635], [-70.826867, -33.761961], [-70.827291, -33.763979], [-70.828965, -33.765447], [-70.832537, -33.766843], [-70.833584, -33.76847], [-70.836346, -33.770013], [-70.836845, -33.772546], [-70.840804, -33.774035], [-70.841488, -33.776131], [-70.842572, -33.777061], [-70.846917, -33.776838], [-70.852509, -33.778423], [-70.85738, -33.78224], [-70.857895, -33.785655], [-70.858734, -33.787], [-70.861044, -33.788029], [-70.862409, -33.792249], [-70.864081, -33.793535], [-70.8652, -33.795792], [-70.867575, -33.795289], [-70.869187, -33.79766], [-70.872728, -33.799748], [-70.874453, -33.80212], [-70.877143, -33.802235], [-70.879361, -33.803966], [-70.880793, -33.803935], [-70.886034, -33.801786], [-70.890597, -33.801568], [-70.894652, -33.802437], [-70.89845, -33.805177], [-70.900075, -33.804735], [-70.901376, -33.803351], [-70.90246, -33.800821], [-70.9029, -33.795817], [-70.904751, -33.794346], [-70.904793, -33.792117], [-70.90393, -33.790356], [-70.905043, -33.787813], [-70.904238, -33.785628], [-70.906169, -33.782712], [-70.905303, -33.779992], [-70.907228, -33.776588], [-70.909498, -33.775179], [-70.909439, -33.769833], [-70.910885, -33.769025], [-70.912631, -33.766015], [-70.914922, -33.766038], [-70.918156, -33.7647], [-70.919932, -33.763139], [-70.922871, -33.763339], [-70.923526, -33.761457], [-70.924843, -33.760113], [-70.92484, -33.758387], [-70.928142, -33.756859], [-70.931232, -33.752551], [-70.931892, -33.746799], [-70.931017, -33.743023], [-70.929212, -33.74036], [-70.928746, -33.738326], [-70.926798, -33.737403], [-70.924159, -33.734179], [-70.92229, -33.733169], [-70.920718, -33.730084], [-70.919235, -33.728993], [-70.918559, -33.726303], [-70.919897, -33.72355], [-70.928909, -33.719079], [-70.933893, -33.718519], [-70.936042, -33.719819], [-70.93713, -33.719804], [-70.938092, -33.719148], [-70.943766, -33.718434], [-70.94787, -33.715933], [-70.952362, -33.715659], [-70.956726, -33.717396], [-70.963931, -33.717621], [-70.967623, -33.719354], [-70.974822, -33.718786], [-70.976895, -33.719554], [-70.978472, -33.718941], [-70.983457, -33.719936], [-70.986604, -33.719902], [-70.987529, -33.720817], [-70.992099, -33.720531], [-70.99413, -33.721078], [-70.996796, -33.719945], [-71.002831, -33.720875], [-71.006597, -33.719541], [-71.00874, -33.717292], [-71.013638, -33.716603], [-71.01449, -33.717723], [-71.015638, -33.717897], [-71.018282, -33.714425], [-71.020543, -33.713663], [-71.022591, -33.714027], [-71.025318, -33.712937]], [[-71.025318, -33.712937], [-71.028473, -33.712872], [-71.030696, -33.714695], [-71.033788, -33.713438], [-71.038839, -33.714849], [-71.03962, -33.713798], [-71.040806, -33.713544], [-71.043482, -33.715635], [-71.047323, -33.716415], [-71.053981, -33.719891], [-71.058036, -33.719751], [-71.060219, -33.718825], [-71.061952, -33.719535], [-71.069012, -33.716705], [-71.074789, -33.716937], [-71.076404, -33.718423], [-71.078984, -33.718666], [-71.080154, -33.71961], [-71.085156, -33.717928], [-71.089917, -33.714883], [-71.089689, -33.713635], [-71.091671, -33.709191], [-71.093554, -33.706986], [-71.096335, -33.707531], [-71.100119, -33.704887], [-71.106058, -33.704668], [-71.109371, -33.702334], [-71.113794, -33.702948], [-71.119158, -33.699101], [-71.12043, -33.697081], [-71.123353, -33.698244], [-71.12743, -33.698704], [-71.129217, -33.696722], [-71.129023, -33.694504], [-71.130263, -33.693669], [-71.135709, -33.695324], [-71.13705, -33.695127], [-71.140289, -33.693084], [-71.141674, -33.692976], [-71.144324, -33.693735], [-71.146595, -33.695517], [-71.148453, -33.695789], [-71.15068, -33.695307], [-71.152163, -33.69254], [-71.158812, -33.692522], [-71.162857, -33.691367], [-71.165644, -33.691531], [-71.168023, -33.693162], [-71.17027, -33.69329], [-71.174589, -33.697806], [-71.177263, -33.697744], [-71.179642, -33.699565], [-71.184534, -33.699509], [-71.185994, -33.701935], [-71.188965, -33.703836], [-71.191237, -33.703878], [-71.195902, -33.705643], [-71.199155, -33.705937]], [[-71.199155, -33.705937], [-71.201304, -33.706125], [-71.202261, -33.706902]], [[-71.202261, -33.706902], [-71.205617, -33.707745], [-71.206534, -33.709579], [-71.210679, -33.710678], [-71.212703, -33.712926], [-71.217676, -33.722559], [-71.217131, -33.727251], [-71.219205, -33.729381], [-71.220862, -33.729863], [-71.220758, -33.730931], [-71.221491, -33.731979], [-71.224448, -33.734608], [-71.22716, -33.735489], [-71.230482, -33.738099], [-71.235083, -33.738098], [-71.243463, -33.743342], [-71.247121, -33.743228], [-71.248154, -33.74073], [-71.249135, -33.74011], [-71.251831, -33.74206]], [[-71.251831, -33.74206], [-71.255028, -33.738415], [-71.260532, -33.738536], [-71.264856, -33.73527], [-71.26712, -33.735377], [-71.268632, -33.73684], [-71.269909, -33.737108], [-71.272248, -33.733914], [-71.274021, -33.733533], [-71.275059, -33.732482], [-71.275754, -33.729644], [-71.280209, -33.729694]], [[-71.280209, -33.729694], [-71.282773, -33.730621], [-71.286753, -33.728864], [-71.292027, -33.728083], [-71.2971, -33.72529]], [[-71.2971, -33.72529], [-71.302332, -33.724313], [-71.30407, -33.72521], [-71.305431, -33.724213]], [[-71.305431, -33.724213], [-71.307667, -33.724625], [-71.309059, -33.726599], [-71.312929, -33.727866], [-71.316287, -33.728145], [-71.318197, -33.730528], [-71.320015, -33.730891], [-71.321847, -33.733263], [-71.323054, -33.733254], [-71.324873, -33.73121], [-71.327872, -33.730871], [-71.329561, -33.729832], [-71.331224, -33.730385], [-71.336589, -33.729595], [-71.342307, -33.730813], [-71.345105, -33.73061]], [[-71.345105, -33.73061], [-71.346481, -33.733878], [-71.347159, -33.737942]], [[-71.347159, -33.737942], [-71.348106, -33.739785], [-71.351051, -33.74197], [-71.353176, -33.74226], [-71.355925, -33.741511], [-71.356907, -33.741977], [-71.358438, -33.746641], [-71.358199, -33.748343]], [[-71.358199, -33.748343], [-71.358663, -33.749435], [-71.358143, -33.755374], [-71.359393, -33.758411], [-71.362, -33.759334], [-71.366597, -33.758661], [-71.367585, -33.759486], [-71.368641, -33.762019], [-71.37561, -33.7635]], [[-71.37561, -33.7635], [-71.380643, -33.766843], [-71.383029, -33.767282], [-71.383662, -33.769618], [-71.384627, -33.770055], [-71.387842, -33.768119], [-71.391924, -33.768926], [-71.395941, -33.766459], [-71.398223, -33.767866], [-71.401262, -33.772013], [-71.406721, -33.773527], [-71.407791, -33.774963], [-71.407812, -33.777047], [-71.411347, -33.777868], [-71.412222, -33.781145], [-71.415017, -33.783548], [-71.415408, -33.784678]], [[-71.415408, -33.784678], [-71.417305, -33.786147], [-71.419708, -33.786145], [-71.421282, -33.785441], [-71.422774, -33.786086]], [[-71.422774, -33.786086], [-71.423329, -33.78744], [-71.425118, -33.788372], [-71.429128, -33.788388], [-71.432306, -33.789481], [-71.433443, -33.787757], [-71.437354, -33.786536]], [[-71.437354, -33.786536], [-71.43892, -33.785967], [-71.444146, -33.786861], [-71.450443, -33.786638], [-71.454853, -33.785309], [-71.458039, -33.785131], [-71.46099, -33.782206], [-71.4678, -33.780574], [-71.469144, -33.78102], [-71.471301, -33.784496]], [[-71.471301, -33.784496], [-71.474508, -33.784282], [-71.476498, -33.783272], [-71.478419, -33.776142], [-71.482225, -33.775823], [-71.486691, -33.773935], [-71.489743, -33.77191], [-71.491352, -33.76932], [-71.50199, -33.769748], [-71.504871, -33.770448], [-71.509645, -33.772633], [-71.511359, -33.774907], [-71.516334, -33.774947], [-71.520681, -33.779744], [-71.521618, -33.779549], [-71.526462, -33.775429], [-71.527771, -33.773435], [-71.528066, -33.770969], [-71.53062, -33.767946]], [[-71.53062, -33.767946], [-71.534589, -33.765672], [-71.538683, -33.760552], [-71.538913, -33.755057], [-71.539959, -33.752149], [-71.536156, -33.748153], [-71.536151, -33.747328], [-71.540346, -33.744825], [-71.543108, -33.747073], [-71.544605, -33.747377], [-71.547223, -33.745303], [-71.554084, -33.742461], [-71.556895, -33.738879], [-71.560891, -33.736542], [-71.561465, -33.733013], [-71.560468, -33.729056], [-71.554604, -33.72253], [-71.55329, -33.719525], [-71.554135, -33.7181], [-71.556546, -33.717754], [-71.5552, -33.715996], [-71.554958, -33.71451], [-71.55579, -33.709871], [-71.557976, -33.704849], [-71.559891, -33.703122], [-71.562106, -33.702158], [-71.565969, -33.703032], [-71.567632, -33.700299], [-71.567693, -33.697195], [-71.568584, -33.695227], [-71.567672, -33.69212], [-71.570145, -33.690156], [-71.571518, -33.686907], [-71.574538, -33.68314], [-71.574673, -33.680917], [-71.572822, -33.680501], [-71.57207, -33.678263], [-71.572761, -33.67733], [-71.574664, -33.676995]], [[-71.574664, -33.676995], [-71.577623, -33.675013], [-71.578712, -33.673086], [-71.581979, -33.672546], [-71.581754, -33.669332], [-71.583894, -33.665885], [-71.58435, -33.661076], [-71.585557, -33.660317], [-71.585836, -33.653903], [-71.587472, -33.647989], [-71.588513, -33.646343]], [[-71.588513, -33.646343], [-71.591291, -33.643282], [-71.592815, -33.640155], [-71.597484, -33.637069], [-71.600218, -33.631638], [-71.606803, -33.629804], [-71.61196, -33.623308], [-71.62042, -33.621695], [-71.62822, -33.618376], [-71.627163, -33.614251], [-71.628081, -33.613459]], [[-71.574664, -33.676995], [-71.574935, -33.671667], [-71.579173, -33.669847], [-71.578548, -33.66618], [-71.581453, -33.665579], [-71.582232, -33.664727], [-71.581141, -33.658315], [-71.582816, -33.653546], [-71.585307, -33.650552], [-71.584473, -33.646083], [-71.588513, -33.646343]], [[-71.456945, -33.785193], [-71.458747, -33.786348], [-71.465002, -33.78608], [-71.466258, -33.785577], [-71.465957, -33.783214], [-71.469771, -33.78209]], [[-70.857895, -33.785655], [-70.857423, -33.788036], [-70.859566, -33.789431], [-70.859759, -33.791045], [-70.861722, -33.792387], [-70.864284, -33.797808], [-70.873236, -33.800842], [-70.874988, -33.802402], [-70.877382, -33.802345]], [[-70.652617, -33.650484], [-70.657652, -33.650835], [-70.661254, -33.654441]], [[-71.224448, -33.734608], [-71.228186, -33.73745], [-71.230191, -33.738059], [-71.231489, -33.739472], [-71.234724, -33.739934], [-71.238109, -33.741453], [-71.240523, -33.744361], [-71.244515, -33.744712], [-71.246209, -33.745704]], [[-71.246209, -33.745704], [-71.247352, -33.745608], [-71.251831, -33.74206]], [[-71.19083, -33.703851], [-71.193262, -33.70253], [-71.198418, -33.704786], [-71.199155, -33.705937]], [[-71.296285, -33.725046], [-71.301294, -33.721921], [-71.305431, -33.724213]], [[-71.404502, -33.773038], [-71.405846, -33.774606], [-71.405076, -33.775793], [-71.405916, -33.777462], [-71.407181, -33.778435], [-71.408432, -33.778501], [-71.409588, -33.780102], [-71.410426, -33.784829], [-71.411495, -33.785316], [-71.413084, -33.784601], [-71.415408, -33.784678]], [[-71.422774, -33.786086], [-71.42638, -33.785643], [-71.428487, -33.784328], [-71.430126, -33.784989], [-71.430772, -33.786846], [-71.432186, -33.786887], [-71.434463, -33.785588], [-71.437354, -33.786536]], [[-71.304212, -33.723517], [-71.30724, -33.722811], [-71.309665, -33.72314], [-71.310665, -33.722457], [-71.311339, -33.723882], [-71.312744, -33.723715], [-71.316078, -33.722488], [-71.318291, -33.722622], [-71.319147, -33.721511], [-71.3228, -33.720007], [-71.324017, -33.72021], [-71.325796, -33.72173], [-71.329572, -33.72079], [-71.331967, -33.725502], [-71.334159, -33.726111], [-71.337404, -33.725388], [-71.341197, -33.728377], [-71.344322, -33.729285], [-71.345105, -33.73061]], [[-71.275579, -33.729975], [-71.278176, -33.727434], [-71.279887, -33.726633], [-71.285855, -33.726863], [-71.291392, -33.725485], [-71.2971, -33.72529]], [[-71.347159, -33.737942], [-71.347563, -33.737604], [-71.348291, -33.739084], [-71.352124, -33.741707], [-71.354898, -33.741703]], [[-71.354898, -33.741703], [-71.355386, -33.743527], [-71.354265, -33.745075], [-71.354447, -33.745762], [-71.355552, -33.747194], [-71.357389, -33.747519], [-71.358199, -33.748343]]]}]}}