{"type": "Feature", "properties": {"id": "rio-ibanez", "name": "Río Ibáñez", "type": "river", "region": "aysen"}, "geometry": {"type": "MultiLineString", "coordinates": [[[-72.908249, -46.050915], [-72.905123, -46.050897], [-72.903235, -46.052967], [-72.900038, -46.054412], [-72.898943, -46.054263], [-72.895897, -46.055662], [-72.893944, -46.05535], [-72.885833, -46.062541], [-72.878269, -46.064417], [-72.876434, -46.066182], [-72.87196, -46.067343], [-72.869117, -46.069516], [-72.868924, -46.070879], [-72.861736, -46.07393], [-72.855459, -46.075434], [-72.848153, -46.075069], [-72.84487, -46.072769], [-72.838605, -46.073439], [-72.83442, -46.072129], [-72.829742, -46.074183], [-72.820559, -46.074154], [-72.800753, -46.071787], [-72.794466, -46.069167], [-72.790711, -46.069851], [-72.789445, -46.06939], [-72.788844, -46.068244], [-72.783737, -46.065623], [-72.776849, -46.064209], [-72.774253, -46.065072], [-72.773116, -46.064715], [-72.771292, -46.061172], [-72.768953, -46.060085], [-72.756668, -46.059497], [-72.752227, -46.058097], [-72.749931, -46.058581], [-72.749555, -46.057732], [-72.744749, -46.054389], [-72.742249, -46.053749], [-72.741669, -46.052409], [-72.742056, -46.050324], [-72.736777, -46.049914], [-72.735522, -46.050086], [-72.735361, -46.05077], [-72.734191, -46.051202], [-72.73226, -46.050607], [-72.732797, -46.048313], [-72.721938, -46.049033], [-72.715116, -46.048723], [-72.713892, -46.049379], [-72.71165, -46.047994], [-72.703705, -46.046641], [-72.704048, -46.045525], [-72.700181, -46.044739], [-72.695686, -46.045327], [-72.694097, -46.046519], [-72.690171, -46.047896], [-72.689592, -46.048998], [-72.685192, -46.049861], [-72.682899, -46.048478], [-72.678128, -46.047461], [-72.672957, -46.044482], [-72.672372, -46.043264], [-72.66057, -46.044151], [-72.658618, -46.044836], [-72.657566, -46.046055], [-72.654991, -46.046609], [-72.643865, -46.045655], [-72.640137, -46.042893], [-72.631495, -46.045313], [-72.626603, -46.044553], [-72.623159, -46.046154], [-72.620155, -46.045499], [-72.617365, -46.046288], [-72.611528, -46.04611], [-72.609511, -46.046576], [-72.605123, -46.051297], [-72.600917, -46.054144], [-72.598085, -46.054873], [-72.599372, -46.059159], [-72.60066, -46.070119], [-72.600467, -46.072859], [-72.599458, -46.075059], [-72.596797, -46.075238], [-72.592677, -46.079167], [-72.586712, -46.081102], [-72.586154, -46.083439], [-72.584996, -46.084632], [-72.575511, -46.08774], [-72.570876, -46.090615], [-72.568865, -46.092501], [-72.570126, -46.096329], [-72.569332, -46.09752], [-72.561607, -46.098829], [-72.55547, -46.103039], [-72.550476, -46.103898], [-72.539197, -46.104195], [-72.52867, -46.108953], [-72.524303, -46.10844], [-72.519969, -46.108893], [-72.510935, -46.115625], [-72.509025, -46.114725], [-72.497642, -46.116093], [-72.491645, -46.115149], [-72.489188, -46.115416], [-72.482783, -46.118495], [-72.481302, -46.120399], [-72.481077, -46.122303], [-72.478985, -46.123002], [-72.474489, -46.126854], [-72.470627, -46.12559], [-72.465574, -46.126608], [-72.460145, -46.125114], [-72.452066, -46.127434], [-72.440275, -46.12791], [-72.435908, -46.12904], [-72.428216, -46.132631], [-72.423205, -46.13333], [-72.415749, -46.131597], [-72.412938, -46.129531], [-72.409644, -46.125523], [-72.40649, -46.124214], [-72.403454, -46.123976], [-72.400664, -46.124757], [-72.398862, -46.127159], [-72.389635, -46.134869], [-72.371934, -46.135162], [-72.365154, -46.137868], [-72.360648, -46.140722], [-72.354811, -46.142358], [-72.352108, -46.141852], [-72.349447, -46.139949], [-72.34567, -46.139117], [-72.34155, -46.140395], [-72.330907, -46.142031], [-72.321852, -46.140901], [-72.315515, -46.139042], [-72.307159, -46.132725], [-72.293436, -46.130743], [-72.289135, -46.133677], [-72.28347, -46.133796], [-72.271797, -46.130346]], [[-71.99539, -46.255663], [-71.9965, -46.256259], [-71.996635, -46.257456]], [[-72.271797, -46.130346], [-72.262909, -46.124299], [-72.260473, -46.123557], [-72.255317, -46.124873], [-72.250854, -46.125112], [-72.245876, -46.122732], [-72.242271, -46.122256], [-72.233761, -46.123935], [-72.22183, -46.129315], [-72.218279, -46.129973], [-72.213376, -46.127579], [-72.210013, -46.123069], [-72.205238, -46.120518], [-72.203382, -46.117045], [-72.202095, -46.116048], [-72.198029, -46.115773], [-72.190787, -46.117216], [-72.181195, -46.115892], [-72.175647, -46.116845], [-72.173587, -46.120415], [-72.17539, -46.123642], [-72.174939, -46.124505], [-72.168348, -46.124311], [-72.164286, -46.127567], [-72.160735, -46.128326], [-72.157495, -46.129954], [-72.155114, -46.136088], [-72.149256, -46.140251], [-72.143355, -46.140638], [-72.140426, -46.139523], [-72.134825, -46.135642], [-72.12945, -46.136527], [-72.127723, -46.137805], [-72.12504, -46.142452], [-72.118893, -46.143418], [-72.112263, -46.146481], [-72.106577, -46.147818], [-72.095097, -46.154463], [-72.088788, -46.15647], [-72.086213, -46.157904], [-72.085097, -46.160565], [-72.085677, -46.164926], [-72.081643, -46.171108], [-72.080184, -46.174689], [-72.079583, -46.18191], [-72.070978, -46.192576], [-72.061474, -46.202289], [-72.060701, -46.205378], [-72.054135, -46.209328], [-72.047869, -46.210041], [-72.041003, -46.2131], [-72.037021, -46.216026], [-72.037055, -46.219157], [-72.036368, -46.220107], [-72.032119, -46.222275], [-72.028386, -46.222928], [-72.027399, -46.22465], [-72.018515, -46.227708], [-72.011048, -46.231479], [-72.005297, -46.236644], [-72.001137, -46.242669], [-71.998905, -46.247299], [-71.998734, -46.249792], [-71.997024, -46.251633], [-71.995073, -46.256215], [-71.995081, -46.257309], [-71.99638, -46.258901]], [[-71.996635, -46.257456], [-71.99726, -46.26477], [-71.994599, -46.268167], [-71.988687, -46.269206], [-71.979702, -46.267748], [-71.974697, -46.269799], [-71.973603, -46.271353], [-71.97283, -46.274886], [-71.966618, -46.282583], [-71.966543, -46.284719], [-71.968925, -46.287951], [-71.969054, -46.289983], [-71.966103, -46.292059], [-71.955707, -46.296529], [-71.948197, -46.306891]], [[-72.146145, -46.140846], [-72.143831, -46.141599], [-72.141846, -46.143815], [-72.139643, -46.144357], [-72.138212, -46.143578], [-72.136759, -46.144166], [-72.135778, -46.145727], [-72.13595, -46.147174], [-72.131587, -46.150891], [-72.127538, -46.150613], [-72.115737, -46.153656], [-72.108041, -46.153547], [-72.10056, -46.155025], [-72.100022, -46.155574], [-72.095097, -46.154463]], [[-72.135798, -46.146152], [-72.134344, -46.147851], [-72.132345, -46.147214], [-72.127138, -46.148185], [-72.124892, -46.149394], [-72.124005, -46.150395], [-72.124434, -46.151158]], [[-72.127408, -46.138263], [-72.125389, -46.138445], [-72.123377, -46.139984], [-72.121296, -46.143061]], [[-72.908249, -46.050915], [-72.905123, -46.050897], [-72.903235, -46.052967], [-72.900038, -46.054412], [-72.898943, -46.054263], [-72.895897, -46.055662], [-72.893944, -46.05535], [-72.885833, -46.062541], [-72.878269, -46.064417], [-72.876434, -46.066182], [-72.87196, -46.067343], [-72.869117, -46.069516], [-72.868924, -46.070879], [-72.861736, -46.07393], [-72.855459, -46.075434], [-72.848153, -46.075069], [-72.84487, -46.072769], [-72.838605, -46.073439], [-72.83442, -46.072129], [-72.829742, -46.074183], [-72.820559, -46.074154], [-72.800753, -46.071787], [-72.794466, -46.069167], [-72.790711, -46.069851], [-72.789445, -46.06939], [-72.788844, -46.068244], [-72.783737, -46.065623], [-72.776849, -46.064209], [-72.774253, -46.065072], [-72.773116, -46.064715], [-72.771292, -46.061172], [-72.768953, -46.060085], [-72.756668, -46.059497], [-72.752227, -46.058097], [-72.749931, -46.058581], [-72.749555, -46.057732], [-72.744749, -46.054389], [-72.742249, -46.053749], [-72.741669, -46.052409], [-72.742056, -46.050324], [-72.736777, -46.049914], [-72.735522, -46.050086], [-72.735361, -46.05077], [-72.734191, -46.051202], [-72.73226, -46.050607], [-72.732797, -46.048313], [-72.721938, -46.049033], [-72.715116, -46.048723], [-72.713892, -46.049379], [-72.71165, -46.047994], [-72.703705, -46.046641], [-72.704048, -46.045525], [-72.700181, -46.044739], [-72.695686, -46.045327], [-72.694097, -46.046519], [-72.690171, -46.047896], [-72.689592, -46.048998], [-72.685192, -46.049861], [-72.682899, -46.048478], [-72.678128, -46.047461], [-72.672957, -46.044482], [-72.672372, -46.043264], [-72.66057, -46.044151], [-72.658618, -46.044836], [-72.657566, -46.046055], [-72.654991, -46.046609], [-72.643865, -46.045655], [-72.640137, -46.042893], [-72.631495, -46.045313], [-72.626603, -46.044553], [-72.623159, -46.046154], [-72.620155, -46.045499], [-72.617365, -46.046288], [-72.611528, -46.04611], [-72.609511, -46.046576], [-72.605123, -46.051297], [-72.600917, -46.054144], [-72.598085, -46.054873], [-72.599372, -46.059159], [-72.60066, -46.070119], [-72.600467, -46.072859], [-72.599458, -46.075059], [-72.596797, -46.075238], [-72.592677, -46.079167], [-72.586712, -46.081102], [-72.586154, -46.083439], [-72.584996, -46.084632], [-72.575511, -46.08774], [-72.570876, -46.090615], [-72.568865, -46.092501], [-72.570126, -46.096329], [-72.569332, -46.09752], [-72.561607, -46.098829], [-72.55547, -46.103039], [-72.550476, -46.103898], [-72.539197, -46.104195], [-72.52867, -46.108953], [-72.524303, -46.10844], [-72.519969, -46.108893], [-72.510935, -46.115625], [-72.509025, -46.114725], [-72.497642, -46.116093], [-72.491645, -46.115149], [-72.489188, -46.115416], [-72.482783, -46.118495], [-72.481302, -46.120399], [-72.481077, -46.122303], [-72.478985, -46.123002], [-72.474489, -46.126854], [-72.470627, -46.12559], [-72.465574, -46.126608], [-72.460145, -46.125114], [-72.452066, -46.127434], [-72.440275, -46.12791], [-72.435908, -46.12904], [-72.428216, -46.132631], [-72.423205, -46.13333], [-72.415749, -46.131597], [-72.412938, -46.129531], [-72.409644, -46.125523], [-72.40649, -46.124214], [-72.403454, -46.123976], [-72.400664, -46.124757], [-72.398862, -46.127159], [-72.389635, -46.134869], [-72.371934, -46.135162], [-72.365154, -46.137868], [-72.360648, -46.140722], [-72.354811, -46.142358], [-72.352108, -46.141852], [-72.349447, -46.139949], [-72.34567, -46.139117], [-72.34155, -46.140395], [-72.330907, -46.142031], [-72.321852, -46.140901], [-72.315515, -46.139042], [-72.307159, -46.132725], [-72.293436, -46.130743], [-72.289135, -46.133677], [-72.28347, -46.133796], [-72.271797, -46.130346]], [[-72.271797, -46.130346], [-72.262909, -46.124299], [-72.260473, -46.123557], [-72.255317, -46.124873], [-72.250854, -46.125112], [-72.245876, -46.122732], [-72.242271, -46.122256], [-72.233761, -46.123935], [-72.22183, -46.129315], [-72.218279, -46.129973], [-72.213376, -46.127579], [-72.210013, -46.123069], [-72.205238, -46.120518], [-72.203382, -46.117045], [-72.202095, -46.116048], [-72.198029, -46.115773], [-72.190787, -46.117216], [-72.181195, -46.115892], [-72.175647, -46.116845], [-72.173587, -46.120415], [-72.17539, -46.123642], [-72.174939, -46.124505], [-72.168348, -46.124311], [-72.164286, -46.127567], [-72.160735, -46.128326], [-72.157495, -46.129954], [-72.155114, -46.136088], [-72.149256, -46.140251], [-72.143355, -46.140638], [-72.140426, -46.139523], [-72.134825, -46.135642], [-72.12945, -46.136527], [-72.127723, -46.137805], [-72.12504, -46.142452], [-72.118893, -46.143418], [-72.112263, -46.146481], [-72.106577, -46.147818], [-72.095097, -46.154463], [-72.088788, -46.15647], [-72.086213, -46.157904], [-72.085097, -46.160565], [-72.085677, -46.164926], [-72.081643, -46.171108], [-72.080184, -46.174689], [-72.079583, -46.18191], [-72.070978, -46.192576], [-72.061474, -46.202289], [-72.060701, -46.205378], [-72.054135, -46.209328], [-72.047869, -46.210041], [-72.041003, -46.2131], [-72.037021, -46.216026], [-72.037055, -46.219157], [-72.036368, -46.220107], [-72.032119, -46.222275], [-72.028386, -46.222928], [-72.027399, -46.22465], [-72.018515, -46.227708], [-72.011048, -46.231479], [-72.005297, -46.236644], [-72.001137, -46.242669], [-71.998905, -46.247299], [-71.998734, -46.249792], [-71.997024, -46.251633], [-71.995073, -46.256215], [-71.995081, -46.257309], [-71.99638, -46.258901]], [[-71.996635, -46.257456], [-71.99726, -46.26477], [-71.994599, -46.268167], [-71.988687, -46.269206], [-71.979702, -46.267748], [-71.974697, -46.269799], [-71.973603, -46.271353], [-71.97283, -46.274886], [-71.966618, -46.282583], [-71.966543, -46.284719], [-71.968925, -46.287951], [-71.969054, -46.289983], [-71.966103, -46.292059], [-71.955707, -46.296529], [-71.948197, -46.306891]], [[-72.146145, -46.140846], [-72.143831, -46.141599], [-72.141846, -46.143815], [-72.139643, -46.144357], [-72.138212, -46.143578], [-72.136759, -46.144166], [-72.135778, -46.145727], [-72.13595, -46.147174], [-72.131587, -46.150891], [-72.127538, -46.150613], [-72.115737, -46.153656], [-72.108041, -46.153547], [-72.10056, -46.155025], [-72.100022, -46.155574], [-72.095097, -46.154463]], [[-72.135798, -46.146152], [-72.134344, -46.147851], [-72.132345, -46.147214], [-72.127138, -46.148185], [-72.124892, -46.149394], [-72.124005, -46.150395], [-72.124434, -46.151158]], [[-72.127408, -46.138263], [-72.125389, -46.138445], [-72.123377, -46.139984], [-72.121296, -46.143061]]]}}