{"type": "Feature", "properties": {"id": "rio-valdivia", "name": "Río Valdivia", "type": "river", "region": "los-rios"}, "geometry": {"type": "MultiLineString", "coordinates": [[[-73.244149, -39.807314], [-73.248322, -39.810454], [-73.252467, -39.821574], [-73.254133, -39.824518], [-73.265035, -39.835358], [-73.271325, -39.845653], [-73.276369, -39.85194], [-73.286165, -39.860497], [-73.291068, -39.861947], [-73.296015, -39.861728], [-73.299531, -39.860509], [-73.309652, -39.854675], [-73.313247, -39.85388], [-73.317305, -39.854036], [-73.326168, -39.856483], [-73.333641, -39.86061], [-73.33939, -39.862838], [-73.370801, -39.870167], [-73.375671, -39.872408], [-73.382529, -39.877038]]]}}