{"type": "Feature", "properties": {"id": "rio-calle-calle", "name": "Río Calle-Calle", "type": "river", "region": "los-rios"}, "geometry": {"type": "MultiLineString", "coordinates": [[[-72.861487, -39.819779], [-72.861671, -39.814924], [-72.863068, -39.813196], [-72.867566, -39.810756], [-72.87195, -39.810612]], [[-72.930926, -39.81901], [-72.93856, -39.814375], [-72.941022, -39.80889], [-72.943007, -39.808326], [-72.943951, -39.807341]], [[-72.759479, -39.852182], [-72.762105, -39.850114], [-72.765022, -39.849148], [-72.768246, -39.849278], [-72.771062, -39.850509], [-72.775988, -39.854702], [-72.777667, -39.856933], [-72.77794, -39.857977], [-72.776355, -39.860107], [-72.776329, -39.862027], [-72.777897, -39.865408], [-72.78009, -39.867186], [-72.781052, -39.866792], [-72.781586, -39.864191], [-72.782593, -39.862807], [-72.787033, -39.860738], [-72.789765, -39.85786], [-72.79188, -39.856897], [-72.809172, -39.856004], [-72.817531, -39.857861], [-72.821709, -39.85816], [-72.829845, -39.850725], [-72.829194, -39.841277], [-72.832023, -39.835741], [-72.8318, -39.826368], [-72.834171, -39.823971], [-72.840352, -39.823015], [-72.850949, -39.823265], [-72.857321, -39.82195], [-72.865488, -39.817937], [-72.868755, -39.815533], [-72.869798, -39.814256], [-72.870517, -39.811734], [-72.871606, -39.810784], [-72.878003, -39.809473], [-72.886234, -39.806495], [-72.898599, -39.806765], [-72.901515, -39.807392], [-72.904705, -39.809352], [-72.912244, -39.815965], [-72.917402, -39.818252], [-72.925626, -39.819245], [-72.934977, -39.818534], [-72.940373, -39.816687], [-72.944329, -39.813983], [-72.945782, -39.8099], [-72.943951, -39.807341], [-72.943486, -39.804941], [-72.945846, -39.803029]], [[-73.184292, -39.785066], [-73.187802, -39.783687], [-73.191416, -39.784044], [-73.205782, -39.791043], [-73.208937, -39.793376], [-73.210685, -39.795511], [-73.212316, -39.799237], [-73.211243, -39.806663], [-73.211501, -39.812531], [-73.212552, -39.815144], [-73.21752, -39.820475], [-73.223329, -39.821599], [-73.226006, -39.82106], [-73.237813, -39.809692], [-73.244149, -39.807314]], [[-72.983653, -39.784375], [-72.983959, -39.782949], [-72.987543, -39.781943], [-72.989452, -39.780245], [-72.996622, -39.778813], [-73.003121, -39.780954], [-73.006554, -39.78257], [-73.007786, -39.784024]], [[-72.855232, -39.821515], [-72.857484, -39.817039], [-72.856659, -39.813463], [-72.858919, -39.810469], [-72.861925, -39.809874], [-72.867566, -39.810756]], [[-72.945846, -39.803029], [-72.9517, -39.801342], [-72.960532, -39.801059], [-72.965059, -39.799388], [-72.973523, -39.791702], [-72.973882, -39.786927], [-72.975436, -39.785485], [-72.98567, -39.784161], [-73.001108, -39.784971], [-73.007143, -39.783998], [-73.011091, -39.784817], [-73.019622, -39.789502], [-73.028763, -39.79702], [-73.032087, -39.798856], [-73.040803, -39.800302], [-73.049122, -39.798739], [-73.050974, -39.799581], [-73.052968, -39.802194], [-73.055452, -39.802913], [-73.065455, -39.800982], [-73.071365, -39.800545], [-73.077197, -39.80099], [-73.090626, -39.803446], [-73.094646, -39.803198], [-73.098006, -39.80158], [-73.103407, -39.794777], [-73.109757, -39.789696], [-73.115358, -39.78707], [-73.120716, -39.786815], [-73.125409, -39.78848], [-73.137253, -39.798207], [-73.144926, -39.80329], [-73.150353, -39.805185], [-73.156294, -39.805561], [-73.162066, -39.804368], [-73.166663, -39.801973], [-73.177252, -39.789925], [-73.184292, -39.785066]]]}}