{"type": "Feature", "properties": {"id": "rio-calcurrupe", "name": "Río Calcurrupe", "type": "river", "region": "los-rios"}, "geometry": {"type": "MultiLineString", "coordinates": [[[-72.14621, -40.229741], [-72.149933, -40.228315], [-72.151949, -40.228209], [-72.155907, -40.225364], [-72.160376, -40.223837], [-72.16207, -40.22133], [-72.164609, -40.219493], [-72.166783, -40.219209], [-72.172045, -40.220028], [-72.17488, -40.219329], [-72.17629, -40.218125], [-72.179927, -40.212173], [-72.184494, -40.209374], [-72.188209, -40.209739], [-72.189941, -40.213589], [-72.191736, -40.214672], [-72.196254, -40.211241], [-72.198727, -40.211214], [-72.201584, -40.212938], [-72.202978, -40.213067], [-72.206976, -40.210067], [-72.213743, -40.210248], [-72.218924, -40.20685], [-72.226571, -40.208965], [-72.228437, -40.211269], [-72.226396, -40.214804], [-72.226406, -40.216189], [-72.235231, -40.217279], [-72.236019, -40.220773], [-72.237532, -40.223329], [-72.240917, -40.225327], [-72.244916, -40.226642]], [[-72.244916, -40.226642], [-72.251973, -40.22679], [-72.253797, -40.22751], [-72.255331, -40.229382], [-72.256029, -40.233604], [-72.257182, -40.234763]], [[-72.257182, -40.234763], [-72.258502, -40.234694], [-72.259832, -40.233539], [-72.264628, -40.223271], [-72.266757, -40.221227]], [[-72.244916, -40.226642], [-72.245046, -40.227875], [-72.247059, -40.228604], [-72.248297, -40.230396], [-72.252064, -40.231643], [-72.255235, -40.234231], [-72.257182, -40.234763]], [[-72.181307, -40.210985], [-72.182231, -40.209104], [-72.185741, -40.209171]], [[-72.204399, -40.211996], [-72.2067, -40.211708], [-72.208004, -40.210765], [-72.209386, -40.211014], [-72.212367, -40.210263]], [[-72.14621, -40.229741], [-72.149933, -40.228315], [-72.151949, -40.228209], [-72.155907, -40.225364], [-72.160376, -40.223837], [-72.16207, -40.22133], [-72.164609, -40.219493], [-72.166783, -40.219209], [-72.172045, -40.220028], [-72.17488, -40.219329], [-72.17629, -40.218125], [-72.179927, -40.212173], [-72.184494, -40.209374], [-72.188209, -40.209739], [-72.189941, -40.213589], [-72.191736, -40.214672], [-72.196254, -40.211241], [-72.198727, -40.211214], [-72.201584, -40.212938], [-72.202978, -40.213067], [-72.206976, -40.210067], [-72.213743, -40.210248], [-72.218924, -40.20685], [-72.226571, -40.208965], [-72.228437, -40.211269], [-72.226396, -40.214804], [-72.226406, -40.216189], [-72.235231, -40.217279], [-72.236019, -40.220773], [-72.237532, -40.223329], [-72.240917, -40.225327], [-72.244916, -40.226642]], [[-72.244916, -40.226642], [-72.251973, -40.22679], [-72.253797, -40.22751], [-72.255331, -40.229382], [-72.256029, -40.233604], [-72.257182, -40.234763]], [[-72.257182, -40.234763], [-72.258502, -40.234694], [-72.259832, -40.233539], [-72.264628, -40.223271], [-72.266757, -40.221227]], [[-72.244916, -40.226642], [-72.245046, -40.227875], [-72.247059, -40.228604], [-72.248297, -40.230396], [-72.252064, -40.231643], [-72.255235, -40.234231], [-72.257182, -40.234763]]]}}