{"type": "Feature", "properties": {"id": "rio-rubens", "name": "Río Rubens", "type": "river", "region": "magallanes"}, "geometry": {"type": "MultiLineString", "coordinates": [[[-72.06274, -52.094192], [-72.060689, -52.092462], [-72.059943, -52.0891], [-72.056129, -52.087981], [-72.050746, -52.087716], [-72.05228, -52.084619], [-72.048485, -52.084484], [-72.04687, -52.082407], [-72.046433, -52.079992], [-72.048139, -52.076933], [-72.043292, -52.076084], [-72.040803, -52.07663], [-72.038223, -52.075273], [-72.031801, -52.074356], [-72.029452, -52.072187], [-72.029312, -52.070208], [-72.030291, -52.069339], [-72.029597, -52.068193], [-72.023991, -52.067329], [-72.023009, -52.065295], [-72.020284, -52.065578], [-72.018227, -52.061878], [-72.019297, -52.060034], [-72.017733, -52.059083], [-72.014962, -52.059981], [-72.012854, -52.059797], [-72.011127, -52.058049], [-72.010285, -52.055387], [-72.009346, -52.055418], [-72.007621, -52.056752], [-72.006175, -52.055583], [-72.005601, -52.053576], [-72.000698, -52.052312], [-71.996034, -52.054592], [-71.992834, -52.053967], [-71.990383, -52.054973], [-71.987773, -52.053366], [-71.984417, -52.053635], [-71.98346, -52.052641], [-71.984865, -52.050876], [-71.98212, -52.050124], [-71.982069, -52.048698], [-71.980965, -52.048375], [-71.970706, -52.051824], [-71.965685, -52.051705], [-71.963174, -52.050031], [-71.961747, -52.049792], [-71.96016, -52.049909], [-71.958295, -52.051197], [-71.957308, -52.050937], [-71.957048, -52.050188], [-71.958271, -52.049606], [-71.960165, -52.047098], [-71.955366, -52.046315], [-71.955114, -52.043588], [-71.955635, -52.042577], [-71.958175, -52.041666], [-71.958405, -52.040839], [-71.956957, -52.040409], [-71.953797, -52.04142], [-71.952204, -52.041059], [-71.949388, -52.039264], [-71.948986, -52.037422], [-71.947575, -52.036606], [-71.948014, -52.034657], [-71.947408, -52.033626], [-71.942425, -52.032535], [-71.939965, -52.030949], [-71.940209, -52.030151], [-71.942355, -52.02968], [-71.941652, -52.028188], [-71.943334, -52.026267], [-71.945279, -52.025934], [-71.947186, -52.026652], [-71.948214, -52.025853], [-71.948272, -52.024921], [-71.944874, -52.02485], [-71.943133, -52.023737], [-71.942224, -52.022152], [-71.940815, -52.023607], [-71.939515, -52.023627], [-71.938833, -52.022983], [-71.93875, -52.021148], [-71.934668, -52.020057], [-71.931927, -52.020827], [-71.932117, -52.022301], [-71.931162, -52.022323], [-71.929778, -52.019896], [-71.927088, -52.018148], [-71.930604, -52.016737], [-71.929349, -52.014126], [-71.92616, -52.014023], [-71.924883, -52.015842], [-71.924744, -52.017599], [-71.921697, -52.017467], [-71.921691, -52.0164], [-71.923349, -52.016093], [-71.922925, -52.013516], [-71.924655, -52.012874], [-71.923963, -52.012296], [-71.920766, -52.012242], [-71.920141, -52.011497], [-71.92083, -52.010512], [-71.918577, -52.0096], [-71.919964, -52.008255], [-71.922136, -52.007883], [-71.922611, -52.006815], [-71.921445, -52.006551], [-71.920753, -52.007512], [-71.917469, -52.007358], [-71.917293, -52.006655], [-71.920769, -52.005237], [-71.919339, -52.004348], [-71.916855, -52.004426], [-71.916692, -52.002611], [-71.91438, -52.002558], [-71.913997, -52.001834], [-71.914755, -52.000238], [-71.912816, -51.999471], [-71.912676, -51.998533], [-71.911287, -51.998429], [-71.908152, -52.00236], [-71.906239, -52.002164], [-71.906165, -52.001589], [-71.907197, -52.001658], [-71.907138, -52.000731], [-71.911453, -51.99719], [-71.916303, -51.996989], [-71.917617, -51.996231], [-71.915511, -51.99488], [-71.913913, -51.995088], [-71.912832, -51.996072], [-71.908041, -51.99497], [-71.906636, -51.995398], [-71.906872, -51.994609], [-71.908307, -51.99415], [-71.909659, -51.992685], [-71.908328, -51.991495], [-71.912043, -51.991552], [-71.912534, -51.990509], [-71.911145, -51.990191], [-71.909664, -51.988734], [-71.907269, -51.989077], [-71.906706, -51.987921], [-71.905405, -51.987188], [-71.901939, -51.988098], [-71.903578, -51.989203], [-71.903026, -51.989956], [-71.898836, -51.990635], [-71.898026, -51.988816], [-71.896009, -51.987644], [-71.895634, -51.984812], [-71.894006, -51.984951], [-71.893995, -51.986831], [-71.892482, -51.987343], [-71.887697, -51.984854], [-71.888244, -51.983597], [-71.893481, -51.98232], [-71.892723, -51.97964], [-71.889502, -51.981467], [-71.887772, -51.980073], [-71.884586, -51.979752], [-71.883346, -51.980876], [-71.883432, -51.982144], [-71.882949, -51.98228], [-71.881238, -51.981588], [-71.880259, -51.979675], [-71.878728, -51.978771], [-71.871271, -51.978401], [-71.870354, -51.977631], [-71.870102, -51.976299], [-71.873991, -51.974697], [-71.874415, -51.973791], [-71.873519, -51.972879], [-71.86813, -51.971253], [-71.869501, -51.967786], [-71.864308, -51.96737], [-71.861009, -51.965635], [-71.851471, -51.962987], [-71.850859, -51.961761], [-71.852694, -51.957811], [-71.852603, -51.956862], [-71.851273, -51.956221], [-71.843714, -51.955745], [-71.838082, -51.954584], [-71.837926, -51.952488], [-71.834825, -51.950845], [-71.834182, -51.948795], [-71.829783, -51.947942], [-71.830689, -51.945614], [-71.829337, -51.943967], [-71.825051, -51.942979], [-71.823705, -51.941467], [-71.820856, -51.941335], [-71.818635, -51.940039], [-71.816479, -51.941702], [-71.811587, -51.943564], [-71.805037, -51.944162], [-71.800327, -51.945879], [-71.798889, -51.945773], [-71.795614, -51.943172], [-71.792857, -51.943299], [-71.792162, -51.944037], [-71.792189, -51.946447], [-71.790384, -51.947595], [-71.788635, -51.947762], [-71.786315, -51.946877], [-71.78452, -51.944941], [-71.77922, -51.94404], [-71.778139, -51.94283], [-71.77881, -51.941555], [-71.780897, -51.941393], [-71.782943, -51.942393], [-71.78749, -51.942965], [-71.788275, -51.942162], [-71.78753, -51.940374], [-71.780403, -51.938987], [-71.774738, -51.939182], [-71.771501, -51.937947], [-71.77163, -51.936392], [-71.767169, -51.935896], [-71.762931, -51.936812], [-71.762642, -51.93755], [-71.76357, -51.938569], [-71.762851, -51.939384], [-71.760711, -51.939304], [-71.758254, -51.937958], [-71.754807, -51.940055], [-71.754, -51.941266], [-71.751052, -51.940748], [-71.749088, -51.938739], [-71.747793, -51.939518], [-71.748356, -51.941376], [-71.746492, -51.941434], [-71.745864, -51.939538], [-71.744609, -51.939149], [-71.744202, -51.939648], [-71.744832, -51.941352], [-71.746326, -51.942519], [-71.742616, -51.941811], [-71.742182, -51.940366], [-71.738153, -51.941401], [-71.73711, -51.942021], [-71.737158, -51.942691], [-71.740023, -51.943162], [-71.740111, -51.943694], [-71.737029, -51.945667], [-71.732998, -51.943787], [-71.732751, -51.942122]]]}}