{"type": "Feature", "properties": {"id": "rio-volcan-maipo", "name": "Río Volcán", "type": "river", "region": "metropolitana"}, "geometry": {"type": "MultiLineString", "coordinates": [[[-69.92388, -33.860188], [-69.924804, -33.863501], [-69.927678, -33.867808]], [[-69.927678, -33.867808], [-69.929939, -33.870022], [-69.933329, -33.872053], [-69.936548, -33.87779], [-69.938736, -33.880034], [-69.942185, -33.881495], [-69.947045, -33.882306], [-69.953138, -33.880666], [-69.957695, -33.88106], [-69.96226, -33.876938], [-69.964062, -33.876779]], [[-69.964062, -33.876779], [-69.96905, -33.874294], [-69.971548, -33.874024], [-69.97407, -33.870148], [-69.974811, -33.864175], [-69.976701, -33.862308], [-69.978794, -33.861513], [-69.982482, -33.856535], [-69.984461, -33.855046]], [[-69.984461, -33.855046], [-69.988166, -33.850665], [-69.989148, -33.848017], [-69.989853, -33.839824], [-69.989422, -33.839202], [-69.991823, -33.835247], [-69.991008, -33.829415], [-69.992298, -33.826858], [-69.993404, -33.821983], [-69.995871, -33.818994], [-69.99968, -33.817428], [-70.007257, -33.815639], [-70.010722, -33.81666], [-70.019626, -33.811255], [-70.022695, -33.811286], [-70.023612, -33.813666], [-70.022651, -33.815399], [-70.023681, -33.81654], [-70.027543, -33.817681], [-70.030032, -33.819321], [-70.031834, -33.820541], [-70.032051, -33.821675], [-70.035005, -33.821854], [-70.035954, -33.823171], [-70.038075, -33.823687], [-70.040998, -33.823612], [-70.042981, -33.825257], [-70.051349, -33.826113], [-70.054631, -33.825768], [-70.056407, -33.824701], [-70.059463, -33.82465], [-70.062253, -33.826101], [-70.065343, -33.826739], [-70.068096, -33.827075], [-70.074305, -33.826087], [-70.078316, -33.827221], [-70.08408, -33.827711], [-70.089369, -33.827519], [-70.090816, -33.826108], [-70.091733, -33.826077], [-70.098213, -33.829798], [-70.101362, -33.828105], [-70.109307, -33.829116], [-70.11053, -33.828314], [-70.111861, -33.825337], [-70.116324, -33.822387], [-70.119875, -33.822084], [-70.122879, -33.82322], [-70.123416, -33.822672], [-70.12569, -33.822792], [-70.127107, -33.822302], [-70.127863, -33.819918], [-70.131226, -33.817681], [-70.133458, -33.816682], [-70.136552, -33.816668], [-70.13799, -33.815408], [-70.140054, -33.816634], [-70.145334, -33.816569], [-70.147025, -33.815369], [-70.148156, -33.81605], [-70.156415, -33.815091], [-70.162666, -33.815471], [-70.167722, -33.813876], [-70.173209, -33.814534], [-70.175618, -33.813953], [-70.176506, -33.812896], [-70.18162, -33.812795], [-70.185003, -33.811343], [-70.187287, -33.811557], [-70.18825, -33.810991], [-70.193564, -33.812843], [-70.195743, -33.812267], [-70.197282, -33.812867], [-70.200071, -33.811792], [-70.203597, -33.812765], [-70.208275, -33.811044], [-70.210646, -33.809393], [-70.217174, -33.808005], [-70.218073, -33.806277]]]}}