{"type": "Feature", "properties": {"id": "rio-murta", "name": "Río Murta", "type": "river", "region": "aysen"}, "geometry": {"type": "MultiLineString", "coordinates": [[[-73.0199231, -46.1394243], [-73.0140948, -46.1379778], [-73.0125174, -46.1367217], [-73.0108363, -46.1368119], [-73.0032475, -46.1313528], [-73.0012304, -46.1316316], [-72.9960216, -46.1304309], [-72.9895813, -46.127325], [-72.9874171, -46.1270997], [-72.9855771, -46.1249935], [-72.9824389, -46.1254489], [-72.9766726, -46.1297333], [-72.9758654, -46.1290871], [-72.9740674, -46.1292792], [-72.9688998, -46.1268771], [-72.967085, -46.1248411], [-72.9651762, -46.1247723], [-72.9641263, -46.1240774], [-72.9572544, -46.1228733], [-72.9518426, -46.1227977], [-72.9484587, -46.123868], [-72.9473514, -46.1234506], [-72.9456322, -46.1241891], [-72.9450582, -46.1254115], [-72.9432259, -46.1266166], [-72.943243, -46.1283537], [-72.9406014, -46.1285803], [-72.9390592, -46.1308982], [-72.9355926, -46.1310483], [-72.9324514, -46.1327259], [-72.9315148, -46.1336346], [-72.931429, -46.1346509], [-72.9274346, -46.1360283], [-72.9286182, -46.1385731], [-72.9278442, -46.1406668], [-72.9260605, -46.1419547], [-72.9275824, -46.1489193], [-72.9244924, -46.1526058], [-72.9203039, -46.1540863], [-72.9150511, -46.1593837], [-72.8874136, -46.1649718], [-72.8742987, -46.1656197], [-72.867894, -46.1686984], [-72.8671762, -46.1712394], [-72.8648186, -46.1723483], [-72.8622833, -46.172395], [-72.8582779, -46.1699683], [-72.8556562, -46.1711234], [-72.8521935, -46.1696128], [-72.8496266, -46.1714955], [-72.8491235, -46.1746264], [-72.8465398, -46.1745893], [-72.8393623, -46.1767112], [-72.8373228, -46.1765455], [-72.8345983, -46.1749751], [-72.8275424, -46.1748625], [-72.8212553, -46.1778639], [-72.8155464, -46.1866507], [-72.8131495, -46.1877262], [-72.8115013, -46.1901075], [-72.8110414, -46.1940119], [-72.8164816, -46.1978344], [-72.8144306, -46.2029956], [-72.8125646, -46.2056846], [-72.8147472, -46.2092702], [-72.813499, -46.210361], [-72.8134775, -46.2120983], [-72.8125692, -46.2140514], [-72.8105378, -46.2165378], [-72.8097868, -46.2204648], [-72.8082419, -46.2231073], [-72.8081882, -46.2245993], [-72.8094006, -46.2272639], [-72.8089178, -46.2291269], [-72.81057, -46.2311085], [-72.8050232, -46.2338173], [-72.8030491, -46.2361031], [-72.7998197, -46.2370233], [-72.798779, -46.2386929], [-72.7988327, -46.2398654], [-72.8029702, -46.2449784], [-72.8051803, -46.255393], [-72.8008926, -46.2610876], [-72.8007746, -46.2629494], [-72.8058654, -46.267904], [-72.812748, -46.2722204], [-72.8102803, -46.2819383], [-72.8108275, -46.2830728], [-72.8073236, -46.2858749], [-72.8043173, -46.2860436], [-72.803566, -46.286764], [-72.805853, -46.2915329], [-72.8036177, -46.2970106], [-72.8041434, -46.3012876], [-72.8029364, -46.3022437], [-72.7991384, -46.3025736], [-72.7972663, -46.3063202], [-72.7901498, -46.3111308], [-72.7867016, -46.3166224], [-72.7882857, -46.3211014], [-72.7899938, -46.3223139], [-72.7932524, -46.3228133], [-72.7952314, -46.3285582], [-72.799626, -46.3313378], [-72.8000255, -46.3323704], [-72.798409, -46.3379825], [-72.7998626, -46.3396248], [-72.8000987, -46.3422987], [-72.7954424, -46.351097], [-72.7965367, -46.3548144], [-72.7944338, -46.3571247], [-72.7908826, -46.3585982], [-72.7808511, -46.3575098], [-72.7778685, -46.3581317], [-72.7754009, -46.3612193], [-72.7732658, -46.3626113], [-72.771796, -46.3679714], [-72.7709628, -46.3683941], [-72.7683413, -46.3679492], [-72.7664369, -46.3663168], [-72.7664702, -46.3639766], [-72.7688814, -46.36122], [-72.7691818, -46.3599612], [-72.7682351, -46.3582778], [-72.7641306, -46.3584705], [-72.7615894, -46.3601917], [-72.7576254, -46.3597867], [-72.7526236, -46.3629], [-72.7522481, -46.364329], [-72.753549, -46.3691511], [-72.7507997, -46.3724205], [-72.7484286, -46.3768249], [-72.7408218, -46.376329], [-72.7374208, -46.3767435], [-72.7359724, -46.3782682], [-72.7360797, -46.3807256], [-72.7346206, -46.3849886], [-72.7332687, -46.3860655], [-72.7214509, -46.3889072], [-72.719273, -46.3909645], [-72.7182806, -46.3945349], [-72.714681, -46.3965364], [-72.7062643, -46.396751], [-72.7057922, -46.3980829], [-72.7103949, -46.4025591], [-72.7148205, -46.4055887], [-72.7149117, -46.4075011], [-72.711339, -46.4103751], [-72.7019084, -46.4124685], [-72.7014095, -46.4131342], [-72.7022249, -46.4142068], [-72.7045369, -46.4151166], [-72.7077878, -46.4153496], [-72.7081686, -46.4164776], [-72.7037001, -46.4201535], [-72.6973432, -46.4215181], [-72.6962221, -46.4224167], [-72.6960504, -46.4235113], [-72.6974022, -46.4248573], [-72.7050948, -46.4243544], [-72.7076161, -46.4248646], [-72.7079326, -46.4257669], [-72.7064865, -46.4274107], [-72.7000052, -46.4279165], [-72.6988291, -46.4293828], [-72.6987151, -46.4307263], [-72.699834, -46.4308879], [-72.7038794, -46.4383488], [-72.7058492, -46.4400032], [-72.7193461, -46.4440945], [-72.7206689, -46.4466154], [-72.71972, -46.4472574], [-72.7133131, -46.446152], [-72.7120364, -46.4464329], [-72.7059746, -46.4512415], [-72.6994461, -46.4602034], [-72.6961041, -46.4615115], [-72.6904714, -46.4624279], [-72.688508, -46.4651032], [-72.6865125, -46.466123]]]}}