{"type": "Feature", "properties": {"id": "rio-manihuales", "name": "Río Mañihuales", "type": "river", "region": "aysen"}, "geometry": {"type": "MultiLineString", "coordinates": [[[-72.027628, -44.990735], [-72.034427, -44.993045], [-72.037643, -44.993379], [-72.039062, -44.994393], [-72.042466, -44.993986], [-72.045842, -44.996096], [-72.05045, -44.995842], [-72.051982, -44.997089], [-72.053448, -44.997344], [-72.058802, -44.992276], [-72.060624, -44.991865], [-72.062797, -44.99193], [-72.066017, -44.993801], [-72.070604, -44.99445], [-72.074867, -44.993371], [-72.079044, -44.995112], [-72.083907, -44.995383], [-72.088038, -44.99673], [-72.091412, -44.995952], [-72.096509, -44.996971], [-72.098639, -44.996786], [-72.100048, -44.995814], [-72.107365, -44.995792], [-72.108918, -44.9971], [-72.112573, -44.997844], [-72.113281, -44.998902], [-72.119376, -45.001098], [-72.119778, -45.001963], [-72.122878, -45.00177], [-72.128876, -45.004508], [-72.128474, -45.00724], [-72.131854, -45.009143], [-72.135557, -45.009088], [-72.136247, -45.011104], [-72.137883, -45.011773], [-72.139201, -45.010667], [-72.141488, -45.010156], [-72.141104, -45.007329], [-72.142194, -45.006154], [-72.144132, -45.006063], [-72.144889, -45.005362], [-72.145286, -45.001671], [-72.150119, -44.999718], [-72.150548, -44.996854], [-72.149046, -44.99424], [-72.149183, -44.992666], [-72.150765, -44.991519], [-72.153332, -44.99259], [-72.155553, -44.992336], [-72.157028, -44.989612], [-72.158901, -44.987901], [-72.158729, -44.984084], [-72.160424, -44.983674], [-72.164458, -44.984979], [-72.167237, -44.982365], [-72.169718, -44.982192], [-72.174897, -44.986079], [-72.175946, -44.988009], [-72.175997, -44.990503], [-72.180324, -44.992713], [-72.182498, -44.994767], [-72.180525, -44.997737], [-72.180326, -45.000973], [-72.180852, -45.002794], [-72.178913, -45.003831], [-72.176764, -45.008039], [-72.171148, -45.007857], [-72.171566, -45.00964], [-72.169045, -45.011343], [-72.170456, -45.013607], [-72.169597, -45.015689], [-72.173352, -45.019845], [-72.173014, -45.021104], [-72.177564, -45.021456], [-72.17983, -45.023214], [-72.183486, -45.026973], [-72.183056, -45.028361], [-72.184137, -45.029491], [-72.181788, -45.031206], [-72.181158, -45.035511], [-72.175694, -45.0377], [-72.172065, -45.040492], [-72.171826, -45.041762], [-72.169578, -45.044468], [-72.169823, -45.046048], [-72.16625, -45.052545], [-72.164941, -45.059153], [-72.162538, -45.063034], [-72.159309, -45.065382], [-72.159201, -45.066868], [-72.161006, -45.068811], [-72.153185, -45.076479], [-72.151208, -45.082914], [-72.153182, -45.08549], [-72.153024, -45.087954], [-72.150961, -45.091122], [-72.150436, -45.093679], [-72.151422, -45.096174], [-72.149363, -45.098874], [-72.148714, -45.100868], [-72.150669, -45.103094], [-72.155754, -45.10536], [-72.156605, -45.10709], [-72.155696, -45.11011]], [[-72.155696, -45.11011], [-72.153077, -45.113464], [-72.153686, -45.116112], [-72.151455, -45.118317], [-72.151519, -45.121514], [-72.148283, -45.124131], [-72.148596, -45.125259], [-72.147507, -45.127116], [-72.147539, -45.129795], [-72.146498, -45.132838], [-72.14403, -45.135903], [-72.143483, -45.1403], [-72.146219, -45.145287], [-72.147223, -45.149993], [-72.15007, -45.155951], [-72.151386, -45.157319], [-72.154014, -45.158251], [-72.155886, -45.159804], [-72.155854, -45.170813], [-72.155113, -45.173563], [-72.152533, -45.178218], [-72.152833, -45.180056], [-72.164512, -45.18251], [-72.16913, -45.184181], [-72.177816, -45.19], [-72.188795, -45.194277], [-72.193211, -45.198717], [-72.20306, -45.203162], [-72.204273, -45.204984], [-72.203972, -45.206458], [-72.204992, -45.209776], [-72.20511, -45.213963], [-72.206547, -45.216783], [-72.208934, -45.217822], [-72.210967, -45.216988], [-72.213078, -45.217512], [-72.215489, -45.221778], [-72.217083, -45.223267], [-72.228949, -45.229761], [-72.233482, -45.233569], [-72.235649, -45.234049], [-72.239458, -45.233252], [-72.241674, -45.233535], [-72.250546, -45.237963], [-72.254435, -45.238692], [-72.257076, -45.239891], [-72.259548, -45.242242], [-72.260077, -45.243588], [-72.259489, -45.25127], [-72.264983, -45.25519], [-72.267582, -45.256015], [-72.269536, -45.258701], [-72.272995, -45.261048], [-72.273449, -45.262481], [-72.272215, -45.264326], [-72.273801, -45.265531], [-72.280362, -45.266358], [-72.281671, -45.266997], [-72.282853, -45.26882], [-72.285582, -45.26981], [-72.289587, -45.269803], [-72.290874, -45.271266], [-72.294654, -45.272262], [-72.295096, -45.273722], [-72.303373, -45.274088], [-72.305161, -45.275449], [-72.308556, -45.280153], [-72.312119, -45.281588], [-72.315742, -45.282084], [-72.316211, -45.283833], [-72.318293, -45.286674], [-72.323004, -45.289016], [-72.324956, -45.291533], [-72.331686, -45.293641], [-72.334017, -45.29359], [-72.348274, -45.300865], [-72.351569, -45.303836], [-72.354302, -45.303087], [-72.355092, -45.304077], [-72.356365, -45.304298], [-72.358306, -45.306765], [-72.360257, -45.30719], [-72.361495, -45.30623], [-72.376626, -45.311447], [-72.379888, -45.311962], [-72.391291, -45.316031], [-72.393182, -45.316182], [-72.395686, -45.317524], [-72.396162, -45.320068], [-72.397165, -45.320898], [-72.410457, -45.326233], [-72.415542, -45.332015], [-72.420615, -45.334015], [-72.424546, -45.33397], [-72.429353, -45.337841], [-72.436316, -45.339055], [-72.444296, -45.342746], [-72.450025, -45.343652], [-72.454447, -45.345195], [-72.456967, -45.347859], [-72.457935, -45.352551], [-72.455843, -45.352869], [-72.453675, -45.351297], [-72.451513, -45.351233], [-72.444288, -45.354973], [-72.442957, -45.357423], [-72.443345, -45.359679], [-72.446316, -45.362413], [-72.447883, -45.367494], [-72.447797, -45.370961], [-72.445157, -45.374684], [-72.446252, -45.378362], [-72.45404, -45.383494], [-72.457892, -45.38684], [-72.466778, -45.391446], [-72.471138, -45.396191], [-72.473372, -45.397627], [-72.476187, -45.398618], [-72.479129, -45.398778], [-72.487112, -45.397501], [-72.495131, -45.402043], [-72.498484, -45.404876], [-72.499026, -45.406394]]]}}