{"type": "Feature", "properties": {"id": "rio-tolten", "name": "Río Toltén", "type": "river", "region": "araucania"}, "geometry": {"type": "MultiLineString", "coordinates": [[[-72.46199, -39.076922], [-72.477069, -39.07616], [-72.47891, -39.075085], [-72.479736, -39.07284], [-72.481522, -39.070837], [-72.484113, -39.070104], [-72.486586, -39.06843], [-72.489553, -39.068934], [-72.490963, -39.070721], [-72.491371, -39.07297], [-72.492396, -39.073361], [-72.503575, -39.066502], [-72.504578, -39.064519], [-72.504691, -39.061799], [-72.506461, -39.0598], [-72.507384, -39.057467], [-72.507148, -39.056292], [-72.504852, -39.053531], [-72.509052, -39.048111], [-72.513768, -39.044982], [-72.513794, -39.044082], [-72.511589, -39.042494], [-72.519432, -39.035353], [-72.523826, -39.033807], [-72.524748, -39.032949], [-72.524759, -39.030728], [-72.520924, -39.029023], [-72.520055, -39.026688], [-72.520038, -39.023952], [-72.521852, -39.021609], [-72.518182, -39.020497], [-72.516793, -39.018513], [-72.51778, -39.016529], [-72.522452, -39.013953]], [[-72.320375, -39.208137], [-72.327075, -39.202953], [-72.329221, -39.199752], [-72.328631, -39.194023], [-72.325986, -39.19226], [-72.325981, -39.190739], [-72.328722, -39.188107], [-72.329371, -39.188377], [-72.32973, -39.190651], [-72.330358, -39.191009], [-72.331887, -39.190543], [-72.333228, -39.189125], [-72.332777, -39.184227], [-72.328529, -39.179886], [-72.331517, -39.178219], [-72.333067, -39.174971], [-72.332128, -39.173607], [-72.329183, -39.171577], [-72.328985, -39.170787], [-72.333008, -39.163209], [-72.333024, -39.159732], [-72.335293, -39.156858], [-72.343812, -39.152091], [-72.346312, -39.149095], [-72.345877, -39.148388], [-72.341495, -39.148921]], [[-72.568565, -38.996862], [-72.572252, -38.999159], [-72.578131, -38.998529], [-72.582119, -39.000452], [-72.583656, -39.000238], [-72.589818, -38.99711], [-72.601169, -38.997325], [-72.603451, -38.999136], [-72.605181, -38.99965], [-72.611427, -38.994581], [-72.612232, -38.992947], [-72.616928, -38.991444], [-72.617193, -38.990445], [-72.616496, -38.989269], [-72.617073, -38.987691], [-72.62053, -38.985337]], [[-72.650003, -38.97331], [-72.653811, -38.977472], [-72.665296, -38.982414], [-72.66692, -38.984264]], [[-72.659067, -38.979865], [-72.662873, -38.983099], [-72.665189, -38.983932], [-72.670848, -38.9852], [-72.675708, -38.984128]], [[-72.229354, -39.275044], [-72.234457, -39.274666], [-72.238598, -39.272108], [-72.239671, -39.270663], [-72.239757, -39.268121], [-72.240937, -39.266476], [-72.248557, -39.260792]], [[-72.522452, -39.013953], [-72.52514, -39.009539], [-72.532629, -39.006016], [-72.535854, -39.006615], [-72.538068, -39.008651]], [[-73.156532, -39.086871], [-73.162827, -39.088984], [-73.166616, -39.091992], [-73.170448, -39.096177], [-73.175383, -39.099956], [-73.176095, -39.10237], [-73.17981, -39.106079], [-73.182667, -39.112358], [-73.185081, -39.115769], [-73.185242, -39.117642], [-73.184169, -39.122719], [-73.182421, -39.125816], [-73.166188, -39.139622], [-73.162905, -39.144473], [-73.16151, -39.14796], [-73.162991, -39.150963], [-73.16828, -39.156163], [-73.168516, -39.158534], [-73.166778, -39.162303], [-73.167207, -39.164657], [-73.172776, -39.174443], [-73.178246, -39.181264], [-73.178848, -39.186018], [-73.181827, -39.18903], [-73.201915, -39.18846], [-73.208704, -39.191976], [-73.21108, -39.201174], [-73.212955, -39.204757], [-73.215852, -39.205139], [-73.222729, -39.203285], [-73.225754, -39.203127], [-73.230507, -39.204707], [-73.232567, -39.207833], [-73.233329, -39.211956], [-73.228922, -39.218446], [-73.215508, -39.23173], [-73.215639, -39.239446], [-73.221955, -39.245909], [-73.223414, -39.251654]], [[-72.787009, -39.00507], [-72.791132, -39.004968], [-72.794753, -39.006331], [-72.79758, -39.009554], [-72.799393, -39.013647], [-72.801104, -39.015202], [-72.80391, -39.015835], [-72.807547, -39.015026], [-72.809221, -39.015822], [-72.811173, -39.024033], [-72.809132, -39.027557], [-72.809199, -39.029146]], [[-72.799782, -39.019625], [-72.804653, -39.021047], [-72.805656, -39.021864], [-72.8052, -39.023656], [-72.802346, -39.024627], [-72.802207, -39.026327], [-72.802944, -39.027413]], [[-72.523493, -39.012648], [-72.527299, -39.010818], [-72.531045, -39.010407], [-72.533326, -39.01066], [-72.53467, -39.011878], [-72.539027, -39.011688], [-72.54426, -39.009711], [-72.552262, -39.00555], [-72.557117, -39.004411], [-72.558222, -39.002552], [-72.562863, -39.000851], [-72.564772, -38.99815], [-72.566714, -38.996999], [-72.57592, -38.997116], [-72.577111, -38.995798], [-72.57548, -38.993214], [-72.575641, -38.991888], [-72.58019, -38.989261], [-72.584422, -38.985258], [-72.588633, -38.985888], [-72.594287, -38.988164], [-72.597973, -38.985333], [-72.60382, -38.986626], [-72.607006, -38.986359], [-72.607972, -38.983803], [-72.610906, -38.982068], [-72.612435, -38.98432], [-72.613792, -38.98517], [-72.620096, -38.985475], [-72.624543, -38.98314], [-72.629076, -38.981922], [-72.632707, -38.977064], [-72.63642, -38.973882], [-72.641934, -38.972255], [-72.64804, -38.97271], [-72.66888, -38.977639], [-72.67242, -38.979658], [-72.674845, -38.983302], [-72.677066, -38.984824], [-72.680365, -38.984637], [-72.682881, -38.98316], [-72.688256, -38.985262], [-72.693298, -38.989398], [-72.694302, -38.992638], [-72.693937, -38.994431], [-72.69737, -38.996353], [-72.697869, -39.000351], [-72.70105, -39.004236], [-72.704569, -39.005862], [-72.711044, -39.006087], [-72.72048, -39.008192], [-72.731976, -39.007788], [-72.737544, -39.005424], [-72.742388, -39.004399], [-72.743708, -39.001852], [-72.747651, -39.001464], [-72.752881, -38.998821], [-72.759131, -38.998342], [-72.761689, -38.995874], [-72.764275, -38.994581], [-72.769672, -38.995557], [-72.772493, -38.997049], [-72.777182, -38.997975], [-72.787009, -39.00507], [-72.790923, -39.00907], [-72.794903, -39.011888], [-72.797618, -39.015247], [-72.801257, -39.022772], [-72.798135, -39.024989], [-72.798009, -39.026096], [-72.801904, -39.026963], [-72.805712, -39.028713], [-72.81222, -39.030017], [-72.817305, -39.033643], [-72.822348, -39.035084], [-72.826433, -39.033253], [-72.850084, -39.031378], [-72.853528, -39.028127], [-72.855588, -39.021526], [-72.858431, -39.019875], [-72.861468, -39.020201], [-72.865394, -39.022143], [-72.873881, -39.020717], [-72.878655, -39.021347], [-72.881777, -39.022805], [-72.885173, -39.023064], [-72.889116, -39.022914], [-72.897195, -39.021151], [-72.899147, -39.022018], [-72.901068, -39.024102], [-72.90493, -39.024802], [-72.915348, -39.021676], [-72.918234, -39.021534], [-72.931288, -39.024757], [-72.933222, -39.023943], [-72.937878, -39.019942], [-72.939788, -39.019175], [-72.9432, -39.019225], [-72.949144, -39.021276], [-72.954599, -39.01895], [-72.961761, -39.016979], [-72.96654, -39.011594], [-72.969802, -39.010598], [-72.98324, -39.014115], [-72.983959, -39.020126], [-72.986609, -39.022635], [-72.988046, -39.022351], [-72.991093, -39.019859], [-72.994602, -39.020492], [-73.001414, -39.019184], [-73.007793, -39.0197], [-73.015351, -39.019309], [-73.01952, -39.020163], [-73.030636, -39.01954], [-73.036219, -39.018538], [-73.045649, -39.020909], [-73.048466, -39.020409], [-73.053964, -39.017246], [-73.066721, -39.01394], [-73.068716, -39.012657], [-73.07113, -39.008863], [-73.073577, -39.00838], [-73.079168, -39.010657], [-73.085024, -39.015082], [-73.091816, -39.021501], [-73.103285, -39.022134], [-73.106139, -39.024193], [-73.110505, -39.029011], [-73.116498, -39.031376], [-73.12354, -39.043343], [-73.123049, -39.047837], [-73.124937, -39.050337], [-73.126292, -39.053638], [-73.129592, -39.057837], [-73.133156, -39.060461], [-73.132897, -39.062125], [-73.131255, -39.064542], [-73.13145, -39.065477], [-73.134072, -39.06815], [-73.139, -39.071646], [-73.141447, -39.076664], [-73.141466, -39.082378], [-73.144159, -39.084217], [-73.148107, -39.085561], [-73.156532, -39.086871]], [[-72.529748, -39.007346], [-72.532683, -39.008512], [-72.536604, -39.008413], [-72.541534, -39.009364], [-72.543191, -39.008113], [-72.542494, -39.005399], [-72.54391, -39.002911], [-72.547274, -39.002106], [-72.558905, -39.002033]], [[-72.543245, -39.007767], [-72.55045, -39.006673]], [[-72.248557, -39.260792], [-72.253555, -39.258817], [-72.260485, -39.25812]], [[-72.260485, -39.25812], [-72.263318, -39.256076], [-72.264391, -39.253667], [-72.259777, -39.250709], [-72.259713, -39.24938], [-72.261065, -39.248333], [-72.264155, -39.248283], [-72.26939, -39.250327], [-72.273982, -39.248516], [-72.276793, -39.24825], [-72.279068, -39.249995], [-72.28175, -39.250593], [-72.285376, -39.243348], [-72.290435, -39.243643], [-72.29158, -39.243202], [-72.293061, -39.241429], [-72.292993, -39.239286], [-72.29149, -39.239145], [-72.289947, -39.240722], [-72.288745, -39.239775], [-72.290805, -39.237647], [-72.291127, -39.235603], [-72.292972, -39.232661], [-72.295225, -39.230866], [-72.297607, -39.229969], [-72.303487, -39.231066], [-72.305461, -39.229952], [-72.30177, -39.228024], [-72.303014, -39.225398], [-72.30162, -39.221441], [-72.304023, -39.221741], [-72.304452, -39.221275], [-72.303571, -39.219859], [-72.304366, -39.218249], [-72.311061, -39.215856], [-72.314881, -39.211101], [-72.320375, -39.208137]], [[-72.369352, -39.119461], [-72.374255, -39.11832], [-72.379442, -39.115436], [-72.381009, -39.113272], [-72.380387, -39.109713], [-72.380961, -39.108951], [-72.384791, -39.108044], [-72.392569, -39.10759], [-72.402933, -39.103132], [-72.411345, -39.101417], [-72.413372, -39.099185], [-72.414118, -39.09441], [-72.416081, -39.091883], [-72.417712, -39.090842], [-72.430608, -39.088081], [-72.441793, -39.083818], [-72.449985, -39.081873], [-72.458224, -39.077909], [-72.46199, -39.076922]], [[-72.983841, -39.019734], [-72.985273, -39.020096], [-72.987757, -39.018275], [-72.989382, -39.017975], [-72.993035, -39.018533], [-72.996737, -39.020251]], [[-72.354643, -39.127888], [-72.355968, -39.12532], [-72.354796, -39.123649], [-72.355176, -39.121254], [-72.360967, -39.119307], [-72.36484, -39.12006], [-72.369352, -39.119461]], [[-72.341495, -39.148921], [-72.337927, -39.147327], [-72.337439, -39.146258], [-72.337793, -39.144627], [-72.339075, -39.143221], [-72.341527, -39.142468], [-72.342954, -39.13859], [-72.345003, -39.137097], [-72.351392, -39.130027], [-72.354643, -39.127888]], [[-72.320375, -39.208137], [-72.327075, -39.202953], [-72.329221, -39.199752], [-72.328631, -39.194023], [-72.325986, -39.19226], [-72.325981, -39.190739], [-72.328722, -39.188107], [-72.329371, -39.188377], [-72.32973, -39.190651], [-72.330358, -39.191009], [-72.331887, -39.190543], [-72.333228, -39.189125], [-72.332777, -39.184227], [-72.328529, -39.179886], [-72.331517, -39.178219], [-72.333067, -39.174971], [-72.332128, -39.173607], [-72.329183, -39.171577], [-72.328985, -39.170787], [-72.333008, -39.163209], [-72.333024, -39.159732], [-72.335293, -39.156858], [-72.343812, -39.152091], [-72.346312, -39.149095], [-72.345877, -39.148388], [-72.341495, -39.148921]], [[-72.341495, -39.148921], [-72.337927, -39.147327], [-72.337439, -39.146258], [-72.337793, -39.144627], [-72.339075, -39.143221], [-72.341527, -39.142468], [-72.342954, -39.13859], [-72.345003, -39.137097], [-72.351392, -39.130027], [-72.354643, -39.127888]], [[-72.354643, -39.127888], [-72.355968, -39.12532], [-72.354796, -39.123649], [-72.355176, -39.121254], [-72.360967, -39.119307], [-72.36484, -39.12006], [-72.369352, -39.119461]], [[-72.659067, -38.979865], [-72.662873, -38.983099], [-72.665189, -38.983932], [-72.670848, -38.9852], [-72.675708, -38.984128]], [[-72.650003, -38.97331], [-72.653811, -38.977472], [-72.665296, -38.982414], [-72.66692, -38.984264]], [[-72.568565, -38.996862], [-72.572252, -38.999159], [-72.578131, -38.998529], [-72.582119, -39.000452], [-72.583656, -39.000238], [-72.589818, -38.99711], [-72.601169, -38.997325], [-72.603451, -38.999136], [-72.605181, -38.99965], [-72.611427, -38.994581], [-72.612232, -38.992947], [-72.616928, -38.991444], [-72.617193, -38.990445], [-72.616496, -38.989269], [-72.617073, -38.987691], [-72.62053, -38.985337]], [[-72.523493, -39.012648], [-72.527299, -39.010818], [-72.531045, -39.010407], [-72.533326, -39.01066], [-72.53467, -39.011878], [-72.539027, -39.011688], [-72.54426, -39.009711], [-72.552262, -39.00555], [-72.557117, -39.004411], [-72.558222, -39.002552], [-72.562863, -39.000851], [-72.564772, -38.99815], [-72.566714, -38.996999], [-72.57592, -38.997116], [-72.577111, -38.995798], [-72.57548, -38.993214], [-72.575641, -38.991888], [-72.58019, -38.989261], [-72.584422, -38.985258], [-72.588633, -38.985888], [-72.594287, -38.988164], [-72.597973, -38.985333], [-72.60382, -38.986626], [-72.607006, -38.986359], [-72.607972, -38.983803], [-72.610906, -38.982068], [-72.612435, -38.98432], [-72.613792, -38.98517], [-72.620096, -38.985475], [-72.624543, -38.98314], [-72.629076, -38.981922], [-72.632707, -38.977064], [-72.63642, -38.973882], [-72.641934, -38.972255], [-72.64804, -38.97271], [-72.66888, -38.977639], [-72.67242, -38.979658], [-72.674845, -38.983302], [-72.677066, -38.984824], [-72.680365, -38.984637], [-72.682881, -38.98316], [-72.688256, -38.985262], [-72.693298, -38.989398], [-72.694302, -38.992638], [-72.693937, -38.994431], [-72.69737, -38.996353], [-72.697869, -39.000351], [-72.70105, -39.004236], [-72.704569, -39.005862], [-72.711044, -39.006087], [-72.72048, -39.008192], [-72.731976, -39.007788], [-72.737544, -39.005424], [-72.742388, -39.004399], [-72.743708, -39.001852], [-72.747651, -39.001464], [-72.752881, -38.998821], [-72.759131, -38.998342], [-72.761689, -38.995874], [-72.764275, -38.994581], [-72.769672, -38.995557], [-72.772493, -38.997049], [-72.777182, -38.997975], [-72.787009, -39.00507], [-72.790923, -39.00907], [-72.794903, -39.011888], [-72.797618, -39.015247], [-72.801257, -39.022772], [-72.798135, -39.024989], [-72.798009, -39.026096], [-72.801904, -39.026963], [-72.805712, -39.028713], [-72.81222, -39.030017], [-72.817305, -39.033643], [-72.822348, -39.035084], [-72.826433, -39.033253], [-72.850084, -39.031378], [-72.853528, -39.028127], [-72.855588, -39.021526], [-72.858431, -39.019875], [-72.861468, -39.020201], [-72.865394, -39.022143], [-72.873881, -39.020717], [-72.878655, -39.021347], [-72.881777, -39.022805], [-72.885173, -39.023064], [-72.889116, -39.022914], [-72.897195, -39.021151], [-72.899147, -39.022018], [-72.901068, -39.024102], [-72.90493, -39.024802], [-72.915348, -39.021676], [-72.918234, -39.021534], [-72.931288, -39.024757], [-72.933222, -39.023943], [-72.937878, -39.019942], [-72.939788, -39.019175], [-72.9432, -39.019225], [-72.949144, -39.021276], [-72.954599, -39.01895], [-72.961761, -39.016979], [-72.96654, -39.011594], [-72.969802, -39.010598], [-72.98324, -39.014115], [-72.983959, -39.020126], [-72.986609, -39.022635], [-72.988046, -39.022351], [-72.991093, -39.019859], [-72.994602, -39.020492], [-73.001414, -39.019184], [-73.007793, -39.0197], [-73.015351, -39.019309], [-73.01952, -39.020163], [-73.030636, -39.01954], [-73.036219, -39.018538], [-73.045649, -39.020909], [-73.048466, -39.020409], [-73.053964, -39.017246], [-73.066721, -39.01394], [-73.068716, -39.012657], [-73.07113, -39.008863], [-73.073577, -39.00838], [-73.079168, -39.010657], [-73.085024, -39.015082], [-73.091816, -39.021501], [-73.103285, -39.022134], [-73.106139, -39.024193], [-73.110505, -39.029011], [-73.116498, -39.031376], [-73.12354, -39.043343], [-73.123049, -39.047837], [-73.124937, -39.050337], [-73.126292, -39.053638], [-73.129592, -39.057837], [-73.133156, -39.060461], [-73.132897, -39.062125], [-73.131255, -39.064542], [-73.13145, -39.065477], [-73.134072, -39.06815], [-73.139, -39.071646], [-73.141447, -39.076664], [-73.141466, -39.082378], [-73.144159, -39.084217], [-73.148107, -39.085561], [-73.156532, -39.086871]], [[-72.529748, -39.007346], [-72.532683, -39.008512], [-72.536604, -39.008413], [-72.541534, -39.009364], [-72.543191, -39.008113], [-72.542494, -39.005399], [-72.54391, -39.002911], [-72.547274, -39.002106], [-72.558905, -39.002033]], [[-72.543245, -39.007767], [-72.55045, -39.006673]], [[-72.522452, -39.013953], [-72.52514, -39.009539], [-72.532629, -39.006016], [-72.535854, -39.006615], [-72.538068, -39.008651]], [[-72.46199, -39.076922], [-72.477069, -39.07616], [-72.47891, -39.075085], [-72.479736, -39.07284], [-72.481522, -39.070837], [-72.484113, -39.070104], [-72.486586, -39.06843], [-72.489553, -39.068934], [-72.490963, -39.070721], [-72.491371, -39.07297], [-72.492396, -39.073361], [-72.503575, -39.066502], [-72.504578, -39.064519], [-72.504691, -39.061799], [-72.506461, -39.0598], [-72.507384, -39.057467], [-72.507148, -39.056292], [-72.504852, -39.053531], [-72.509052, -39.048111], [-72.513768, -39.044982], [-72.513794, -39.044082], [-72.511589, -39.042494], [-72.519432, -39.035353], [-72.523826, -39.033807], [-72.524748, -39.032949], [-72.524759, -39.030728], [-72.520924, -39.029023], [-72.520055, -39.026688], [-72.520038, -39.023952], [-72.521852, -39.021609], [-72.518182, -39.020497], [-72.516793, -39.018513], [-72.51778, -39.016529], [-72.522452, -39.013953]], [[-72.369352, -39.119461], [-72.374255, -39.11832], [-72.379442, -39.115436], [-72.381009, -39.113272], [-72.380387, -39.109713], [-72.380961, -39.108951], [-72.384791, -39.108044], [-72.392569, -39.10759], [-72.402933, -39.103132], [-72.411345, -39.101417], [-72.413372, -39.099185], [-72.414118, -39.09441], [-72.416081, -39.091883], [-72.417712, -39.090842], [-72.430608, -39.088081], [-72.441793, -39.083818], [-72.449985, -39.081873], [-72.458224, -39.077909], [-72.46199, -39.076922]], [[-72.229354, -39.275044], [-72.234457, -39.274666], [-72.238598, -39.272108], [-72.239671, -39.270663], [-72.239757, -39.268121], [-72.240937, -39.266476], [-72.248557, -39.260792]], [[-72.248557, -39.260792], [-72.253555, -39.258817], [-72.260485, -39.25812]], [[-72.260485, -39.25812], [-72.263318, -39.256076], [-72.264391, -39.253667], [-72.259777, -39.250709], [-72.259713, -39.24938], [-72.261065, -39.248333], [-72.264155, -39.248283], [-72.26939, -39.250327], [-72.273982, -39.248516], [-72.276793, -39.24825], [-72.279068, -39.249995], [-72.28175, -39.250593], [-72.285376, -39.243348], [-72.290435, -39.243643], [-72.29158, -39.243202], [-72.293061, -39.241429], [-72.292993, -39.239286], [-72.29149, -39.239145], [-72.289947, -39.240722], [-72.288745, -39.239775], [-72.290805, -39.237647], [-72.291127, -39.235603], [-72.292972, -39.232661], [-72.295225, -39.230866], [-72.297607, -39.229969], [-72.303487, -39.231066], [-72.305461, -39.229952], [-72.30177, -39.228024], [-72.303014, -39.225398], [-72.30162, -39.221441], [-72.304023, -39.221741], [-72.304452, -39.221275], [-72.303571, -39.219859], [-72.304366, -39.218249], [-72.311061, -39.215856], [-72.314881, -39.211101], [-72.320375, -39.208137]], [[-73.156532, -39.086871], [-73.162827, -39.088984], [-73.166616, -39.091992], [-73.170448, -39.096177], [-73.175383, -39.099956], [-73.176095, -39.10237], [-73.17981, -39.106079], [-73.182667, -39.112358], [-73.185081, -39.115769], [-73.185242, -39.117642], [-73.184169, -39.122719], [-73.182421, -39.125816], [-73.166188, -39.139622], [-73.162905, -39.144473], [-73.16151, -39.14796], [-73.162991, -39.150963], [-73.16828, -39.156163], [-73.168516, -39.158534], [-73.166778, -39.162303], [-73.167207, -39.164657], [-73.172776, -39.174443], [-73.178246, -39.181264], [-73.178848, -39.186018], [-73.181827, -39.18903], [-73.201915, -39.18846], [-73.208704, -39.191976], [-73.21108, -39.201174], [-73.212955, -39.204757], [-73.215852, -39.205139], [-73.222729, -39.203285], [-73.225754, -39.203127], [-73.230507, -39.204707], [-73.232567, -39.207833], [-73.233329, -39.211956], [-73.228922, -39.218446], [-73.215508, -39.23173], [-73.215639, -39.239446], [-73.221955, -39.245909], [-73.223414, -39.251654]], [[-72.787009, -39.00507], [-72.791132, -39.004968], [-72.794753, -39.006331], [-72.79758, -39.009554], [-72.799393, -39.013647], [-72.801104, -39.015202], [-72.80391, -39.015835], [-72.807547, -39.015026], [-72.809221, -39.015822], [-72.811173, -39.024033], [-72.809132, -39.027557], [-72.809199, -39.029146]], [[-72.799782, -39.019625], [-72.804653, -39.021047], [-72.805656, -39.021864], [-72.8052, -39.023656], [-72.802346, -39.024627], [-72.802207, -39.026327], [-72.802944, -39.027413]], [[-72.983841, -39.019734], [-72.985273, -39.020096], [-72.987757, -39.018275], [-72.989382, -39.017975], [-72.993035, -39.018533], [-72.996737, -39.020251]]]}}