{"type": "Feature", "properties": {"id": "rio-nuble", "name": "Río Ñuble", "type": "river", "region": "nuble"}, "geometry": {"type": "MultiLineString", "coordinates": [[[-71.681253, -36.523023], [-71.68379, -36.521139], [-71.68526, -36.517772], [-71.684986, -36.515345], [-71.686166, -36.507722], [-71.685947, -36.503673], [-71.687567, -36.500969], [-71.687121, -36.495544], [-71.691461, -36.492789], [-71.694835, -36.492362], [-71.699084, -36.489938], [-71.699899, -36.488303], [-71.698161, -36.486371], [-71.69788, -36.483913], [-71.698341, -36.483274], [-71.702812, -36.48195], [-71.708767, -36.483067], [-71.718911, -36.482515], [-71.723379, -36.484711], [-71.726968, -36.485314], [-71.73215, -36.482921], [-71.734661, -36.482839], [-71.736807, -36.481411], [-71.738818, -36.481148], [-71.744113, -36.482718], [-71.746817, -36.48286], [-71.751596, -36.484918], [-71.754053, -36.484987], [-71.757283, -36.484258], [-71.763495, -36.479785], [-71.768607, -36.477965], [-71.769986, -36.478146], [-71.77094, -36.479998], [-71.777957, -36.484404], [-71.779953, -36.484706], [-71.781417, -36.48368], [-71.782528, -36.48368], [-71.787956, -36.48569], [-71.789571, -36.487311], [-71.790547, -36.490136], [-71.792859, -36.492918], [-71.795319, -36.493591], [-71.797202, -36.494986], [-71.797698, -36.497381], [-71.798656, -36.498285], [-71.801552, -36.497821], [-71.809171, -36.499343], [-71.811143, -36.500592], [-71.813016, -36.503488], [-71.817635, -36.505085], [-71.820789, -36.507327], [-71.832776, -36.511924], [-71.836262, -36.511829], [-71.840457, -36.513124], [-71.843437, -36.512904], [-71.847224, -36.51438], [-71.852402, -36.512977], [-71.856134, -36.514427]], [[-71.147015, -36.972927], [-71.145222, -36.974124], [-71.142792, -36.974405], [-71.141288, -36.973634], [-71.138717, -36.973812], [-71.137941, -36.972608], [-71.135184, -36.972299], [-71.132981, -36.969836], [-71.131224, -36.969431], [-71.130779, -36.967115]], [[-71.196293, -36.900942], [-71.196421, -36.899811], [-71.194729, -36.89785], [-71.194964, -36.897049], [-71.198235, -36.894691], [-71.197696, -36.892381], [-71.201094, -36.888927], [-71.200968, -36.887593], [-71.201977, -36.886925], [-71.202563, -36.884143], [-71.205489, -36.883176], [-71.204899, -36.882095], [-71.206121, -36.880028], [-71.203836, -36.877153], [-71.203335, -36.875147], [-71.203719, -36.874263], [-71.205537, -36.873161], [-71.207605, -36.87338], [-71.209074, -36.872253], [-71.210535, -36.872062], [-71.209955, -36.870675], [-71.21204, -36.867512], [-71.216336, -36.86637], [-71.217185, -36.865112], [-71.219185, -36.86508], [-71.219054, -36.863999], [-71.220907, -36.86338], [-71.221539, -36.862371], [-71.223067, -36.862138], [-71.224413, -36.859961], [-71.225692, -36.859949], [-71.226482, -36.853856], [-71.233409, -36.848338], [-71.235123, -36.844195], [-71.238541, -36.842921], [-71.242887, -36.839991], [-71.249117, -36.837121], [-71.248809, -36.835055], [-71.250036, -36.83116], [-71.249364, -36.829687], [-71.250984, -36.826787], [-71.25031, -36.825387], [-71.253232, -36.821533], [-71.25494, -36.815128], [-71.254418, -36.811389], [-71.252248, -36.808528], [-71.251492, -36.803974], [-71.25042, -36.802075], [-71.249786, -36.793369], [-71.250145, -36.790377]], [[-71.171933, -36.919684], [-71.172631, -36.918864], [-71.175012, -36.918277]], [[-71.22284, -36.862269], [-71.224373, -36.861624], [-71.225692, -36.859949]], [[-71.177784, -36.915208], [-71.179311, -36.912456], [-71.180828, -36.911565]], [[-71.199719, -36.890205], [-71.200067, -36.886404], [-71.202634, -36.884077]], [[-71.172842, -36.918807], [-71.173481, -36.918811]], [[-71.184913, -36.908727], [-71.184636, -36.907919]], [[-71.253686, -36.789033], [-71.255174, -36.788618]], [[-71.262342, -36.770262], [-71.263761, -36.769104]], [[-71.282159, -36.687052], [-71.285557, -36.687608]], [[-71.265519, -36.750875], [-71.264626, -36.750146], [-71.264454, -36.749032]], [[-71.254001, -36.786424], [-71.25469, -36.784503]], [[-71.264801, -36.761198], [-71.264735, -36.758486], [-71.26409, -36.757806]], [[-71.265725, -36.765708], [-71.265665, -36.762665]], [[-71.253368, -36.789245], [-71.255348, -36.788414], [-71.256191, -36.785825]], [[-71.252108, -36.789896], [-71.254014, -36.788103], [-71.253535, -36.785025], [-71.255831, -36.783639]], [[-71.261125, -36.770962], [-71.264959, -36.767983], [-71.265653, -36.76594]], [[-71.264017, -36.756368], [-71.264193, -36.753962]], [[-71.398478, -36.649222], [-71.398443, -36.647963], [-71.401866, -36.643697], [-71.408147, -36.64122], [-71.411801, -36.638543], [-71.416441, -36.637627], [-71.421694, -36.639086], [-71.425012, -36.637223], [-71.425791, -36.633739], [-71.426762, -36.632346], [-71.427717, -36.632269], [-71.428425, -36.633442], [-71.429227, -36.633541], [-71.434696, -36.631739], [-71.438107, -36.629658], [-71.439687, -36.628375], [-71.440106, -36.626765], [-71.439941, -36.624962], [-71.438145, -36.621786], [-71.43843, -36.620328], [-71.439918, -36.618809], [-71.44237, -36.619355], [-71.445631, -36.625611], [-71.449101, -36.62578], [-71.450573, -36.624609], [-71.449101, -36.621452], [-71.452973, -36.613532], [-71.457352, -36.613977], [-71.463616, -36.61584], [-71.468357, -36.612199], [-71.465076, -36.611241], [-71.466789, -36.608868], [-71.472531, -36.608413], [-71.474751, -36.611705], [-71.477296, -36.611802], [-71.480087, -36.609133], [-71.480302, -36.607652], [-71.481981, -36.605955], [-71.485607, -36.603953], [-71.489553, -36.603213], [-71.489999, -36.604588], [-71.492955, -36.606234], [-71.496622, -36.606728], [-71.499231, -36.605615], [-71.503214, -36.599853], [-71.521022, -36.596635], [-71.522551, -36.593269], [-71.52022, -36.589209], [-71.520578, -36.587793], [-71.523587, -36.587308], [-71.529001, -36.584268], [-71.534118, -36.582426], [-71.542048, -36.57491], [-71.544422, -36.570683], [-71.548522, -36.570562], [-71.552577, -36.574252], [-71.555019, -36.574123], [-71.556462, -36.573053], [-71.558521, -36.569448], [-71.562714, -36.568517], [-71.565118, -36.56711], [-71.565416, -36.565334], [-71.562447, -36.56506], [-71.561308, -36.563732], [-71.564106, -36.561628], [-71.567991, -36.559855], [-71.569495, -36.558161], [-71.569717, -36.556804], [-71.580113, -36.551584], [-71.589476, -36.549386], [-71.586437, -36.541183], [-71.592614, -36.541409], [-71.595465, -36.540032], [-71.596146, -36.538614], [-71.596042, -36.536935], [-71.597004, -36.535437], [-71.596913, -36.534047], [-71.596264, -36.532763], [-71.592909, -36.530157], [-71.593006, -36.528323], [-71.601017, -36.521219], [-71.604318, -36.519312], [-71.608839, -36.518647], [-71.612306, -36.520835], [-71.614361, -36.52127], [-71.619053, -36.515493], [-71.620479, -36.515236], [-71.624526, -36.516332], [-71.628287, -36.51477], [-71.632709, -36.514248], [-71.633565, -36.514642], [-71.633012, -36.51591], [-71.633662, -36.517593], [-71.641132, -36.517393], [-71.658956, -36.523751], [-71.662437, -36.523911], [-71.663137, -36.523162], [-71.66519, -36.522846], [-71.678811, -36.523584], [-71.681253, -36.523023]], [[-71.438145, -36.621786], [-71.437822, -36.619354], [-71.439918, -36.618809]], [[-71.657572, -36.523486], [-71.65935, -36.522431], [-71.663382, -36.523076]], [[-71.603193, -36.519914], [-71.606712, -36.519589], [-71.612306, -36.520835]], [[-71.156234, -36.971877], [-71.147015, -36.972927]], [[-71.814314, -36.498589], [-71.819466, -36.50051], [-71.826397, -36.499907], [-71.833392, -36.500286], [-71.838863, -36.502989], [-71.8463, -36.500185], [-71.85125, -36.500904], [-71.855052, -36.504027], [-71.855893, -36.505979], [-71.857714, -36.507719], [-71.859451, -36.508584], [-71.862412, -36.508164], [-71.864202, -36.508962], [-71.864817, -36.5098], [-71.863897, -36.510852], [-71.863906, -36.512053], [-71.864709, -36.513239], [-71.873249, -36.514051], [-71.87521, -36.514847], [-71.876758, -36.516445]], [[-71.160886, -36.970279], [-71.159169, -36.971398], [-71.156234, -36.971877]], [[-71.396856, -36.651786], [-71.398478, -36.649222]], [[-71.262627, -36.731226], [-71.263603, -36.730043], [-71.264984, -36.729767], [-71.265313, -36.728214], [-71.264688, -36.72672], [-71.266663, -36.725031], [-71.267071, -36.723508], [-71.269167, -36.722056], [-71.274885, -36.713609], [-71.277393, -36.712577], [-71.278883, -36.713201], [-71.280486, -36.713015], [-71.280328, -36.709263], [-71.281655, -36.707035], [-71.284156, -36.704724], [-71.284209, -36.703649], [-71.283101, -36.701699], [-71.284218, -36.700103], [-71.281179, -36.699066], [-71.278892, -36.697102], [-71.279495, -36.693935], [-71.281371, -36.691474], [-71.281707, -36.687411], [-71.283505, -36.68689], [-71.285825, -36.687565], [-71.290002, -36.685441], [-71.290393, -36.68486], [-71.289677, -36.682146], [-71.291925, -36.678633], [-71.301127, -36.675324], [-71.304648, -36.673316], [-71.306087, -36.671917], [-71.307343, -36.668994], [-71.311591, -36.667515], [-71.315382, -36.66718], [-71.321141, -36.66368], [-71.323198, -36.663724], [-71.325319, -36.662803], [-71.332128, -36.66546], [-71.336806, -36.660101], [-71.340108, -36.657379], [-71.347522, -36.654433], [-71.355466, -36.653723], [-71.360332, -36.655611], [-71.363567, -36.656144], [-71.368392, -36.655255], [-71.371238, -36.653904], [-71.374191, -36.65504], [-71.383592, -36.656077], [-71.385904, -36.655249], [-71.388125, -36.651488], [-71.389144, -36.650857], [-71.390083, -36.650754], [-71.389892, -36.652362], [-71.39077, -36.653213], [-71.394326, -36.653164], [-71.396856, -36.651786]], [[-72.093272, -36.550974], [-72.099634, -36.546772], [-72.105686, -36.545432], [-72.107842, -36.546139], [-72.108217, -36.548389], [-72.111608, -36.550453], [-72.115068, -36.549832], [-72.117391, -36.548664], [-72.128731, -36.550255], [-72.131875, -36.549673], [-72.135463, -36.547565], [-72.137234, -36.547242], [-72.139975, -36.547604], [-72.143151, -36.550677], [-72.147254, -36.551728], [-72.149019, -36.551285], [-72.151514, -36.549457], [-72.154706, -36.549789], [-72.158723, -36.550793], [-72.160746, -36.553344], [-72.166395, -36.555322], [-72.167956, -36.55736], [-72.172703, -36.558476], [-72.184049, -36.559149], [-72.185422, -36.558636], [-72.188024, -36.55615], [-72.195969, -36.555762], [-72.198458, -36.556611], [-72.199413, -36.55771], [-72.199037, -36.560571], [-72.202824, -36.566663], [-72.202819, -36.569209], [-72.203656, -36.57185], [-72.207851, -36.573979], [-72.213736, -36.57587], [-72.222834, -36.582969], [-72.232291, -36.583813], [-72.235515, -36.585179], [-72.243712, -36.58458], [-72.248674, -36.584972], [-72.252397, -36.58421], [-72.256109, -36.581935], [-72.258566, -36.581672], [-72.261141, -36.586587], [-72.263764, -36.589482], [-72.280453, -36.599612], [-72.281864, -36.599474], [-72.284583, -36.597872], [-72.289546, -36.598793], [-72.293193, -36.597859], [-72.299089, -36.593518], [-72.305757, -36.591136], [-72.30904, -36.591162], [-72.317065, -36.594823], [-72.319737, -36.598819], [-72.322183, -36.599991], [-72.331485, -36.599784], [-72.335422, -36.602092], [-72.339864, -36.603591], [-72.34408, -36.603367], [-72.347712, -36.601869], [-72.355356, -36.603625], [-72.35747, -36.606003], [-72.362695, -36.608914], [-72.375526, -36.613926], [-72.377071, -36.615442], [-72.378659, -36.619764], [-72.381524, -36.622141], [-72.384968, -36.622374], [-72.388766, -36.620789], [-72.391963, -36.620763], [-72.396319, -36.623269], [-72.40075, -36.624337], [-72.403379, -36.625956], [-72.404612, -36.62751], [-72.408405, -36.62927], [-72.415609, -36.63017], [-72.416135, -36.631406], [-72.415572, -36.634363], [-72.417144, -36.635512], [-72.43004, -36.634695], [-72.43329, -36.635857], [-72.435994, -36.638543], [-72.439824, -36.640704], [-72.44374, -36.64184], [-72.450746, -36.642064], [-72.457677, -36.640919], [-72.46229, -36.639055], [-72.466684, -36.638672], [-72.469532, -36.637187], [-72.472978, -36.637262]], [[-71.856134, -36.514427], [-71.864106, -36.516328], [-71.86817, -36.51571], [-71.872034, -36.516552], [-71.876051, -36.516565], [-71.878266, -36.515844], [-71.881082, -36.516132], [-71.883369, -36.517285], [-71.88599, -36.520413], [-71.890124, -36.520911], [-71.892542, -36.52201], [-71.898413, -36.52182], [-71.90419, -36.519503], [-71.908985, -36.519713], [-71.915463, -36.519034], [-71.919694, -36.520755], [-71.927686, -36.520755], [-71.934043, -36.526803], [-71.940563, -36.524583], [-71.944876, -36.523868], [-71.947019, -36.524433], [-71.949157, -36.526657], [-71.952097, -36.525308], [-71.956109, -36.524829], [-71.958454, -36.52223], [-71.966291, -36.519272], [-71.969837, -36.515698], [-71.973479, -36.515426], [-71.980839, -36.512887], [-71.983736, -36.509938], [-71.98799, -36.510141], [-71.990259, -36.509084], [-71.997748, -36.508356], [-72.001036, -36.510007], [-72.001079, -36.512154], [-72.003037, -36.513827], [-72.004523, -36.516284], [-72.004615, -36.519039], [-72.005532, -36.520406], [-72.006649, -36.520765], [-72.010191, -36.519369], [-72.013284, -36.519176], [-72.018817, -36.524465], [-72.024496, -36.523606], [-72.033654, -36.525288], [-72.041121, -36.521863], [-72.044045, -36.521413], [-72.045619, -36.521814], [-72.048131, -36.523747], [-72.049021, -36.52604], [-72.050137, -36.527028], [-72.051339, -36.527049], [-72.056188, -36.529998], [-72.058752, -36.530429], [-72.061155, -36.529756], [-72.062625, -36.530015], [-72.063795, -36.531024], [-72.063948, -36.533836], [-72.065678, -36.534222], [-72.067652, -36.533722], [-72.070307, -36.534601], [-72.071294, -36.537023], [-72.075216, -36.541264], [-72.079817, -36.544339], [-72.080545, -36.546385], [-72.082656, -36.548501], [-72.084066, -36.55144], [-72.088989, -36.55178], [-72.093272, -36.550974]], [[-71.130779, -36.967115], [-71.127562, -36.961529], [-71.127065, -36.959757], [-71.12763, -36.958577], [-71.127325, -36.957034], [-71.125835, -36.955515], [-71.126768, -36.953457], [-71.125546, -36.951834], [-71.1258, -36.950202], [-71.129302, -36.945892]], [[-71.2028, -36.884024], [-71.204892, -36.882171]], [[-71.250145, -36.790377], [-71.253141, -36.789439], [-71.256016, -36.786441], [-71.255774, -36.783866], [-71.256646, -36.781408], [-71.255166, -36.778316], [-71.255303, -36.777156], [-71.259969, -36.774232], [-71.261094, -36.771207], [-71.261106, -36.768489], [-71.262928, -36.766671], [-71.265425, -36.766189], [-71.266171, -36.764284], [-71.266185, -36.763298], [-71.263279, -36.759353], [-71.26409, -36.757806], [-71.263871, -36.754531], [-71.266105, -36.75287], [-71.26631, -36.752007], [-71.263487, -36.747083], [-71.263612, -36.74625], [-71.265641, -36.74568], [-71.26597, -36.744072], [-71.265655, -36.742981], [-71.26374, -36.741139]], [[-71.26374, -36.741139], [-71.264051, -36.733645], [-71.262627, -36.731226]], [[-71.184838, -36.908925], [-71.185076, -36.906568], [-71.187933, -36.906021], [-71.188689, -36.903988], [-71.191106, -36.903895], [-71.194425, -36.902627], [-71.194735, -36.901388], [-71.196293, -36.900942]], [[-71.129302, -36.945892], [-71.132725, -36.943062], [-71.138216, -36.940964], [-71.141839, -36.940919], [-71.144795, -36.942145], [-71.146844, -36.941407], [-71.154384, -36.941002], [-71.154596, -36.939053], [-71.156876, -36.938011], [-71.157525, -36.934144], [-71.159649, -36.932231], [-71.160057, -36.930653], [-71.161248, -36.929993], [-71.161296, -36.928068], [-71.165426, -36.923848], [-71.165582, -36.92242], [-71.170147, -36.921326], [-71.171933, -36.919684], [-71.175651, -36.917925], [-71.176238, -36.916761], [-71.177652, -36.916158], [-71.177754, -36.914614], [-71.179878, -36.913503], [-71.180296, -36.911968], [-71.182029, -36.91129], [-71.184838, -36.908925]], [[-71.156234, -36.971877], [-71.147015, -36.972927]], [[-71.147015, -36.972927], [-71.145222, -36.974124], [-71.142792, -36.974405], [-71.141288, -36.973634], [-71.138717, -36.973812], [-71.137941, -36.972608], [-71.135184, -36.972299], [-71.132981, -36.969836], [-71.131224, -36.969431], [-71.130779, -36.967115]], [[-71.130779, -36.967115], [-71.127562, -36.961529], [-71.127065, -36.959757], [-71.12763, -36.958577], [-71.127325, -36.957034], [-71.125835, -36.955515], [-71.126768, -36.953457], [-71.125546, -36.951834], [-71.1258, -36.950202], [-71.129302, -36.945892]], [[-71.129302, -36.945892], [-71.132725, -36.943062], [-71.138216, -36.940964], [-71.141839, -36.940919], [-71.144795, -36.942145], [-71.146844, -36.941407], [-71.154384, -36.941002], [-71.154596, -36.939053], [-71.156876, -36.938011], [-71.157525, -36.934144], [-71.159649, -36.932231], [-71.160057, -36.930653], [-71.161248, -36.929993], [-71.161296, -36.928068], [-71.165426, -36.923848], [-71.165582, -36.92242], [-71.170147, -36.921326], [-71.171933, -36.919684], [-71.175651, -36.917925], [-71.176238, -36.916761], [-71.177652, -36.916158], [-71.177754, -36.914614], [-71.179878, -36.913503], [-71.180296, -36.911968], [-71.182029, -36.91129], [-71.184838, -36.908925]], [[-71.184838, -36.908925], [-71.185076, -36.906568], [-71.187933, -36.906021], [-71.188689, -36.903988], [-71.191106, -36.903895], [-71.194425, -36.902627], [-71.194735, -36.901388], [-71.196293, -36.900942]], [[-71.196293, -36.900942], [-71.196421, -36.899811], [-71.194729, -36.89785], [-71.194964, -36.897049], [-71.198235, -36.894691], [-71.197696, -36.892381], [-71.201094, -36.888927], [-71.200968, -36.887593], [-71.201977, -36.886925], [-71.202563, -36.884143], [-71.205489, -36.883176], [-71.204899, -36.882095], [-71.206121, -36.880028], [-71.203836, -36.877153], [-71.203335, -36.875147], [-71.203719, -36.874263], [-71.205537, -36.873161], [-71.207605, -36.87338], [-71.209074, -36.872253], [-71.210535, -36.872062], [-71.209955, -36.870675], [-71.21204, -36.867512], [-71.216336, -36.86637], [-71.217185, -36.865112], [-71.219185, -36.86508], [-71.219054, -36.863999], [-71.220907, -36.86338], [-71.221539, -36.862371], [-71.223067, -36.862138], [-71.224413, -36.859961], [-71.225692, -36.859949], [-71.226482, -36.853856], [-71.233409, -36.848338], [-71.235123, -36.844195], [-71.238541, -36.842921], [-71.242887, -36.839991], [-71.249117, -36.837121], [-71.248809, -36.835055], [-71.250036, -36.83116], [-71.249364, -36.829687], [-71.250984, -36.826787], [-71.25031, -36.825387], [-71.253232, -36.821533], [-71.25494, -36.815128], [-71.254418, -36.811389], [-71.252248, -36.808528], [-71.251492, -36.803974], [-71.25042, -36.802075], [-71.249786, -36.793369], [-71.250145, -36.790377]], [[-71.250145, -36.790377], [-71.253141, -36.789439], [-71.256016, -36.786441], [-71.255774, -36.783866], [-71.256646, -36.781408], [-71.255166, -36.778316], [-71.255303, -36.777156], [-71.259969, -36.774232], [-71.261094, -36.771207], [-71.261106, -36.768489], [-71.262928, -36.766671], [-71.265425, -36.766189], [-71.266171, -36.764284], [-71.266185, -36.763298], [-71.263279, -36.759353], [-71.26409, -36.757806], [-71.263871, -36.754531], [-71.266105, -36.75287], [-71.26631, -36.752007], [-71.263487, -36.747083], [-71.263612, -36.74625], [-71.265641, -36.74568], [-71.26597, -36.744072], [-71.265655, -36.742981], [-71.26374, -36.741139]], [[-71.26374, -36.741139], [-71.264051, -36.733645], [-71.262627, -36.731226]], [[-71.262627, -36.731226], [-71.263603, -36.730043], [-71.264984, -36.729767], [-71.265313, -36.728214], [-71.264688, -36.72672], [-71.266663, -36.725031], [-71.267071, -36.723508], [-71.269167, -36.722056], [-71.274885, -36.713609], [-71.277393, -36.712577], [-71.278883, -36.713201], [-71.280486, -36.713015], [-71.280328, -36.709263], [-71.281655, -36.707035], [-71.284156, -36.704724], [-71.284209, -36.703649], [-71.283101, -36.701699], [-71.284218, -36.700103], [-71.281179, -36.699066], [-71.278892, -36.697102], [-71.279495, -36.693935], [-71.281371, -36.691474], [-71.281707, -36.687411], [-71.283505, -36.68689], [-71.285825, -36.687565], [-71.290002, -36.685441], [-71.290393, -36.68486], [-71.289677, -36.682146], [-71.291925, -36.678633], [-71.301127, -36.675324], [-71.304648, -36.673316], [-71.306087, -36.671917], [-71.307343, -36.668994], [-71.311591, -36.667515], [-71.315382, -36.66718], [-71.321141, -36.66368], [-71.323198, -36.663724], [-71.325319, -36.662803], [-71.332128, -36.66546], [-71.336806, -36.660101], [-71.340108, -36.657379], [-71.347522, -36.654433], [-71.355466, -36.653723], [-71.360332, -36.655611], [-71.363567, -36.656144], [-71.368392, -36.655255], [-71.371238, -36.653904], [-71.374191, -36.65504], [-71.383592, -36.656077], [-71.385904, -36.655249], [-71.388125, -36.651488], [-71.389144, -36.650857], [-71.390083, -36.650754], [-71.389892, -36.652362], [-71.39077, -36.653213], [-71.394326, -36.653164], [-71.396856, -36.651786]], [[-71.396856, -36.651786], [-71.398478, -36.649222]], [[-71.398478, -36.649222], [-71.398443, -36.647963], [-71.401866, -36.643697], [-71.408147, -36.64122], [-71.411801, -36.638543], [-71.416441, -36.637627], [-71.421694, -36.639086], [-71.425012, -36.637223], [-71.425791, -36.633739], [-71.426762, -36.632346], [-71.427717, -36.632269], [-71.428425, -36.633442], [-71.429227, -36.633541], [-71.434696, -36.631739], [-71.438107, -36.629658], [-71.439687, -36.628375], [-71.440106, -36.626765], [-71.439941, -36.624962], [-71.438145, -36.621786], [-71.43843, -36.620328], [-71.439918, -36.618809], [-71.44237, -36.619355], [-71.445631, -36.625611], [-71.449101, -36.62578], [-71.450573, -36.624609], [-71.449101, -36.621452], [-71.452973, -36.613532], [-71.457352, -36.613977], [-71.463616, -36.61584], [-71.468357, -36.612199], [-71.465076, -36.611241], [-71.466789, -36.608868], [-71.472531, -36.608413], [-71.474751, -36.611705], [-71.477296, -36.611802], [-71.480087, -36.609133], [-71.480302, -36.607652], [-71.481981, -36.605955], [-71.485607, -36.603953], [-71.489553, -36.603213], [-71.489999, -36.604588], [-71.492955, -36.606234], [-71.496622, -36.606728], [-71.499231, -36.605615], [-71.503214, -36.599853], [-71.521022, -36.596635], [-71.522551, -36.593269], [-71.52022, -36.589209], [-71.520578, -36.587793], [-71.523587, -36.587308], [-71.529001, -36.584268], [-71.534118, -36.582426], [-71.542048, -36.57491], [-71.544422, -36.570683], [-71.548522, -36.570562], [-71.552577, -36.574252], [-71.555019, -36.574123], [-71.556462, -36.573053], [-71.558521, -36.569448], [-71.562714, -36.568517], [-71.565118, -36.56711], [-71.565416, -36.565334], [-71.562447, -36.56506], [-71.561308, -36.563732], [-71.564106, -36.561628], [-71.567991, -36.559855], [-71.569495, -36.558161], [-71.569717, -36.556804], [-71.580113, -36.551584], [-71.589476, -36.549386], [-71.586437, -36.541183], [-71.592614, -36.541409], [-71.595465, -36.540032], [-71.596146, -36.538614], [-71.596042, -36.536935], [-71.597004, -36.535437], [-71.596913, -36.534047], [-71.596264, -36.532763], [-71.592909, -36.530157], [-71.593006, -36.528323], [-71.601017, -36.521219], [-71.604318, -36.519312], [-71.608839, -36.518647], [-71.612306, -36.520835], [-71.614361, -36.52127], [-71.619053, -36.515493], [-71.620479, -36.515236], [-71.624526, -36.516332], [-71.628287, -36.51477], [-71.632709, -36.514248], [-71.633565, -36.514642], [-71.633012, -36.51591], [-71.633662, -36.517593], [-71.641132, -36.517393], [-71.658956, -36.523751], [-71.662437, -36.523911], [-71.663137, -36.523162], [-71.66519, -36.522846], [-71.678811, -36.523584], [-71.681253, -36.523023]], [[-71.681253, -36.523023], [-71.68379, -36.521139], [-71.68526, -36.517772], [-71.684986, -36.515345], [-71.686166, -36.507722], [-71.685947, -36.503673], [-71.687567, -36.500969], [-71.687121, -36.495544], [-71.691461, -36.492789], [-71.694835, -36.492362], [-71.699084, -36.489938], [-71.699899, -36.488303], [-71.698161, -36.486371], [-71.69788, -36.483913], [-71.698341, -36.483274], [-71.702812, -36.48195], [-71.708767, -36.483067], [-71.718911, -36.482515], [-71.723379, -36.484711], [-71.726968, -36.485314], [-71.73215, -36.482921], [-71.734661, -36.482839], [-71.736807, -36.481411], [-71.738818, -36.481148], [-71.744113, -36.482718], [-71.746817, -36.48286], [-71.751596, -36.484918], [-71.754053, -36.484987], [-71.757283, -36.484258], [-71.763495, -36.479785], [-71.768607, -36.477965], [-71.769986, -36.478146], [-71.77094, -36.479998], [-71.777957, -36.484404], [-71.779953, -36.484706], [-71.781417, -36.48368], [-71.782528, -36.48368], [-71.787956, -36.48569], [-71.789571, -36.487311], [-71.790547, -36.490136], [-71.792859, -36.492918], [-71.795319, -36.493591], [-71.797202, -36.494986], [-71.797698, -36.497381], [-71.798656, -36.498285], [-71.801552, -36.497821], [-71.809171, -36.499343], [-71.811143, -36.500592], [-71.813016, -36.503488], [-71.817635, -36.505085], [-71.820789, -36.507327], [-71.832776, -36.511924], [-71.836262, -36.511829], [-71.840457, -36.513124], [-71.843437, -36.512904], [-71.847224, -36.51438], [-71.852402, -36.512977], [-71.856134, -36.514427]], [[-71.856134, -36.514427], [-71.864106, -36.516328], [-71.86817, -36.51571], [-71.872034, -36.516552], [-71.876051, -36.516565], [-71.878266, -36.515844], [-71.881082, -36.516132], [-71.883369, -36.517285], [-71.88599, -36.520413], [-71.890124, -36.520911], [-71.892542, -36.52201], [-71.898413, -36.52182], [-71.90419, -36.519503], [-71.908985, -36.519713], [-71.915463, -36.519034], [-71.919694, -36.520755], [-71.927686, -36.520755], [-71.934043, -36.526803], [-71.940563, -36.524583], [-71.944876, -36.523868], [-71.947019, -36.524433], [-71.949157, -36.526657], [-71.952097, -36.525308], [-71.956109, -36.524829], [-71.958454, -36.52223], [-71.966291, -36.519272], [-71.969837, -36.515698], [-71.973479, -36.515426], [-71.980839, -36.512887], [-71.983736, -36.509938], [-71.98799, -36.510141], [-71.990259, -36.509084], [-71.997748, -36.508356], [-72.001036, -36.510007], [-72.001079, -36.512154], [-72.003037, -36.513827], [-72.004523, -36.516284], [-72.004615, -36.519039], [-72.005532, -36.520406], [-72.006649, -36.520765], [-72.010191, -36.519369], [-72.013284, -36.519176], [-72.018817, -36.524465], [-72.024496, -36.523606], [-72.033654, -36.525288], [-72.041121, -36.521863], [-72.044045, -36.521413], [-72.045619, -36.521814], [-72.048131, -36.523747], [-72.049021, -36.52604], [-72.050137, -36.527028], [-72.051339, -36.527049], [-72.056188, -36.529998], [-72.058752, -36.530429], [-72.061155, -36.529756], [-72.062625, -36.530015], [-72.063795, -36.531024], [-72.063948, -36.533836], [-72.065678, -36.534222], [-72.067652, -36.533722], [-72.070307, -36.534601], [-72.071294, -36.537023], [-72.075216, -36.541264], [-72.079817, -36.544339], [-72.080545, -36.546385], [-72.082656, -36.548501], [-72.084066, -36.55144], [-72.088989, -36.55178], [-72.093272, -36.550974]], [[-72.093272, -36.550974], [-72.099634, -36.546772], [-72.105686, -36.545432], [-72.107842, -36.546139], [-72.108217, -36.548389], [-72.111608, -36.550453], [-72.115068, -36.549832], [-72.117391, -36.548664], [-72.128731, -36.550255], [-72.131875, -36.549673], [-72.135463, -36.547565], [-72.137234, -36.547242], [-72.139975, -36.547604], [-72.143151, -36.550677], [-72.147254, -36.551728], [-72.149019, -36.551285], [-72.151514, -36.549457], [-72.154706, -36.549789], [-72.158723, -36.550793], [-72.160746, -36.553344], [-72.166395, -36.555322], [-72.167956, -36.55736], [-72.172703, -36.558476], [-72.184049, -36.559149], [-72.185422, -36.558636], [-72.188024, -36.55615], [-72.195969, -36.555762], [-72.198458, -36.556611], [-72.199413, -36.55771], [-72.199037, -36.560571], [-72.202824, -36.566663], [-72.202819, -36.569209], [-72.203656, -36.57185], [-72.207851, -36.573979], [-72.213736, -36.57587], [-72.222834, -36.582969], [-72.232291, -36.583813], [-72.235515, -36.585179], [-72.243712, -36.58458], [-72.248674, -36.584972], [-72.252397, -36.58421], [-72.256109, -36.581935], [-72.258566, -36.581672], [-72.261141, -36.586587], [-72.263764, -36.589482], [-72.280453, -36.599612], [-72.281864, -36.599474], [-72.284583, -36.597872], [-72.289546, -36.598793], [-72.293193, -36.597859], [-72.299089, -36.593518], [-72.305757, -36.591136], [-72.30904, -36.591162], [-72.317065, -36.594823], [-72.319737, -36.598819], [-72.322183, -36.599991], [-72.331485, -36.599784], [-72.335422, -36.602092], [-72.339864, -36.603591], [-72.34408, -36.603367], [-72.347712, -36.601869], [-72.355356, -36.603625], [-72.35747, -36.606003], [-72.362695, -36.608914], [-72.375526, -36.613926], [-72.377071, -36.615442], [-72.378659, -36.619764], [-72.381524, -36.622141], [-72.384968, -36.622374], [-72.388766, -36.620789], [-72.391963, -36.620763], [-72.396319, -36.623269], [-72.40075, -36.624337], [-72.403379, -36.625956], [-72.404612, -36.62751], [-72.408405, -36.62927], [-72.415609, -36.63017], [-72.416135, -36.631406], [-72.415572, -36.634363], [-72.417144, -36.635512], [-72.43004, -36.634695], [-72.43329, -36.635857], [-72.435994, -36.638543], [-72.439824, -36.640704], [-72.44374, -36.64184], [-72.450746, -36.642064], [-72.457677, -36.640919], [-72.46229, -36.639055], [-72.466684, -36.638672], [-72.469532, -36.637187], [-72.472978, -36.637262]], [[-71.199719, -36.890205], [-71.200067, -36.886404], [-71.202634, -36.884077]], [[-71.2028, -36.884024], [-71.204892, -36.882171]], [[-71.177784, -36.915208], [-71.179311, -36.912456], [-71.180828, -36.911565]], [[-71.171933, -36.919684], [-71.172631, -36.918864], [-71.175012, -36.918277]], [[-71.172842, -36.918807], [-71.173481, -36.918811]], [[-71.22284, -36.862269], [-71.224373, -36.861624], [-71.225692, -36.859949]]]}}