{"type": "Feature", "properties": {"id": "rio-nirehuao", "name": "Río Ñirehuao", "type": "river", "region": "aysen"}, "geometry": {"type": "MultiLineString", "coordinates": [[[-71.632058, -44.983424], [-71.631922, -44.985006], [-71.630559, -44.986347], [-71.631867, -44.989903], [-71.631151, -44.991413], [-71.63137, -44.992489], [-71.628932, -44.99395], [-71.627259, -44.996948], [-71.625878, -44.99761], [-71.623953, -45.001649], [-71.625193, -45.002909], [-71.631088, -45.004143], [-71.632615, -45.007569], [-71.631829, -45.008489], [-71.631163, -45.011412], [-71.627519, -45.01118], [-71.623139, -45.012409], [-71.617095, -45.012463], [-71.609727, -45.010097], [-71.606837, -45.010008], [-71.605624, -45.008931], [-71.603966, -45.009205], [-71.603234, -45.008421], [-71.600153, -45.00793], [-71.59923, -45.006989], [-71.597445, -45.008397], [-71.59202, -45.009781], [-71.59013, -45.013477], [-71.589632, -45.017522], [-71.589703, -45.019883], [-71.59122, -45.024226], [-71.590862, -45.026071], [-71.58421, -45.029347], [-71.579618, -45.035443], [-71.577101, -45.036842], [-71.576006, -45.038918], [-71.576519, -45.04015], [-71.577919, -45.041011], [-71.577021, -45.042574], [-71.575213, -45.043404], [-71.575, -45.045741], [-71.575525, -45.046609], [-71.57341, -45.047456], [-71.574015, -45.049344], [-71.572895, -45.050154], [-71.571938, -45.052727], [-71.572968, -45.053545], [-71.572839, -45.054606], [-71.57002, -45.056703], [-71.570908, -45.057335], [-71.571852, -45.059427], [-71.571093, -45.059947], [-71.571852, -45.060609], [-71.568561, -45.065009], [-71.570822, -45.066944], [-71.568432, -45.069555], [-71.569333, -45.069646], [-71.569106, -45.071157], [-71.567402, -45.072253], [-71.568977, -45.07343], [-71.568591, -45.074491], [-71.570792, -45.07398], [-71.570736, -45.07537], [-71.569363, -45.076885], [-71.56723, -45.077011], [-71.568162, -45.077976], [-71.567702, -45.078587], [-71.569247, -45.079011], [-71.569063, -45.079643], [-71.570363, -45.080526], [-71.570264, -45.081037], [-71.567046, -45.080824], [-71.567689, -45.081764], [-71.567046, -45.082673], [-71.568076, -45.083097], [-71.568548, -45.082218], [-71.570865, -45.082976], [-71.569419, -45.08598], [-71.570621, -45.087889], [-71.571552, -45.088006], [-71.57138, -45.089824], [-71.572895, -45.091707], [-71.573054, -45.093581], [-71.572324, -45.094429], [-71.56929, -45.093767], [-71.568805, -45.098216], [-71.569964, -45.099821], [-71.567745, -45.099674], [-71.569148, -45.102244], [-71.566788, -45.104577], [-71.567217, -45.108181], [-71.567861, -45.108999], [-71.565281, -45.110237], [-71.564857, -45.109908], [-71.563141, -45.113419], [-71.562153, -45.112815], [-71.561565, -45.11388], [-71.562411, -45.114814], [-71.562209, -45.115636], [-71.563956, -45.116298], [-71.561767, -45.116571], [-71.560106, -45.117968], [-71.55932, -45.11883], [-71.559933, -45.11979], [-71.559667, -45.120991], [-71.556764, -45.120177], [-71.556677, -45.122056], [-71.558786, -45.123455], [-71.554854, -45.123941], [-71.553219, -45.125031], [-71.552603, -45.125631], [-71.553433, -45.126875], [-71.552575, -45.126859], [-71.551869, -45.127811], [-71.553396, -45.128053], [-71.550663, -45.129879], [-71.549295, -45.12941], [-71.549212, -45.130493], [-71.548528, -45.130516], [-71.548176, -45.131507], [-71.550596, -45.131269], [-71.549015, -45.132663], [-71.548084, -45.132227], [-71.545331, -45.132997], [-71.546764, -45.13474], [-71.546008, -45.134773], [-71.546503, -45.135169], [-71.54807, -45.134869], [-71.548715, -45.135479], [-71.549082, -45.137639], [-71.550976, -45.140505], [-71.549463, -45.145335], [-71.546292, -45.146595], [-71.542575, -45.150743], [-71.540786, -45.151845], [-71.538951, -45.151044], [-71.535694, -45.152504], [-71.535573, -45.15155], [-71.533295, -45.151113], [-71.531021, -45.153035], [-71.530293, -45.153021], [-71.529278, -45.152642], [-71.529121, -45.151598], [-71.527735, -45.151385], [-71.527384, -45.15225], [-71.52839, -45.153182], [-71.527885, -45.154464], [-71.526061, -45.155244], [-71.527006, -45.155622], [-71.526679, -45.157308], [-71.527683, -45.15751], [-71.527075, -45.158662], [-71.5283, -45.159302], [-71.528051, -45.160167], [-71.529149, -45.160555], [-71.528892, -45.1624], [-71.527793, -45.163041], [-71.526839, -45.162416], [-71.527238, -45.163788], [-71.526564, -45.164434], [-71.526409, -45.166952], [-71.525595, -45.166842], [-71.524566, -45.165567], [-71.52341, -45.165863], [-71.521957, -45.164426], [-71.520331, -45.165152], [-71.518918, -45.164003], [-71.517526, -45.164321], [-71.516206, -45.165606], [-71.517595, -45.165681], [-71.517998, -45.166271], [-71.516844, -45.167113], [-71.511406, -45.166867], [-71.510776, -45.167105], [-71.511477, -45.168448], [-71.509949, -45.169068], [-71.506329, -45.168449], [-71.500636, -45.169476], [-71.497124, -45.168535], [-71.49566, -45.16951], [-71.494055, -45.168904], [-71.493909, -45.167319], [-71.491751, -45.168393], [-71.490656, -45.167998], [-71.490412, -45.166212], [-71.488039, -45.166455], [-71.48633, -45.165331], [-71.484332, -45.166934], [-71.484472, -45.167939], [-71.481653, -45.167455], [-71.480468, -45.168056], [-71.48031, -45.169274], [-71.475729, -45.167504], [-71.475345, -45.168151], [-71.476107, -45.16916], [-71.47292, -45.170057], [-71.469305, -45.16792], [-71.470796, -45.17045], [-71.470115, -45.170821], [-71.468015, -45.170106], [-71.467132, -45.172908], [-71.464257, -45.173797], [-71.463506, -45.173252], [-71.463752, -45.172008], [-71.462749, -45.1716], [-71.462154, -45.173298], [-71.46092, -45.174353], [-71.462009, -45.175109], [-71.46015, -45.176675], [-71.457723, -45.175087], [-71.456741, -45.1761], [-71.455347, -45.17492], [-71.454188, -45.175253], [-71.455357, -45.176645], [-71.454467, -45.178187], [-71.452611, -45.178187], [-71.451098, -45.179201], [-71.44903, -45.179102], [-71.449169, -45.181647], [-71.447536, -45.181651], [-71.446946, -45.183164], [-71.446002, -45.182778], [-71.445283, -45.183459], [-71.445519, -45.184252], [-71.444424, -45.184044], [-71.444795, -45.185345], [-71.443325, -45.184789], [-71.442507, -45.186071], [-71.440495, -45.186377], [-71.440482, -45.187217], [-71.437107, -45.18705], [-71.437086, -45.188358], [-71.438046, -45.188132], [-71.438266, -45.188789], [-71.43509, -45.190098], [-71.436501, -45.191334], [-71.434779, -45.192098], [-71.435128, -45.192941], [-71.434452, -45.193651], [-71.433395, -45.193545], [-71.433256, -45.192767], [-71.430622, -45.193833], [-71.430901, -45.194816], [-71.429466, -45.194158], [-71.429216, -45.194646], [-71.430466, -45.195957], [-71.428828, -45.195821], [-71.428334, -45.196502], [-71.427344, -45.196207], [-71.427334, -45.19508], [-71.425939, -45.194937], [-71.425123, -45.195715], [-71.426843, -45.196101], [-71.426486, -45.196796], [-71.423739, -45.197001], [-71.425392, -45.197401], [-71.42536, -45.198256], [-71.423764, -45.198256], [-71.422516, -45.199473], [-71.420746, -45.199178], [-71.4208, -45.199883], [-71.422543, -45.200861], [-71.419406, -45.20002], [-71.41971, -45.199126], [-71.418534, -45.198916], [-71.417919, -45.199667], [-71.420056, -45.202001], [-71.417411, -45.202122], [-71.416916, -45.202827], [-71.416599, -45.201467], [-71.415674, -45.201733]], [[-71.415674, -45.201733], [-71.41536, -45.203139], [-71.416487, -45.203767], [-71.414773, -45.204674], [-71.416691, -45.20518], [-71.41476, -45.207161], [-71.413257, -45.207705], [-71.413912, -45.208529], [-71.412978, -45.208672], [-71.411434, -45.20769], [-71.41061, -45.208143], [-71.410232, -45.209391], [-71.408837, -45.20958], [-71.410039, -45.210388], [-71.409181, -45.211129], [-71.410127, -45.212308], [-71.409312, -45.213767], [-71.410513, -45.214462], [-71.410632, -45.215437], [-71.408998, -45.216012], [-71.408408, -45.217795], [-71.406895, -45.217417], [-71.407099, -45.218491], [-71.404878, -45.217833], [-71.405165, -45.218449], [-71.404226, -45.219133], [-71.404374, -45.2201], [-71.403288, -45.220629], [-71.404924, -45.220962], [-71.40516, -45.222209], [-71.40307, -45.221623], [-71.402861, -45.222556], [-71.404352, -45.223127], [-71.401094, -45.222658], [-71.400404, -45.223214], [-71.400399, -45.224268], [-71.398588, -45.225054], [-71.399173, -45.226028], [-71.397199, -45.226021], [-71.397907, -45.226826], [-71.396933, -45.227521], [-71.397247, -45.228144], [-71.395667, -45.228356], [-71.397325, -45.228469], [-71.397802, -45.229055], [-71.395499, -45.22944], [-71.394281, -45.230906], [-71.393036, -45.230963], [-71.390694, -45.233483], [-71.392055, -45.234189], [-71.391617, -45.235726], [-71.390641, -45.23632], [-71.390941, -45.237453], [-71.388404, -45.237268], [-71.388634, -45.238514], [-71.387792, -45.238832], [-71.386848, -45.238257], [-71.385759, -45.240501], [-71.3832, -45.240244], [-71.384761, -45.241967], [-71.383651, -45.24424], [-71.382465, -45.244191], [-71.38154, -45.245], [-71.382973, -45.246035], [-71.380695, -45.246922], [-71.381983, -45.247326], [-71.381784, -45.247817], [-71.379634, -45.248394], [-71.381222, -45.249421], [-71.380278, -45.249814], [-71.378347, -45.248756], [-71.375171, -45.251687], [-71.374484, -45.25347], [-71.371742, -45.25568], [-71.371415, -45.256781], [-71.370023, -45.256023], [-71.370157, -45.257022], [-71.368759, -45.256915], [-71.368239, -45.257815], [-71.369264, -45.259122], [-71.368657, -45.259892], [-71.369143, -45.260311], [-71.365657, -45.261783], [-71.36779, -45.263469], [-71.367598, -45.263906], [-71.365699, -45.264918], [-71.364661, -45.264259], [-71.364623, -45.264988], [-71.366155, -45.265607], [-71.365812, -45.266301], [-71.364741, -45.266111], [-71.363896, -45.266941], [-71.362832, -45.266286], [-71.362183, -45.267049], [-71.362842, -45.267381], [-71.362714, -45.268023], [-71.361552, -45.26687], [-71.360501, -45.266745], [-71.360219, -45.268036], [-71.361745, -45.268321], [-71.362016, -45.269456], [-71.363073, -45.269239], [-71.36097, -45.270573], [-71.361201, -45.272433], [-71.362145, -45.273427], [-71.360731, -45.273488], [-71.361641, -45.2752], [-71.360141, -45.275781], [-71.361035, -45.276851], [-71.362521, -45.276851], [-71.36192, -45.277786], [-71.36263, -45.278695], [-71.358563, -45.279838], [-71.36191, -45.281408], [-71.364442, -45.280079], [-71.366245, -45.280895], [-71.372596, -45.289077], [-71.378776, -45.291372], [-71.380819, -45.290874], [-71.381038, -45.291788], [-71.382916, -45.291711], [-71.383664, -45.291047], [-71.387838, -45.292344], [-71.386401, -45.292883], [-71.38935, -45.292937], [-71.39105, -45.294738], [-71.388861, -45.295448], [-71.389066, -45.296373], [-71.390406, -45.296746], [-71.391547, -45.296314], [-71.391436, -45.295206], [-71.392809, -45.295598], [-71.393281, -45.297017], [-71.396758, -45.297591], [-71.39886, -45.296655], [-71.405641, -45.296776], [-71.411177, -45.300368], [-71.416584, -45.301334], [-71.420404, -45.303296], [-71.421176, -45.305469], [-71.420103, -45.306435], [-71.418044, -45.306979], [-71.419159, -45.308729], [-71.420447, -45.310148], [-71.422807, -45.310178], [-71.426498, -45.311898], [-71.427871, -45.314584], [-71.430232, -45.315339], [-71.435467, -45.313105], [-71.437398, -45.311506], [-71.440403, -45.310993], [-71.444265, -45.311687], [-71.442505, -45.313196], [-71.443836, -45.316033], [-71.443492, -45.31736], [-71.445853, -45.318085], [-71.447569, -45.323154], [-71.442977, -45.325357], [-71.443964, -45.326805], [-71.445896, -45.327228], [-71.449973, -45.330124], [-71.449329, -45.331693], [-71.450187, -45.334227], [-71.449329, -45.335464], [-71.458041, -45.338149], [-71.462504, -45.341527], [-71.462645, -45.342116], [-71.461088, -45.343186], [-71.461698, -45.344797], [-71.459413, -45.346206], [-71.46015, -45.347179], [-71.459825, -45.347751], [-71.460681, -45.349886], [-71.464412, -45.350696], [-71.464782, -45.351379], [-71.463486, -45.351793], [-71.464705, -45.353352], [-71.466581, -45.353361], [-71.466894, -45.355567], [-71.46813, -45.355489], [-71.470417, -45.356737], [-71.470625, -45.358745], [-71.469971, -45.361218], [-71.46747, -45.362985], [-71.471116, -45.367316], [-71.46983, -45.369073], [-71.469842, -45.370538], [-71.47112, -45.37097], [-71.471186, -45.372739], [-71.473073, -45.373911], [-71.473496, -45.374879], [-71.472738, -45.375777], [-71.473806, -45.377828]], [[-71.697321, -45.23334], [-71.699464, -45.234823], [-71.702729, -45.235239], [-71.702995, -45.236063], [-71.702319, -45.236993], [-71.706085, -45.23661], [-71.707549, -45.238378], [-71.707795, -45.237433], [-71.709264, -45.237338], [-71.712018, -45.238896], [-71.712939, -45.238294], [-71.712284, -45.23738], [-71.713053, -45.236618], [-71.713793, -45.237226], [-71.717971, -45.2367], [-71.718718, -45.237589], [-71.718588, -45.239552], [-71.723106, -45.239194], [-71.723149, -45.238261], [-71.721404, -45.238086], [-71.722343, -45.236401], [-71.721813, -45.235122], [-71.724236, -45.23438], [-71.724187, -45.235569], [-71.726098, -45.234985]], [[-71.473806, -45.377828], [-71.475331, -45.377704], [-71.476594, -45.378515], [-71.479274, -45.377753], [-71.481134, -45.376023], [-71.479308, -45.37495], [-71.480156, -45.374122], [-71.481928, -45.374613], [-71.490704, -45.370379], [-71.492904, -45.366836], [-71.492616, -45.365862], [-71.49647, -45.364134], [-71.49639, -45.361978], [-71.498276, -45.36143], [-71.498481, -45.360634], [-71.496964, -45.359419], [-71.497234, -45.358872], [-71.501529, -45.358177], [-71.504602, -45.356621], [-71.504821, -45.355599], [-71.506928, -45.354751], [-71.509975, -45.352226], [-71.515189, -45.352147], [-71.521126, -45.349256], [-71.521539, -45.34785], [-71.524132, -45.346302], [-71.525503, -45.346112], [-71.52596, -45.345714], [-71.524113, -45.343131], [-71.525621, -45.342422], [-71.526788, -45.340829], [-71.525567, -45.339741], [-71.529352, -45.338616], [-71.528995, -45.337354], [-71.532226, -45.336158], [-71.531402, -45.334569], [-71.532897, -45.332352], [-71.534587, -45.331896], [-71.535097, -45.331151], [-71.534472, -45.329663], [-71.536229, -45.32913], [-71.535741, -45.327364], [-71.538363, -45.32613], [-71.538953, -45.324982], [-71.537902, -45.32384], [-71.539449, -45.323015], [-71.540223, -45.321729], [-71.541471, -45.321836], [-71.542599, -45.320912], [-71.542875, -45.321847], [-71.544076, -45.321448], [-71.545309, -45.31916], [-71.546534, -45.31981], [-71.550624, -45.319532], [-71.551537, -45.317909], [-71.550926, -45.317388], [-71.552655, -45.317303], [-71.552881, -45.315605], [-71.555077, -45.314543], [-71.555299, -45.312651], [-71.557179, -45.311947], [-71.557168, -45.311175], [-71.555624, -45.310356], [-71.558864, -45.310154], [-71.559826, -45.30943], [-71.558811, -45.308569], [-71.559685, -45.308328], [-71.563577, -45.307935], [-71.564733, -45.308603], [-71.566537, -45.305869], [-71.567543, -45.307239], [-71.569588, -45.306561], [-71.57085, -45.306911], [-71.572468, -45.306131], [-71.573393, -45.303554], [-71.574746, -45.302106], [-71.576251, -45.30116], [-71.578419, -45.300831], [-71.578214, -45.300403], [-71.581876, -45.298638], [-71.583213, -45.297027], [-71.5849, -45.297589], [-71.587587, -45.296257], [-71.588194, -45.295831], [-71.588053, -45.294781], [-71.596413, -45.2901], [-71.596531, -45.289494], [-71.595764, -45.289271], [-71.596858, -45.288165], [-71.599094, -45.288191], [-71.599781, -45.286501], [-71.598769, -45.285325], [-71.602399, -45.283989], [-71.602296, -45.283127], [-71.604088, -45.282802], [-71.604949, -45.283421], [-71.605952, -45.28206], [-71.607135, -45.281696], [-71.609638, -45.282106], [-71.609933, -45.281322], [-71.608085, -45.280962], [-71.610711, -45.279652], [-71.612333, -45.27953], [-71.614745, -45.280405], [-71.615152, -45.279227], [-71.618355, -45.277536], [-71.623615, -45.27771], [-71.623918, -45.27734], [-71.62307, -45.276595], [-71.624095, -45.276004], [-71.624089, -45.274896], [-71.625503, -45.274003], [-71.626777, -45.275019], [-71.630964, -45.273729], [-71.632654, -45.274692], [-71.632863, -45.273522], [-71.633788, -45.27311], [-71.635931, -45.274065], [-71.638573, -45.272991], [-71.638946, -45.274279], [-71.638219, -45.275073], [-71.642656, -45.277015], [-71.644005, -45.275496], [-71.645424, -45.275851], [-71.64529, -45.276595], [-71.646159, -45.276523], [-71.64596, -45.274713], [-71.648213, -45.275396], [-71.647634, -45.276453], [-71.649147, -45.276453], [-71.65089, -45.274388], [-71.651502, -45.274524], [-71.651486, -45.276691], [-71.652782, -45.276565], [-71.654222, -45.274701], [-71.656818, -45.276166], [-71.658523, -45.274107], [-71.661209, -45.274071], [-71.662212, -45.275162], [-71.66334, -45.274285], [-71.663, -45.27351], [-71.665331, -45.27218]]]}}