{"type": "Feature", "properties": {"id": "rio-futaleufu", "name": "Río Futaleufú", "type": "river", "region": "los-lagos"}, "geometry": {"type": "MultiLineString", "coordinates": [[[-72.093993, -43.419023], [-72.091546, -43.420611], [-72.092512, -43.422101]], [[-71.971187, -43.315168], [-71.971639, -43.316529], [-71.971049, -43.320506], [-71.973459, -43.324708], [-71.973974, -43.326948], [-71.980104, -43.333306], [-71.981531, -43.338296], [-71.986226, -43.341448], [-71.995624, -43.343185], [-72.001219, -43.340969], [-72.003719, -43.343325], [-72.01301, -43.344492], [-72.014244, -43.34695], [-72.014549, -43.350472], [-72.015258, -43.351428], [-72.018943, -43.353597], [-72.024082, -43.353799], [-72.029087, -43.355443], [-72.035412, -43.354357], [-72.037526, -43.351771], [-72.040192, -43.350981], [-72.046817, -43.351087], [-72.052106, -43.349784], [-72.054423, -43.351719], [-72.058704, -43.35213], [-72.060013, -43.354166], [-72.059818, -43.357021], [-72.060968, -43.35926], [-72.065216, -43.363897], [-72.067593, -43.365079], [-72.069685, -43.369174], [-72.069615, -43.370277], [-72.071997, -43.372668], [-72.073746, -43.373412], [-72.077466, -43.372363], [-72.08042, -43.373612], [-72.084998, -43.377527], [-72.086374, -43.379608], [-72.086962, -43.381824], [-72.08551, -43.386027], [-72.088979, -43.391793], [-72.088426, -43.394272], [-72.089368, -43.398414], [-72.09102, -43.399501], [-72.093171, -43.399073], [-72.094912, -43.400193], [-72.095633, -43.401528], [-72.095411, -43.403139], [-72.093787, -43.405414], [-72.090239, -43.407579], [-72.090772, -43.409389], [-72.094506, -43.41472], [-72.094925, -43.416489], [-72.093993, -43.419023], [-72.094132, -43.420348], [-72.092512, -43.422101], [-72.092006, -43.424695], [-72.089905, -43.427956], [-72.092324, -43.429071], [-72.096958, -43.434376]], [[-71.761901, -43.181671], [-71.762652, -43.184671], [-71.765294, -43.186819], [-71.765402, -43.188536], [-71.768392, -43.189134]], [[-71.752861, -43.176366], [-71.765013, -43.183439], [-71.767443, -43.188401], [-71.769004, -43.189287], [-71.771965, -43.188544], [-71.775486, -43.185313], [-71.778896, -43.180779], [-71.782331, -43.179561], [-71.785496, -43.180679], [-71.784809, -43.185631], [-71.785408, -43.188258], [-71.792355, -43.190018], [-71.797435, -43.189212], [-71.798208, -43.190081], [-71.798744, -43.193053], [-71.800633, -43.19504], [-71.807697, -43.19475], [-71.814827, -43.197085], [-71.825287, -43.196518], [-71.829167, -43.197863], [-71.832892, -43.198313], [-71.834825, -43.197484], [-71.836675, -43.194533], [-71.84108, -43.193865]], [[-71.842174, -43.194248], [-71.843612, -43.194836], [-71.843782, -43.196446]], [[-71.843782, -43.196446], [-71.845908, -43.198531]], [[-71.845908, -43.198531], [-71.847475, -43.199299]], [[-71.847475, -43.199299], [-71.85344, -43.197316], [-71.856106, -43.197484], [-71.857774, -43.19836], [-71.858413, -43.200789], [-71.858, -43.203107], [-71.854754, -43.206345], [-71.854073, -43.208249], [-71.851192, -43.210689], [-71.851908, -43.211786], [-71.855017, -43.211985], [-71.855328, -43.212564], [-71.854754, -43.213362]], [[-71.854754, -43.213362], [-71.855108, -43.214569]], [[-71.855108, -43.214569], [-71.855634, -43.215591]], [[-71.855634, -43.215591], [-71.856005, -43.218411]], [[-71.870082, -43.223666], [-71.87504, -43.224027]], [[-71.864011, -43.221987], [-71.867403, -43.223774]], [[-71.862154, -43.220423], [-71.864011, -43.221987]], [[-71.85823, -43.219795], [-71.860254, -43.219083], [-71.862154, -43.220423]], [[-71.84108, -43.193865], [-71.842174, -43.194248]], [[-71.856005, -43.218411], [-71.856658, -43.219383], [-71.85823, -43.219795]], [[-71.87504, -43.224027], [-71.878712, -43.224585]], [[-71.867403, -43.223774], [-71.868928, -43.223779]], [[-71.868928, -43.223779], [-71.870082, -43.223666]], [[-71.878712, -43.224585], [-71.881539, -43.225654], [-71.881662, -43.226807], [-71.876845, -43.228691], [-71.875303, -43.23014], [-71.874723, -43.232508], [-71.875667, -43.233313], [-71.881954, -43.234728], [-71.883802, -43.236461], [-71.884261, -43.238644], [-71.882019, -43.239793], [-71.881021, -43.241935], [-71.882421, -43.245471], [-71.885372, -43.247339], [-71.887067, -43.249832], [-71.884559, -43.255166], [-71.88454, -43.25692], [-71.889607, -43.259304], [-71.890256, -43.262198], [-71.892278, -43.264308]], [[-71.898637, -43.269435], [-71.89998, -43.270499]], [[-71.892278, -43.264308], [-71.896511, -43.266489], [-71.898637, -43.269435]], [[-72.096958, -43.434376], [-72.101544, -43.440246], [-72.109076, -43.443704], [-72.11076, -43.446999], [-72.111558, -43.450268], [-72.110347, -43.453628], [-72.110496, -43.457552], [-72.113541, -43.464408], [-72.112198, -43.468626], [-72.116811, -43.471826], [-72.119376, -43.47234], [-72.13063, -43.46277], [-72.13416, -43.458472], [-72.139868, -43.454734], [-72.140908, -43.452327], [-72.143805, -43.449858], [-72.14388, -43.44682], [-72.144513, -43.445488], [-72.148928, -43.442754], [-72.154694, -43.440886], [-72.15698, -43.439381], [-72.161499, -43.431964], [-72.166907, -43.426428], [-72.174318, -43.421336], [-72.177987, -43.420245], [-72.180669, -43.420557], [-72.189306, -43.424515], [-72.192761, -43.424289], [-72.199295, -43.418344], [-72.203082, -43.412416]], [[-71.89998, -43.270499], [-71.906247, -43.27741], [-71.914128, -43.27883], [-71.915927, -43.279837], [-71.917169, -43.281447], [-71.919477, -43.282026]], [[-71.919477, -43.282026], [-71.920446, -43.282105], [-71.920524, -43.281566]], [[-71.920524, -43.281566], [-71.925688, -43.280116], [-71.927244, -43.280413], [-71.928976, -43.282646], [-71.931832, -43.283551], [-71.931688, -43.284879], [-71.934839, -43.288234], [-71.935698, -43.290886]], [[-71.937404, -43.293041], [-71.93808, -43.294747]], [[-71.942716, -43.300928], [-71.944602, -43.301066], [-71.945804, -43.301842]], [[-71.946583, -43.302005], [-71.948918, -43.300786]], [[-71.93808, -43.294747], [-71.938444, -43.297508], [-71.942315, -43.301288]], [[-71.949162, -43.300756], [-71.952661, -43.300648]], [[-71.94206, -43.301001], [-71.942716, -43.300928]], [[-71.945804, -43.301842], [-71.946084, -43.302063]], [[-71.945281, -43.302167], [-71.948047, -43.302023], [-71.949162, -43.300756]], [[-71.942315, -43.301288], [-71.9428, -43.301709]], [[-71.9428, -43.301709], [-71.944101, -43.301927]], [[-71.944101, -43.301927], [-71.945281, -43.302167]], [[-71.938133, -43.295362], [-71.940044, -43.296728], [-71.939652, -43.298708]], [[-71.936073, -43.291245], [-71.937404, -43.293041]], [[-71.935698, -43.290886], [-71.936073, -43.291245]], [[-71.952661, -43.300648], [-71.95906, -43.300935]], [[-71.95906, -43.300935], [-71.964001, -43.302331]], [[-71.964001, -43.302331], [-71.965321, -43.302798]], [[-71.965321, -43.302798], [-71.968598, -43.304437], [-71.971285, -43.30745], [-71.971312, -43.312384]], [[-71.971312, -43.312384], [-71.970741, -43.313861], [-71.971187, -43.315168]], [[-72.203082, -43.412416], [-72.202706, -43.408789], [-72.20114, -43.40564], [-72.198007, -43.404206], [-72.195733, -43.404783]], [[-72.203082, -43.412416], [-72.20674, -43.41055], [-72.214358, -43.412109]]]}}