{"type": "Feature", "properties": {"id": "rio-colorado-maipo", "name": "Río Colorado (Maipo)", "type": "river", "region": "metropolitana"}, "geometry": {"type": "MultiLineString", "coordinates": [[[-69.853973, -33.323274], [-69.85547, -33.325921], [-69.856822, -33.326087], [-69.858195, -33.327925], [-69.860218, -33.328687], [-69.861157, -33.33108], [-69.864209, -33.334298], [-69.869345, -33.33848], [-69.877322, -33.343288], [-69.878162, -33.343961], [-69.878273, -33.345223]], [[-69.92058, -33.375437], [-69.923895, -33.379634], [-69.928809, -33.382833], [-69.932648, -33.38353], [-69.936844, -33.387213], [-69.941966, -33.387281], [-69.946261, -33.388636], [-69.948718, -33.388296], [-69.951466, -33.389412], [-69.953873, -33.389388], [-69.955302, -33.390273], [-69.956801, -33.389751], [-69.958429, -33.393667], [-69.960755, -33.394515], [-69.962597, -33.396334], [-69.965857, -33.397465], [-69.966377, -33.398588], [-69.969538, -33.399029]], [[-69.906434, -33.357617], [-69.907641, -33.35865], [-69.9083, -33.358289], [-69.90914, -33.358885], [-69.909145, -33.360413], [-69.910556, -33.362803], [-69.91017, -33.363666], [-69.910994, -33.365695], [-69.910765, -33.367178], [-69.911557, -33.367224], [-69.911453, -33.367812], [-69.913399, -33.369374], [-69.91499, -33.369285], [-69.915291, -33.368265]], [[-69.850138, -33.291985], [-69.851125, -33.294693], [-69.851705, -33.301732], [-69.85067, -33.306393], [-69.851364, -33.315754], [-69.85089, -33.31621], [-69.853973, -33.323274]], [[-69.890137, -33.350869], [-69.899092, -33.350876], [-69.901673, -33.353105], [-69.902139, -33.355074], [-69.903722, -33.356826], [-69.904795, -33.357716], [-69.906434, -33.357617]], [[-69.915291, -33.368265], [-69.916698, -33.368251], [-69.916678, -33.369261], [-69.919167, -33.370698], [-69.91907, -33.372022], [-69.92058, -33.375437]], [[-69.969538, -33.399029], [-69.970959, -33.398813], [-69.972397, -33.400515], [-69.97468, -33.401323], [-69.974406, -33.402137], [-69.977351, -33.403024], [-69.977117, -33.404132], [-69.979137, -33.404764], [-69.982172, -33.407679], [-69.990022, -33.410585], [-69.993454, -33.411232], [-69.997422, -33.415529], [-69.997595, -33.417164], [-69.998772, -33.418878], [-70.001387, -33.419749], [-70.001574, -33.420912], [-70.00375, -33.422348], [-70.008867, -33.424345], [-70.010336, -33.425911], [-70.010641, -33.427337], [-70.015116, -33.430627], [-70.015834, -33.432235], [-70.015935, -33.436021], [-70.015328, -33.436952], [-70.015803, -33.43862], [-70.014986, -33.43962], [-70.016857, -33.441398], [-70.017096, -33.444956], [-70.018097, -33.44757], [-70.019389, -33.449491], [-70.023595, -33.450278], [-70.023552, -33.451388], [-70.025784, -33.453465], [-70.025741, -33.45547], [-70.027157, -33.456831], [-70.026556, -33.458585], [-70.027157, -33.462774], [-70.026385, -33.464636], [-70.028959, -33.469003], [-70.029818, -33.473765], [-70.029002, -33.47602], [-70.029904, -33.478167], [-70.029279, -33.479569], [-70.030653, -33.480428], [-70.032264, -33.483573], [-70.035397, -33.484825], [-70.037285, -33.487545], [-70.042132, -33.487401], [-70.043937, -33.485342], [-70.04941, -33.48449], [-70.051493, -33.487585], [-70.054264, -33.487924], [-70.058079, -33.490881], [-70.06277, -33.490001], [-70.072625, -33.493361], [-70.075415, -33.49315], [-70.080079, -33.495939], [-70.081716, -33.495546], [-70.085178, -33.496334], [-70.086599, -33.497252], [-70.088554, -33.49732], [-70.089931, -33.4985], [-70.095851, -33.49962], [-70.096908, -33.500533], [-70.099611, -33.500263], [-70.108194, -33.494616], [-70.128345, -33.491545], [-70.132501, -33.492576], [-70.136588, -33.494893], [-70.138631, -33.495338], [-70.143428, -33.498998], [-70.145253, -33.498628], [-70.146293, -33.499441], [-70.14585, -33.501648], [-70.147406, -33.502917], [-70.153693, -33.503739], [-70.156002, -33.50317], [-70.158479, -33.501448], [-70.158821, -33.499132], [-70.159929, -33.497802], [-70.162389, -33.497307], [-70.165241, -33.495345], [-70.167056, -33.495304], [-70.169265, -33.493989], [-70.178342, -33.494744], [-70.182129, -33.499426], [-70.187792, -33.503399], [-70.188586, -33.503526], [-70.190922, -33.502117], [-70.196163, -33.503966], [-70.198296, -33.505699], [-70.198461, -33.507906], [-70.199665, -33.509336], [-70.20396, -33.510157], [-70.205045, -33.509779], [-70.209391, -33.511411], [-70.211963, -33.511355], [-70.212424, -33.51166], [-70.212155, -33.513248], [-70.214457, -33.512755], [-70.219752, -33.514791], [-70.222813, -33.514621], [-70.223363, -33.51549], [-70.225092, -33.516013], [-70.225456, -33.517627], [-70.230164, -33.51861], [-70.231107, -33.519967], [-70.231304, -33.522422], [-70.232824, -33.522614], [-70.233126, -33.523077], [-70.232501, -33.52393], [-70.235221, -33.525227], [-70.241118, -33.523744], [-70.241968, -33.525098], [-70.244476, -33.525369], [-70.246264, -33.526503], [-70.250847, -33.526012], [-70.251676, -33.526647], [-70.253779, -33.526549], [-70.254266, -33.527313], [-70.253568, -33.528726], [-70.254333, -33.529745], [-70.256119, -33.530206], [-70.257255, -33.52953], [-70.260298, -33.530237], [-70.26232, -33.529728], [-70.265899, -33.530839], [-70.268731, -33.530133], [-70.272363, -33.533582], [-70.276579, -33.533848], [-70.277179, -33.535049], [-70.280559, -33.535761], [-70.28136, -33.537078], [-70.284847, -33.539146], [-70.283752, -33.543001], [-70.285651, -33.544023], [-70.285673, -33.546571], [-70.28681, -33.54773], [-70.28822, -33.547824], [-70.289117, -33.548632], [-70.291212, -33.547574], [-70.292802, -33.549248], [-70.294426, -33.548322], [-70.295771, -33.548581], [-70.296656, -33.550053], [-70.299637, -33.550766], [-70.302693, -33.550021], [-70.303864, -33.55201], [-70.307393, -33.552985], [-70.31194, -33.555903], [-70.314351, -33.556377], [-70.315042, -33.558693], [-70.317455, -33.559041], [-70.323286, -33.562034], [-70.323971, -33.564238], [-70.327214, -33.564647], [-70.32855, -33.566327], [-70.331032, -33.566275], [-70.331949, -33.567306], [-70.336905, -33.568813], [-70.340282, -33.567912], [-70.341868, -33.570183], [-70.346427, -33.569431], [-70.347865, -33.570108], [-70.350149, -33.569924], [-70.351453, -33.571517], [-70.350727, -33.573163], [-70.35371, -33.575805], [-70.353255, -33.576936], [-70.355438, -33.577793], [-70.357175, -33.5795], [-70.360212, -33.580649], [-70.359976, -33.581726], [-70.36063, -33.582343], [-70.363296, -33.582352], [-70.363373, -33.585462], [-70.3648, -33.585231], [-70.365441, -33.585867], [-70.366107, -33.589399], [-70.373962, -33.596268]], [[-69.878273, -33.345223], [-69.87867, -33.346075], [-69.881755, -33.346852], [-69.882148, -33.347616], [-69.885115, -33.348536], [-69.887073, -33.350107], [-69.888588, -33.349928], [-69.890137, -33.350869]], [[-69.969538, -33.399029], [-69.970959, -33.398813], [-69.972397, -33.400515], [-69.97468, -33.401323], [-69.974406, -33.402137], [-69.977351, -33.403024], [-69.977117, -33.404132], [-69.979137, -33.404764], [-69.982172, -33.407679], [-69.990022, -33.410585], [-69.993454, -33.411232], [-69.997422, -33.415529], [-69.997595, -33.417164], [-69.998772, -33.418878], [-70.001387, -33.419749], [-70.001574, -33.420912], [-70.00375, -33.422348], [-70.008867, -33.424345], [-70.010336, -33.425911], [-70.010641, -33.427337], [-70.015116, -33.430627], [-70.015834, -33.432235], [-70.015935, -33.436021], [-70.015328, -33.436952], [-70.015803, -33.43862], [-70.014986, -33.43962], [-70.016857, -33.441398], [-70.017096, -33.444956], [-70.018097, -33.44757], [-70.019389, -33.449491], [-70.023595, -33.450278], [-70.023552, -33.451388], [-70.025784, -33.453465], [-70.025741, -33.45547], [-70.027157, -33.456831], [-70.026556, -33.458585], [-70.027157, -33.462774], [-70.026385, -33.464636], [-70.028959, -33.469003], [-70.029818, -33.473765], [-70.029002, -33.47602], [-70.029904, -33.478167], [-70.029279, -33.479569], [-70.030653, -33.480428], [-70.032264, -33.483573], [-70.035397, -33.484825], [-70.037285, -33.487545], [-70.042132, -33.487401], [-70.043937, -33.485342], [-70.04941, -33.48449], [-70.051493, -33.487585], [-70.054264, -33.487924], [-70.058079, -33.490881], [-70.06277, -33.490001], [-70.072625, -33.493361], [-70.075415, -33.49315], [-70.080079, -33.495939], [-70.081716, -33.495546], [-70.085178, -33.496334], [-70.086599, -33.497252], [-70.088554, -33.49732], [-70.089931, -33.4985], [-70.095851, -33.49962], [-70.096908, -33.500533], [-70.099611, -33.500263], [-70.108194, -33.494616], [-70.128345, -33.491545], [-70.132501, -33.492576], [-70.136588, -33.494893], [-70.138631, -33.495338], [-70.143428, -33.498998], [-70.145253, -33.498628], [-70.146293, -33.499441], [-70.14585, -33.501648], [-70.147406, -33.502917], [-70.153693, -33.503739], [-70.156002, -33.50317], [-70.158479, -33.501448], [-70.158821, -33.499132], [-70.159929, -33.497802], [-70.162389, -33.497307], [-70.165241, -33.495345], [-70.167056, -33.495304], [-70.169265, -33.493989], [-70.178342, -33.494744], [-70.182129, -33.499426], [-70.187792, -33.503399], [-70.188586, -33.503526], [-70.190922, -33.502117], [-70.196163, -33.503966], [-70.198296, -33.505699], [-70.198461, -33.507906], [-70.199665, -33.509336], [-70.20396, -33.510157], [-70.205045, -33.509779], [-70.209391, -33.511411], [-70.211963, -33.511355], [-70.212424, -33.51166], [-70.212155, -33.513248], [-70.214457, -33.512755], [-70.219752, -33.514791], [-70.222813, -33.514621], [-70.223363, -33.51549], [-70.225092, -33.516013], [-70.225456, -33.517627], [-70.230164, -33.51861], [-70.231107, -33.519967], [-70.231304, -33.522422], [-70.232824, -33.522614], [-70.233126, -33.523077], [-70.232501, -33.52393], [-70.235221, -33.525227], [-70.241118, -33.523744], [-70.241968, -33.525098], [-70.244476, -33.525369], [-70.246264, -33.526503], [-70.250847, -33.526012], [-70.251676, -33.526647], [-70.253779, -33.526549], [-70.254266, -33.527313], [-70.253568, -33.528726], [-70.254333, -33.529745], [-70.256119, -33.530206], [-70.257255, -33.52953], [-70.260298, -33.530237], [-70.26232, -33.529728], [-70.265899, -33.530839], [-70.268731, -33.530133], [-70.272363, -33.533582], [-70.276579, -33.533848], [-70.277179, -33.535049], [-70.280559, -33.535761], [-70.28136, -33.537078], [-70.284847, -33.539146], [-70.283752, -33.543001], [-70.285651, -33.544023], [-70.285673, -33.546571], [-70.28681, -33.54773], [-70.28822, -33.547824], [-70.289117, -33.548632], [-70.291212, -33.547574], [-70.292802, -33.549248], [-70.294426, -33.548322], [-70.295771, -33.548581], [-70.296656, -33.550053], [-70.299637, -33.550766], [-70.302693, -33.550021], [-70.303864, -33.55201], [-70.307393, -33.552985], [-70.31194, -33.555903], [-70.314351, -33.556377], [-70.315042, -33.558693], [-70.317455, -33.559041], [-70.323286, -33.562034], [-70.323971, -33.564238], [-70.327214, -33.564647], [-70.32855, -33.566327], [-70.331032, -33.566275], [-70.331949, -33.567306], [-70.336905, -33.568813], [-70.340282, -33.567912], [-70.341868, -33.570183], [-70.346427, -33.569431], [-70.347865, -33.570108], [-70.350149, -33.569924], [-70.351453, -33.571517], [-70.350727, -33.573163], [-70.35371, -33.575805], [-70.353255, -33.576936], [-70.355438, -33.577793], [-70.357175, -33.5795], [-70.360212, -33.580649], [-70.359976, -33.581726], [-70.36063, -33.582343], [-70.363296, -33.582352], [-70.363373, -33.585462], [-70.3648, -33.585231], [-70.365441, -33.585867], [-70.366107, -33.589399], [-70.373962, -33.596268]], [[-69.884398, -33.289104], [-69.885213, -33.291795], [-69.888432, -33.29635], [-69.891844, -33.299381], [-69.891522, -33.304188], [-69.892359, -33.306035], [-69.89002, -33.309209], [-69.890041, -33.310213], [-69.892466, -33.313602], [-69.893496, -33.318498], [-69.892756, -33.321474], [-69.894226, -33.326378], [-69.893099, -33.328708], [-69.894386, -33.329748], [-69.894568, -33.331529], [-69.895866, -33.333181], [-69.895539, -33.334664], [-69.896295, -33.33615], [-69.895241, -33.337264], [-69.895231, -33.338207], [-69.897851, -33.342348], [-69.898339, -33.344378], [-69.901233, -33.347145], [-69.901783, -33.350103], [-69.903728, -33.353244], [-69.903621, -33.355039], [-69.906434, -33.357617]], [[-69.906434, -33.357617], [-69.907641, -33.35865], [-69.9083, -33.358289], [-69.90914, -33.358885], [-69.909145, -33.360413], [-69.910556, -33.362803], [-69.91017, -33.363666], [-69.910994, -33.365695], [-69.910765, -33.367178], [-69.911557, -33.367224], [-69.911453, -33.367812], [-69.913399, -33.369374], [-69.91499, -33.369285], [-69.915291, -33.368265]], [[-69.915291, -33.368265], [-69.916698, -33.368251], [-69.916678, -33.369261], [-69.919167, -33.370698], [-69.91907, -33.372022], [-69.92058, -33.375437]], [[-69.92058, -33.375437], [-69.923895, -33.379634], [-69.928809, -33.382833], [-69.932648, -33.38353], [-69.936844, -33.387213], [-69.941966, -33.387281], [-69.946261, -33.388636], [-69.948718, -33.388296], [-69.951466, -33.389412], [-69.953873, -33.389388], [-69.955302, -33.390273], [-69.956801, -33.389751], [-69.958429, -33.393667], [-69.960755, -33.394515], [-69.962597, -33.396334], [-69.965857, -33.397465], [-69.966377, -33.398588], [-69.969538, -33.399029]]]}}