{"type": "Feature", "properties": {"id": "rio-mayer", "name": "Río Mayer", "type": "river", "region": "aysen"}, "geometry": {"type": "MultiLineString", "coordinates": [[[-72.30004, -48.223528], [-72.304203, -48.22267], [-72.306864, -48.221098], [-72.307293, -48.220211], [-72.306821, -48.218638], [-72.307765, -48.217066], [-72.312237, -48.216064], [-72.313945, -48.214549], [-72.317122, -48.214776], [-72.321198, -48.21332], [-72.325342, -48.209449], [-72.328341, -48.209485], [-72.333641, -48.213821], [-72.334381, -48.215062], [-72.333858, -48.216365], [-72.335567, -48.217585], [-72.334843, -48.219515], [-72.328223, -48.222335], [-72.324028, -48.226177], [-72.32255, -48.230998], [-72.327676, -48.234275], [-72.329599, -48.23686], [-72.333944, -48.236937], [-72.339363, -48.239571], [-72.340572, -48.243525], [-72.340583, -48.245936], [-72.33966, -48.246593], [-72.336189, -48.245507], [-72.334365, -48.246554], [-72.333239, -48.25707], [-72.333818, -48.260852], [-72.335283, -48.263077], [-72.337648, -48.26472], [-72.340443, -48.265302], [-72.341666, -48.266483], [-72.343992, -48.266044], [-72.343704, -48.262298], [-72.344472, -48.257997], [-72.343109, -48.256338], [-72.343563, -48.255184], [-72.346784, -48.255288], [-72.350797, -48.254029], [-72.356858, -48.25093], [-72.357658, -48.250266], [-72.358097, -48.248562], [-72.361289, -48.24868], [-72.366482, -48.247636], [-72.375344, -48.247854], [-72.380472, -48.250562], [-72.384217, -48.251741], [-72.390804, -48.251083], [-72.39302, -48.251469], [-72.393937, -48.25217], [-72.394506, -48.254852], [-72.39671, -48.256184], [-72.401069, -48.256273], [-72.402863, -48.255738], [-72.408797, -48.25692], [-72.416822, -48.257206], [-72.422851, -48.256856], [-72.426918, -48.255591], [-72.431928, -48.25557], [-72.433886, -48.256659], [-72.433677, -48.25972], [-72.434996, -48.262209], [-72.434849, -48.264488], [-72.440565, -48.264573], [-72.442802, -48.263516], [-72.445586, -48.263473], [-72.45776, -48.266906], [-72.459458, -48.266548], [-72.462918, -48.270915], [-72.469452, -48.273275], [-72.470171, -48.276158], [-72.472711, -48.27741], [-72.472317, -48.280005], [-72.477461, -48.290896], [-72.476882, -48.294012], [-72.479435, -48.295496], [-72.48054, -48.297249], [-72.482842, -48.298769], [-72.489477, -48.297377], [-72.493629, -48.298276], [-72.499337, -48.305306], [-72.503436, -48.307854], [-72.504954, -48.309502], [-72.499917, -48.315246], [-72.498758, -48.31835], [-72.499101, -48.321596], [-72.501617, -48.325124], [-72.499809, -48.326647], [-72.495067, -48.327934], [-72.494949, -48.328897], [-72.496035, -48.330975], [-72.494144, -48.333587], [-72.493764, -48.339271], [-72.491159, -48.343031], [-72.49456, -48.345395], [-72.495689, -48.347586], [-72.503532, -48.350649], [-72.506847, -48.356919], [-72.510774, -48.360141], [-72.516654, -48.363561], [-72.520248, -48.363542], [-72.525194, -48.365215], [-72.527409, -48.367241], [-72.529415, -48.367305], [-72.531797, -48.366076], [-72.533897, -48.366341], [-72.534863, -48.366878], [-72.534619, -48.368898], [-72.537183, -48.370299], [-72.54012, -48.373228], [-72.540241, -48.374003], [-72.539069, -48.375427], [-72.528665, -48.378951], [-72.528895, -48.382122], [-72.527586, -48.384662], [-72.530188, -48.386832], [-72.530209, -48.38852], [-72.533133, -48.394054], [-72.529357, -48.396243], [-72.53015, -48.399427], [-72.5283, -48.402137], [-72.52956, -48.405538], [-72.530944, -48.406778], [-72.533573, -48.407604], [-72.538701, -48.40713], [-72.539511, -48.407818], [-72.539077, -48.408665]], [[-72.588108, -48.48531], [-72.589233, -48.488168], [-72.589953, -48.4931]], [[-72.539077, -48.408665], [-72.537371, -48.410446], [-72.537403, -48.411785], [-72.540042, -48.412376], [-72.546941, -48.415502], [-72.55268, -48.41891], [-72.557723, -48.419857], [-72.562037, -48.421611], [-72.568248, -48.421524], [-72.568109, -48.424552], [-72.56959, -48.42804], [-72.571854, -48.430361], [-72.574428, -48.431277], [-72.57741, -48.433584], [-72.579642, -48.43863], [-72.582014, -48.441352], [-72.581177, -48.446198], [-72.582958, -48.450895], [-72.581332, -48.456895], [-72.585323, -48.459609], [-72.589824, -48.461564], [-72.591273, -48.46303], [-72.591112, -48.464812], [-72.591857, -48.465797], [-72.597647, -48.468815], [-72.602366, -48.472747], [-72.598912, -48.476215], [-72.598874, -48.478554], [-72.597983, -48.479852], [-72.594357, -48.481495], [-72.588686, -48.48272], [-72.587754, -48.483543], [-72.588108, -48.48531]], [[-72.55268, -48.41891], [-72.55517, -48.421711], [-72.55723, -48.421495], [-72.560266, -48.422195], [-72.563023, -48.421716]], [[-72.539077, -48.408665], [-72.537371, -48.410446], [-72.537403, -48.411785], [-72.540042, -48.412376], [-72.546941, -48.415502], [-72.55268, -48.41891], [-72.557723, -48.419857], [-72.562037, -48.421611], [-72.568248, -48.421524], [-72.568109, -48.424552], [-72.56959, -48.42804], [-72.571854, -48.430361], [-72.574428, -48.431277], [-72.57741, -48.433584], [-72.579642, -48.43863], [-72.582014, -48.441352], [-72.581177, -48.446198], [-72.582958, -48.450895], [-72.581332, -48.456895], [-72.585323, -48.459609], [-72.589824, -48.461564], [-72.591273, -48.46303], [-72.591112, -48.464812], [-72.591857, -48.465797], [-72.597647, -48.468815], [-72.602366, -48.472747], [-72.598912, -48.476215], [-72.598874, -48.478554], [-72.597983, -48.479852], [-72.594357, -48.481495], [-72.588686, -48.48272], [-72.587754, -48.483543], [-72.588108, -48.48531]], [[-72.30004, -48.223528], [-72.304203, -48.22267], [-72.306864, -48.221098], [-72.307293, -48.220211], [-72.306821, -48.218638], [-72.307765, -48.217066], [-72.312237, -48.216064], [-72.313945, -48.214549], [-72.317122, -48.214776], [-72.321198, -48.21332], [-72.325342, -48.209449], [-72.328341, -48.209485], [-72.333641, -48.213821], [-72.334381, -48.215062], [-72.333858, -48.216365], [-72.335567, -48.217585], [-72.334843, -48.219515], [-72.328223, -48.222335], [-72.324028, -48.226177], [-72.32255, -48.230998], [-72.327676, -48.234275], [-72.329599, -48.23686], [-72.333944, -48.236937], [-72.339363, -48.239571], [-72.340572, -48.243525], [-72.340583, -48.245936], [-72.33966, -48.246593], [-72.336189, -48.245507], [-72.334365, -48.246554], [-72.333239, -48.25707], [-72.333818, -48.260852], [-72.335283, -48.263077], [-72.337648, -48.26472], [-72.340443, -48.265302], [-72.341666, -48.266483], [-72.343992, -48.266044], [-72.343704, -48.262298], [-72.344472, -48.257997], [-72.343109, -48.256338], [-72.343563, -48.255184], [-72.346784, -48.255288], [-72.350797, -48.254029], [-72.356858, -48.25093], [-72.357658, -48.250266], [-72.358097, -48.248562], [-72.361289, -48.24868], [-72.366482, -48.247636], [-72.375344, -48.247854], [-72.380472, -48.250562], [-72.384217, -48.251741], [-72.390804, -48.251083], [-72.39302, -48.251469], [-72.393937, -48.25217], [-72.394506, -48.254852], [-72.39671, -48.256184], [-72.401069, -48.256273], [-72.402863, -48.255738], [-72.408797, -48.25692], [-72.416822, -48.257206], [-72.422851, -48.256856], [-72.426918, -48.255591], [-72.431928, -48.25557], [-72.433886, -48.256659], [-72.433677, -48.25972], [-72.434996, -48.262209], [-72.434849, -48.264488], [-72.440565, -48.264573], [-72.442802, -48.263516], [-72.445586, -48.263473], [-72.45776, -48.266906], [-72.459458, -48.266548], [-72.462918, -48.270915], [-72.469452, -48.273275], [-72.470171, -48.276158], [-72.472711, -48.27741], [-72.472317, -48.280005], [-72.477461, -48.290896], [-72.476882, -48.294012], [-72.479435, -48.295496], [-72.48054, -48.297249], [-72.482842, -48.298769], [-72.489477, -48.297377], [-72.493629, -48.298276], [-72.499337, -48.305306], [-72.503436, -48.307854], [-72.504954, -48.309502], [-72.499917, -48.315246], [-72.498758, -48.31835], [-72.499101, -48.321596], [-72.501617, -48.325124], [-72.499809, -48.326647], [-72.495067, -48.327934], [-72.494949, -48.328897], [-72.496035, -48.330975], [-72.494144, -48.333587], [-72.493764, -48.339271], [-72.491159, -48.343031], [-72.49456, -48.345395], [-72.495689, -48.347586], [-72.503532, -48.350649], [-72.506847, -48.356919], [-72.510774, -48.360141], [-72.516654, -48.363561], [-72.520248, -48.363542], [-72.525194, -48.365215], [-72.527409, -48.367241], [-72.529415, -48.367305], [-72.531797, -48.366076], [-72.533897, -48.366341], [-72.534863, -48.366878], [-72.534619, -48.368898], [-72.537183, -48.370299], [-72.54012, -48.373228], [-72.540241, -48.374003], [-72.539069, -48.375427], [-72.528665, -48.378951], [-72.528895, -48.382122], [-72.527586, -48.384662], [-72.530188, -48.386832], [-72.530209, -48.38852], [-72.533133, -48.394054], [-72.529357, -48.396243], [-72.53015, -48.399427], [-72.5283, -48.402137], [-72.52956, -48.405538], [-72.530944, -48.406778], [-72.533573, -48.407604], [-72.538701, -48.40713], [-72.539511, -48.407818], [-72.539077, -48.408665]], [[-72.191935, -48.379335], [-72.196314, -48.379826], [-72.202751, -48.378629], [-72.207086, -48.376035], [-72.207472, -48.37518], [-72.207129, -48.370647], [-72.208674, -48.367739], [-72.208202, -48.366256], [-72.208974, -48.363976], [-72.207686, -48.36255], [-72.209746, -48.360525], [-72.210991, -48.356505], [-72.206957, -48.351885], [-72.208373, -48.350231], [-72.208459, -48.347664], [-72.210218, -48.343271], [-72.209746, -48.339734], [-72.207644, -48.335797], [-72.20833, -48.334627], [-72.209746, -48.333914], [-72.210948, -48.330719], [-72.212836, -48.329634], [-72.212879, -48.329035], [-72.21245, -48.326467], [-72.210047, -48.323214], [-72.205412, -48.319818], [-72.204554, -48.316223], [-72.204683, -48.313997], [-72.20597, -48.311142], [-72.210133, -48.307432], [-72.207429, -48.304235], [-72.207472, -48.303321], [-72.209274, -48.30098], [-72.207515, -48.298639], [-72.208759, -48.297469], [-72.209146, -48.295956], [-72.214467, -48.292615], [-72.213738, -48.291045], [-72.214896, -48.289503], [-72.214124, -48.287818], [-72.214596, -48.286904], [-72.217428, -48.285277], [-72.219359, -48.285134], [-72.220046, -48.283877], [-72.225067, -48.284077], [-72.227084, -48.28362], [-72.23026, -48.281593], [-72.232363, -48.277308], [-72.230775, -48.271567], [-72.227599, -48.266425], [-72.228372, -48.264997], [-72.233994, -48.261626], [-72.239615, -48.260369], [-72.243821, -48.257769], [-72.246096, -48.253054], [-72.245023, -48.250997], [-72.24601, -48.249168], [-72.247941, -48.248111], [-72.248413, -48.243338], [-72.252361, -48.238422], [-72.251503, -48.236593], [-72.25249, -48.23482], [-72.26146, -48.233848], [-72.265966, -48.232305], [-72.267167, -48.233648], [-72.278196, -48.234763], [-72.281372, -48.235849], [-72.282316, -48.23402], [-72.292745, -48.230275], [-72.295363, -48.227245], [-72.295878, -48.225729], [-72.29871, -48.224786], [-72.30004, -48.223528]]]}}