{"type": "Feature", "properties": {"id": "rio-llanquihue-los-rios", "name": "Río Llanquihue (Los Ríos)", "type": "river", "region": "los-rios"}, "geometry": {"type": "MultiLineString", "coordinates": [[[-72.041318, -39.826797], [-72.052131, -39.825753], [-72.058879, -39.824401], [-72.068791, -39.823792], [-72.075515, -39.824309], [-72.077814, -39.823236], [-72.077935, -39.820352], [-72.078557, -39.819916], [-72.082997, -39.820602], [-72.08615, -39.822022], [-72.088975, -39.823876], [-72.089945, -39.82552]], [[-72.012644, -39.822226], [-72.016104, -39.823067], [-72.01736, -39.823914], [-72.017788, -39.825748], [-72.018822, -39.826284], [-72.02216, -39.826852], [-72.026204, -39.829035], [-72.03086, -39.826211], [-72.041318, -39.826797]]]}}