{"type": "Feature", "properties": {"id": "rio-trancura", "name": "Río Trancura", "type": "river", "region": "araucania"}, "geometry": {"type": "MultiLineString", "coordinates": [[[-71.552528, -39.530952], [-71.552077, -39.530468], [-71.553022, -39.52849], [-71.552855, -39.527175], [-71.549996, -39.525445], [-71.550254, -39.524816], [-71.548408, -39.521779], [-71.545988, -39.520198], [-71.544562, -39.51798], [-71.545608, -39.516407], [-71.543001, -39.513295], [-71.543119, -39.510887], [-71.542314, -39.509819], [-71.543012, -39.507526], [-71.542711, -39.504645], [-71.544117, -39.503586], [-71.543966, -39.501698], [-71.545737, -39.498693], [-71.545748, -39.496549], [-71.547328, -39.494813], [-71.547815, -39.492639], [-71.546053, -39.490018], [-71.545825, -39.486878], [-71.546721, -39.48624], [-71.546051, -39.484935], [-71.54608, -39.482506], [-71.547732, -39.478117], [-71.547303, -39.473885], [-71.551348, -39.465379], [-71.549116, -39.46345], [-71.548988, -39.459904], [-71.547389, -39.457949], [-71.551323, -39.451026], [-71.551442, -39.449785], [-71.55138, -39.448862], [-71.54828, -39.444272], [-71.548028, -39.442835], [-71.551697, -39.440167], [-71.551691, -39.43785], [-71.549417, -39.435787], [-71.552947, -39.43239], [-71.551541, -39.431544], [-71.548966, -39.432348], [-71.547593, -39.431346], [-71.547797, -39.430707], [-71.549427, -39.430542], [-71.550361, -39.429647], [-71.550103, -39.42886], [-71.548333, -39.428255], [-71.549889, -39.42726], [-71.550672, -39.425677], [-71.546649, -39.420937], [-71.546378, -39.419415], [-71.543033, -39.418442], [-71.541898, -39.415428], [-71.543655, -39.413974], [-71.547003, -39.41564], [-71.547711, -39.415242], [-71.547078, -39.412333], [-71.547432, -39.411189], [-71.550307, -39.409457], [-71.550232, -39.408072], [-71.548355, -39.406215], [-71.547593, -39.404458], [-71.549621, -39.402012], [-71.550082, -39.39926], [-71.556348, -39.397113], [-71.5605, -39.393448], [-71.563858, -39.38766], [-71.566594, -39.386159], [-71.570585, -39.385471], [-71.571428, -39.38403], [-71.571347, -39.382876], [-71.569329, -39.38057], [-71.568997, -39.377038], [-71.570993, -39.376075], [-71.571894, -39.374185], [-71.573803, -39.373422], [-71.577054, -39.373853], [-71.579576, -39.373173], [-71.579822, -39.372136], [-71.577794, -39.370145], [-71.577655, -39.368371], [-71.583159, -39.36502], [-71.582987, -39.363775], [-71.581056, -39.361901], [-71.585179, -39.359163], [-71.584693, -39.358325], [-71.581209, -39.35712], [-71.581228, -39.352742], [-71.579248, -39.350013], [-71.579546, -39.349164]], [[-71.93237, -39.266191], [-71.942643, -39.264797], [-71.947694, -39.261455], [-71.950421, -39.260873], [-71.951431, -39.259834], [-71.95176, -39.257387], [-71.952929, -39.25593], [-71.954574, -39.255131], [-71.959323, -39.256495], [-71.964658, -39.253666], [-71.967586, -39.250751], [-71.97378, -39.250075], [-71.976622, -39.25099]], [[-71.81422, -39.333178], [-71.823029, -39.330877], [-71.828622, -39.328534], [-71.831729, -39.326216], [-71.839428, -39.312819], [-71.843349, -39.31124], [-71.844395, -39.307247], [-71.84804, -39.30484], [-71.848275, -39.303653], [-71.846137, -39.300415], [-71.846787, -39.298146], [-71.849532, -39.296125], [-71.849401, -39.291876], [-71.851259, -39.287918], [-71.851298, -39.282111], [-71.852154, -39.281371], [-71.862754, -39.279556], [-71.864796, -39.280692], [-71.86792, -39.280975], [-71.869363, -39.28048], [-71.873802, -39.276166], [-71.882681, -39.272998], [-71.886543, -39.270404], [-71.891946, -39.271608], [-71.896002, -39.274825], [-71.897123, -39.275054]], [[-71.95642, -39.241003], [-71.960134, -39.240098], [-71.961683, -39.237335]], [[-71.960134, -39.240098], [-71.96152, -39.240361], [-71.965848, -39.239196]], [[-71.942643, -39.264797], [-71.943882, -39.265551], [-71.945148, -39.264604], [-71.948045, -39.263973], [-71.949761, -39.262278], [-71.950036, -39.260989]], [[-71.925358, -39.270509], [-71.936136, -39.267295], [-71.938046, -39.265273]], [[-71.932984, -39.268251], [-71.937423, -39.267893], [-71.940449, -39.265306]], [[-71.951555, -39.258907], [-71.952785, -39.257164], [-71.957528, -39.256106]], [[-71.941584, -39.265141], [-71.944214, -39.261765], [-71.947312, -39.254779]], [[-71.948429, -39.261105], [-71.951747, -39.257483]], [[-71.951072, -39.249088], [-71.956269, -39.24798], [-71.962186, -39.243223], [-71.964868, -39.239298]], [[-71.962771, -39.242539], [-71.964682, -39.240168], [-71.965894, -39.239811]], [[-71.750831, -39.324062], [-71.754112, -39.321584], [-71.755099, -39.321634], [-71.75649, -39.323609], [-71.757977, -39.324211], [-71.759863, -39.322663], [-71.761494, -39.322378], [-71.763182, -39.326004], [-71.763148, -39.328795], [-71.77027, -39.330613], [-71.772931, -39.32995], [-71.777758, -39.330547], [-71.78087, -39.330199], [-71.784711, -39.33141], [-71.791641, -39.330813], [-71.798014, -39.332141], [-71.803314, -39.331825], [-71.81422, -39.333178]], [[-71.579546, -39.349164], [-71.584001, -39.34932], [-71.590551, -39.345794], [-71.594768, -39.345641], [-71.602072, -39.351223], [-71.608055, -39.348602], [-71.609203, -39.349108], [-71.610367, -39.35163], [-71.612583, -39.351606], [-71.619347, -39.349117], [-71.621423, -39.349747], [-71.62189, -39.351539], [-71.622845, -39.351825], [-71.624036, -39.351436], [-71.624401, -39.347992], [-71.625179, -39.347615], [-71.627077, -39.348664], [-71.62984, -39.352572], [-71.635417, -39.355874], [-71.636927, -39.355357], [-71.637458, -39.354379], [-71.634435, -39.352035], [-71.635765, -39.351091], [-71.638968, -39.350751], [-71.640958, -39.352022], [-71.647382, -39.353771], [-71.648283, -39.354808], [-71.650697, -39.354767], [-71.652585, -39.356152], [-71.654495, -39.356525], [-71.656812, -39.355123], [-71.657327, -39.353024], [-71.658572, -39.351971], [-71.660138, -39.352983], [-71.659774, -39.354095], [-71.660213, -39.35519], [-71.661801, -39.355679], [-71.664162, -39.35441], [-71.667134, -39.354509], [-71.686564, -39.350585], [-71.693108, -39.351183], [-71.698397, -39.348237], [-71.701916, -39.348279], [-71.704615, -39.347482], [-71.705224, -39.346684], [-71.704921, -39.345483], [-71.702024, -39.345632], [-71.70146, -39.344461], [-71.703805, -39.344056], [-71.706991, -39.342454], [-71.708697, -39.342496], [-71.712184, -39.343865], [-71.714952, -39.343873], [-71.717516, -39.345632], [-71.721883, -39.344603], [-71.725498, -39.345292], [-71.728503, -39.343151], [-71.731786, -39.343508], [-71.732338, -39.342229], [-71.731578, -39.340302], [-71.727322, -39.340297], [-71.726122, -39.33921], [-71.732923, -39.336223], [-71.737386, -39.335584], [-71.739832, -39.336953], [-71.741328, -39.336909], [-71.743668, -39.334433], [-71.740995, -39.333334], [-71.738551, -39.331292], [-71.737896, -39.32737], [-71.743619, -39.328008], [-71.744907, -39.32736], [-71.745927, -39.325122], [-71.747117, -39.324207], [-71.750831, -39.324062]], [[-71.897123, -39.275054], [-71.901334, -39.27611], [-71.907673, -39.274738], [-71.911802, -39.274894], [-71.916635, -39.273524], [-71.921071, -39.274074], [-71.922325, -39.273465], [-71.928139, -39.268056], [-71.937747, -39.263149], [-71.938938, -39.26162], [-71.939458, -39.258364], [-71.941947, -39.255427], [-71.943787, -39.254613], [-71.947639, -39.254721], [-71.949323, -39.253408], [-71.949683, -39.252407], [-71.94861, -39.251252], [-71.950718, -39.24974], [-71.951582, -39.248037], [-71.950911, -39.246429], [-71.951029, -39.244286], [-71.950064, -39.24296], [-71.950359, -39.241984], [-71.953315, -39.241145], [-71.956045, -39.241161], [-71.957901, -39.238548], [-71.962284, -39.237139], [-71.965132, -39.236982]], [[-71.552528, -39.530952], [-71.552077, -39.530468], [-71.553022, -39.52849], [-71.552855, -39.527175], [-71.549996, -39.525445], [-71.550254, -39.524816], [-71.548408, -39.521779], [-71.545988, -39.520198], [-71.544562, -39.51798], [-71.545608, -39.516407], [-71.543001, -39.513295], [-71.543119, -39.510887], [-71.542314, -39.509819], [-71.543012, -39.507526], [-71.542711, -39.504645], [-71.544117, -39.503586], [-71.543966, -39.501698], [-71.545737, -39.498693], [-71.545748, -39.496549], [-71.547328, -39.494813], [-71.547815, -39.492639], [-71.546053, -39.490018], [-71.545825, -39.486878], [-71.546721, -39.48624], [-71.546051, -39.484935], [-71.54608, -39.482506], [-71.547732, -39.478117], [-71.547303, -39.473885], [-71.551348, -39.465379], [-71.549116, -39.46345], [-71.548988, -39.459904], [-71.547389, -39.457949], [-71.551323, -39.451026], [-71.551442, -39.449785], [-71.55138, -39.448862], [-71.54828, -39.444272], [-71.548028, -39.442835], [-71.551697, -39.440167], [-71.551691, -39.43785], [-71.549417, -39.435787], [-71.552947, -39.43239], [-71.551541, -39.431544], [-71.548966, -39.432348], [-71.547593, -39.431346], [-71.547797, -39.430707], [-71.549427, -39.430542], [-71.550361, -39.429647], [-71.550103, -39.42886], [-71.548333, -39.428255], [-71.549889, -39.42726], [-71.550672, -39.425677], [-71.546649, -39.420937], [-71.546378, -39.419415], [-71.543033, -39.418442], [-71.541898, -39.415428], [-71.543655, -39.413974], [-71.547003, -39.41564], [-71.547711, -39.415242], [-71.547078, -39.412333], [-71.547432, -39.411189], [-71.550307, -39.409457], [-71.550232, -39.408072], [-71.548355, -39.406215], [-71.547593, -39.404458], [-71.549621, -39.402012], [-71.550082, -39.39926], [-71.556348, -39.397113], [-71.5605, -39.393448], [-71.563858, -39.38766], [-71.566594, -39.386159], [-71.570585, -39.385471], [-71.571428, -39.38403], [-71.571347, -39.382876], [-71.569329, -39.38057], [-71.568997, -39.377038], [-71.570993, -39.376075], [-71.571894, -39.374185], [-71.573803, -39.373422], [-71.577054, -39.373853], [-71.579576, -39.373173], [-71.579822, -39.372136], [-71.577794, -39.370145], [-71.577655, -39.368371], [-71.583159, -39.36502], [-71.582987, -39.363775], [-71.581056, -39.361901], [-71.585179, -39.359163], [-71.584693, -39.358325], [-71.581209, -39.35712], [-71.581228, -39.352742], [-71.579248, -39.350013], [-71.579546, -39.349164]], [[-71.579546, -39.349164], [-71.584001, -39.34932], [-71.590551, -39.345794], [-71.594768, -39.345641], [-71.602072, -39.351223], [-71.608055, -39.348602], [-71.609203, -39.349108], [-71.610367, -39.35163], [-71.612583, -39.351606], [-71.619347, -39.349117], [-71.621423, -39.349747], [-71.62189, -39.351539], [-71.622845, -39.351825], [-71.624036, -39.351436], [-71.624401, -39.347992], [-71.625179, -39.347615], [-71.627077, -39.348664], [-71.62984, -39.352572], [-71.635417, -39.355874], [-71.636927, -39.355357], [-71.637458, -39.354379], [-71.634435, -39.352035], [-71.635765, -39.351091], [-71.638968, -39.350751], [-71.640958, -39.352022], [-71.647382, -39.353771], [-71.648283, -39.354808], [-71.650697, -39.354767], [-71.652585, -39.356152], [-71.654495, -39.356525], [-71.656812, -39.355123], [-71.657327, -39.353024], [-71.658572, -39.351971], [-71.660138, -39.352983], [-71.659774, -39.354095], [-71.660213, -39.35519], [-71.661801, -39.355679], [-71.664162, -39.35441], [-71.667134, -39.354509], [-71.686564, -39.350585], [-71.693108, -39.351183], [-71.698397, -39.348237], [-71.701916, -39.348279], [-71.704615, -39.347482], [-71.705224, -39.346684], [-71.704921, -39.345483], [-71.702024, -39.345632], [-71.70146, -39.344461], [-71.703805, -39.344056], [-71.706991, -39.342454], [-71.708697, -39.342496], [-71.712184, -39.343865], [-71.714952, -39.343873], [-71.717516, -39.345632], [-71.721883, -39.344603], [-71.725498, -39.345292], [-71.728503, -39.343151], [-71.731786, -39.343508], [-71.732338, -39.342229], [-71.731578, -39.340302], [-71.727322, -39.340297], [-71.726122, -39.33921], [-71.732923, -39.336223], [-71.737386, -39.335584], [-71.739832, -39.336953], [-71.741328, -39.336909], [-71.743668, -39.334433], [-71.740995, -39.333334], [-71.738551, -39.331292], [-71.737896, -39.32737], [-71.743619, -39.328008], [-71.744907, -39.32736], [-71.745927, -39.325122], [-71.747117, -39.324207], [-71.750831, -39.324062]], [[-71.750831, -39.324062], [-71.754112, -39.321584], [-71.755099, -39.321634], [-71.75649, -39.323609], [-71.757977, -39.324211], [-71.759863, -39.322663], [-71.761494, -39.322378], [-71.763182, -39.326004], [-71.763148, -39.328795], [-71.77027, -39.330613], [-71.772931, -39.32995], [-71.777758, -39.330547], [-71.78087, -39.330199], [-71.784711, -39.33141], [-71.791641, -39.330813], [-71.798014, -39.332141], [-71.803314, -39.331825], [-71.81422, -39.333178]], [[-71.81422, -39.333178], [-71.823029, -39.330877], [-71.828622, -39.328534], [-71.831729, -39.326216], [-71.839428, -39.312819], [-71.843349, -39.31124], [-71.844395, -39.307247], [-71.84804, -39.30484], [-71.848275, -39.303653], [-71.846137, -39.300415], [-71.846787, -39.298146], [-71.849532, -39.296125], [-71.849401, -39.291876], [-71.851259, -39.287918], [-71.851298, -39.282111], [-71.852154, -39.281371], [-71.862754, -39.279556], [-71.864796, -39.280692], [-71.86792, -39.280975], [-71.869363, -39.28048], [-71.873802, -39.276166], [-71.882681, -39.272998], [-71.886543, -39.270404], [-71.891946, -39.271608], [-71.896002, -39.274825], [-71.897123, -39.275054]], [[-71.897123, -39.275054], [-71.901334, -39.27611], [-71.907673, -39.274738], [-71.911802, -39.274894], [-71.916635, -39.273524], [-71.921071, -39.274074], [-71.922325, -39.273465], [-71.928139, -39.268056], [-71.937747, -39.263149], [-71.938938, -39.26162], [-71.939458, -39.258364], [-71.941947, -39.255427], [-71.943787, -39.254613], [-71.947639, -39.254721], [-71.949323, -39.253408], [-71.949683, -39.252407], [-71.94861, -39.251252], [-71.950718, -39.24974], [-71.951582, -39.248037], [-71.950911, -39.246429], [-71.951029, -39.244286], [-71.950064, -39.24296], [-71.950359, -39.241984], [-71.953315, -39.241145], [-71.956045, -39.241161], [-71.957901, -39.238548], [-71.962284, -39.237139], [-71.965132, -39.236982]], [[-71.925358, -39.270509], [-71.936136, -39.267295], [-71.938046, -39.265273]], [[-71.93237, -39.266191], [-71.942643, -39.264797], [-71.947694, -39.261455], [-71.950421, -39.260873], [-71.951431, -39.259834], [-71.95176, -39.257387], [-71.952929, -39.25593], [-71.954574, -39.255131], [-71.959323, -39.256495], [-71.964658, -39.253666], [-71.967586, -39.250751], [-71.97378, -39.250075], [-71.976622, -39.25099]], [[-71.941584, -39.265141], [-71.944214, -39.261765], [-71.947312, -39.254779]], [[-71.942643, -39.264797], [-71.943882, -39.265551], [-71.945148, -39.264604], [-71.948045, -39.263973], [-71.949761, -39.262278], [-71.950036, -39.260989]], [[-71.948429, -39.261105], [-71.951747, -39.257483]], [[-71.951555, -39.258907], [-71.952785, -39.257164], [-71.957528, -39.256106]], [[-71.951072, -39.249088], [-71.956269, -39.24798], [-71.962186, -39.243223], [-71.964868, -39.239298]], [[-71.962771, -39.242539], [-71.964682, -39.240168], [-71.965894, -39.239811]], [[-71.960134, -39.240098], [-71.96152, -39.240361], [-71.965848, -39.239196]], [[-71.95642, -39.241003], [-71.960134, -39.240098], [-71.961683, -39.237335]]]}}