{"type": "Feature", "properties": {"id": "rio-blanco-hornopiren", "name": "Río Blanco (Hornopirén)", "type": "river", "region": "los-lagos"}, "geometry": {"type": "MultiLineString", "coordinates": [[[-72.242121, -41.963467], [-72.245409, -41.962939], [-72.245581, -41.962301], [-72.246782, -41.962492], [-72.248156, -41.961407], [-72.247126, -41.960386], [-72.248327, -41.95962], [-72.24807, -41.958407], [-72.249014, -41.954897], [-72.250559, -41.952854], [-72.253477, -41.951131], [-72.254335, -41.951769], [-72.255194, -41.951578], [-72.255794, -41.950493], [-72.257425, -41.949726], [-72.256567, -41.949216], [-72.25794, -41.948577], [-72.258369, -41.946726], [-72.257168, -41.945641], [-72.266, -41.94138], [-72.266008, -41.940406], [-72.267038, -41.939321], [-72.268755, -41.939193], [-72.269957, -41.937788], [-72.272397, -41.937704], [-72.280857, -41.939767], [-72.2812, -41.940342], [-72.283689, -41.939576], [-72.285406, -41.939767], [-72.286007, -41.941108], [-72.288067, -41.942321], [-72.291672, -41.943151], [-72.302143, -41.942194], [-72.304632, -41.941108], [-72.308323, -41.94181], [-72.308924, -41.941236], [-72.311928, -41.941044], [-72.314674, -41.941491], [-72.316048, -41.940342], [-72.317335, -41.941108], [-72.318537, -41.940534], [-72.321455, -41.940789], [-72.329866, -41.939448], [-72.331068, -41.938491], [-72.335016, -41.939001], [-72.337248, -41.939767], [-72.339909, -41.943853], [-72.342655, -41.944492], [-72.342998, -41.946152], [-72.346861, -41.948769], [-72.351657, -41.949], [-72.360037, -41.951002], [-72.362542, -41.950052], [-72.36413, -41.950256], [-72.364864, -41.951399], [-72.36867, -41.950974], [-72.372054, -41.952662], [-72.379168, -41.948019], [-72.382798, -41.947821], [-72.384528, -41.946927], [-72.386347, -41.945411], [-72.386476, -41.944109], [-72.392106, -41.941708], [-72.409132, -41.937213], [-72.41444, -41.938492], [-72.416173, -41.940882], [-72.422985, -41.946369], [-72.423313, -41.947498], [-72.426606, -41.950466], [-72.425931, -41.952038], [-72.42799, -41.956155], [-72.429632, -41.957192], [-72.430984, -41.960783], [-72.431255, -41.963688], [-72.434989, -41.968315], [-72.440726, -41.971201]]]}}