{"type": "Feature", "properties": {"id": "rio-traidor", "name": "Río Traidor", "type": "river", "region": "los-lagos"}, "geometry": {"type": "MultiLineString", "coordinates": [[[-72.094866, -41.324103], [-72.091544, -41.325321], [-72.090493, -41.326597], [-72.089195, -41.326969], [-72.088901, -41.328234], [-72.089813, -41.329324], [-72.089427, -41.330798], [-72.087897, -41.330926], [-72.088762, -41.332272], [-72.087758, -41.332945], [-72.087804, -41.333699], [-72.089767, -41.335787], [-72.090732, -41.337939], [-72.095414, -41.337905], [-72.096295, -41.338601], [-72.09519, -41.341165], [-72.096195, -41.343264], [-72.104462, -41.349163], [-72.105568, -41.351824], [-72.105666, -41.354211], [-72.106829, -41.355635], [-72.106406, -41.358518], [-72.107766, -41.362192], [-72.106705, -41.365274], [-72.105609, -41.365869], [-72.105926, -41.367156], [-72.103004, -41.370264], [-72.102857, -41.373395], [-72.102072, -41.374979], [-72.1029, -41.377621], [-72.102209, -41.37869], [-72.10393, -41.381097], [-72.103668, -41.383466], [-72.104343, -41.384047], [-72.104281, -41.385421], [-72.10074, -41.387012], [-72.099087, -41.388472], [-72.099498, -41.389346], [-72.098943, -41.390839], [-72.097523, -41.392201], [-72.096496, -41.395585], [-72.097017, -41.396262], [-72.094833, -41.399153], [-72.096516, -41.40156], [-72.095763, -41.402716], [-72.096498, -41.405045], [-72.094992, -41.40576], [-72.09524, -41.407656]], [[-72.274547, -41.845624], [-72.268935, -41.84411], [-72.264403, -41.840369], [-72.261801, -41.840137], [-72.260368, -41.839174], [-72.258266, -41.839462], [-72.256549, -41.838578], [-72.252343, -41.839098], [-72.250841, -41.838407], [-72.243036, -41.839686], [-72.23294, -41.840149], [-72.22823, -41.841584], [-72.225873, -41.841211], [-72.224017, -41.842952], [-72.221786, -41.841611], [-72.219652, -41.842587], [-72.215139, -41.842706], [-72.212092, -41.841747], [-72.210075, -41.840372], [-72.207457, -41.840756], [-72.205826, -41.839988], [-72.204281, -41.841139], [-72.203509, -41.840116], [-72.200505, -41.839317], [-72.1969, -41.838869], [-72.195741, -41.839829], [-72.19351, -41.838614], [-72.191321, -41.840084], [-72.190291, -41.839381], [-72.185066, -41.840346], [-72.183006, -41.839739], [-72.17982, -41.840564], [-72.179187, -41.841274], [-72.175668, -41.840442], [-72.173693, -41.842393], [-72.172309, -41.842546], [-72.172181, -41.843185], [-72.170604, -41.842393], [-72.169917, -41.841242], [-72.168887, -41.841881], [-72.167718, -41.844368], [-72.166226, -41.844247], [-72.164939, -41.845845], [-72.158888, -41.845238], [-72.156656, -41.846932], [-72.15554, -41.847092], [-72.153781, -41.846804], [-72.15288, -41.845909], [-72.14906, -41.847124], [-72.147344, -41.848595], [-72.141797, -41.847406], [-72.14008, -41.848237], [-72.138417, -41.848339], [-72.138203, -41.847828], [-72.133986, -41.850283], [-72.129834, -41.850609], [-72.127989, -41.849937], [-72.125457, -41.850129], [-72.124255, -41.850992], [-72.119534, -41.850736], [-72.113644, -41.852616], [-72.112196, -41.852207], [-72.108119, -41.854413], [-72.106563, -41.854119], [-72.102787, -41.856772], [-72.100555, -41.857219], [-72.097133, -41.856363], [-72.092197, -41.857002], [-72.090041, -41.858018], [-72.083756, -41.857895], [-72.083134, -41.857152], [-72.083445, -41.855866], [-72.082769, -41.855194], [-72.076803, -41.851894], [-72.074314, -41.851151], [-72.073156, -41.849496], [-72.061794, -41.842243], [-72.060624, -41.840497], [-72.05252, -41.837424], [-72.04911, -41.834495], [-72.048037, -41.829859], [-72.045666, -41.826814], [-72.04528, -41.825375], [-72.045829, -41.823605], [-72.043737, -41.822002], [-72.046326, -41.815743], [-72.045738, -41.814774], [-72.044279, -41.814982], [-72.042127, -41.814235], [-72.043125, -41.812472], [-72.046334, -41.81052], [-72.047004, -41.808345], [-72.044832, -41.803206], [-72.042658, -41.80032], [-72.042412, -41.795664], [-72.043818, -41.792881], [-72.040147, -41.789782], [-72.036683, -41.788601], [-72.036188, -41.787606], [-72.037181, -41.78629], [-72.039075, -41.785729], [-72.036645, -41.783297], [-72.037128, -41.781509], [-72.036366, -41.776497], [-72.036885, -41.774398]], [[-72.074711, -41.851358], [-72.070983, -41.851123], [-72.069967, -41.848787], [-72.063521, -41.845932], [-72.061933, -41.844453], [-72.061486, -41.841931]]]}}