{"type": "Feature", "properties": {"id": "rio-blanco-coyhaique", "name": "Río Blanco (Coyhaique)", "type": "river", "region": "aysen"}, "geometry": {"type": "GeometryCollection", "geometries": [{"type": "MultiPolygon", "coordinates": [[[[-71.957939, -45.902866], [-71.955994, -45.900705], [-71.955305, -45.897158], [-71.952829, -45.895273], [-71.951931, -45.892986], [-71.946837, -45.892032], [-71.946306, -45.890552], [-71.947014, -45.889706], [-71.946043, -45.888729], [-71.939887, -45.887663], [-71.940204, -45.885111], [-71.939544, -45.884441], [-71.938053, -45.883862], [-71.936387, -45.884506], [-71.934555, -45.88384], [-71.93382, -45.88304], [-71.933488, -45.880762], [-71.930317, -45.880796], [-71.929126, -45.880058], [-71.930414, -45.87801], [-71.930156, -45.8772], [-71.924725, -45.876173], [-71.925001, -45.875504], [-71.922397, -45.87303], [-71.924132, -45.870748], [-71.925792, -45.870725], [-71.926501, -45.868992], [-71.929132, -45.868353], [-71.929738, -45.867447], [-71.929014, -45.86657], [-71.926535, -45.86636], [-71.924929, -45.862877], [-71.920425, -45.8608], [-71.922121, -45.859365], [-71.921919, -45.858319], [-71.919264, -45.856778], [-71.920162, -45.853827], [-71.916284, -45.849599], [-71.917979, -45.847454], [-71.920849, -45.847032], [-71.922281, -45.846488], [-71.922319, -45.845943], [-71.918296, -45.843887], [-71.918537, -45.84061], [-71.916853, -45.836802], [-71.914535, -45.836845], [-71.914001, -45.832879], [-71.908731, -45.829795], [-71.907945, -45.828553], [-71.907658, -45.826012], [-71.908369, -45.823082], [-71.909125, -45.8224], [-71.913663, -45.82302], [-71.917834, -45.82045], [-71.916917, -45.816949], [-71.920023, -45.814423], [-71.920618, -45.811744], [-71.923344, -45.809983], [-71.923333, -45.808024], [-71.925747, -45.807051], [-71.924776, -45.806722], [-71.923038, -45.807767], [-71.922421, -45.809889], [-71.920012, -45.812011], [-71.919607, -45.814526], [-71.916756, -45.816612], [-71.917601, -45.820127], [-71.9138, -45.822725], [-71.910016, -45.821996], [-71.908259, -45.822543], [-71.907419, -45.826285], [-71.907905, -45.829281], [-71.910598, -45.831369], [-71.912674, -45.832113], [-71.914001, -45.833556], [-71.913795, -45.836884], [-71.916764, -45.83708], [-71.918352, -45.840528], [-71.918065, -45.844026], [-71.922179, -45.846193], [-71.917711, -45.847407], [-71.916027, -45.849446], [-71.916212, -45.850322], [-71.919969, -45.854036], [-71.918642, -45.855656], [-71.918808, -45.856668], [-71.921785, -45.858471], [-71.921887, -45.859322], [-71.920074, -45.860817], [-71.922383, -45.862285], [-71.924422, -45.862685], [-71.925634, -45.864153], [-71.926356, -45.866473], [-71.928308, -45.866672], [-71.929416, -45.867468], [-71.928475, -45.868327], [-71.926468, -45.868645], [-71.925975, -45.87038], [-71.923711, -45.87074], [-71.922123, -45.872966], [-71.924779, -45.875506], [-71.924481, -45.876253], [-71.92918, -45.877538], [-71.929325, -45.878983], [-71.928292, -45.880615], [-71.928652, -45.88094], [-71.932029, -45.880749], [-71.934397, -45.883995], [-71.936339, -45.884633], [-71.939246, -45.884428], [-71.939901, -45.885188], [-71.939842, -45.887803], [-71.945684, -45.888899], [-71.946513, -45.889563], [-71.945904, -45.890998], [-71.946555, -45.892051], [-71.95189, -45.893313], [-71.952751, -45.895584], [-71.955122, -45.897229], [-71.956002, -45.901074], [-71.957939, -45.902866]]]]}, {"type": "MultiLineString", "coordinates": [[[-71.923821, -46.005342], [-71.917043, -46.001139], [-71.914042, -46.00107], [-71.911799, -45.999306], [-71.91155, -45.998443], [-71.906849, -45.996292], [-71.905665, -45.996317], [-71.904651, -45.995162], [-71.904488, -45.994616], [-71.906612, -45.992475], [-71.908913, -45.988397], [-71.911526, -45.985501], [-71.920023, -45.981669], [-71.920549, -45.980741], [-71.925693, -45.977188], [-71.930462, -45.978143], [-71.933697, -45.977796], [-71.935258, -45.978966], [-71.937066, -45.978952], [-71.944259, -45.981714], [-71.947838, -45.982385], [-71.950895, -45.981568], [-71.953299, -45.97922], [-71.955273, -45.979898], [-71.958685, -45.979853], [-71.960112, -45.978206], [-71.963513, -45.976797], [-71.965047, -45.975268], [-71.967305, -45.975432], [-71.97113, -45.97412], [-71.976151, -45.969817], [-71.980373, -45.969591], [-71.981987, -45.968609], [-71.985249, -45.970358], [-71.985721, -45.969862], [-71.98511, -45.969556], [-71.986609, -45.968522], [-71.98713, -45.96698], [-71.98913, -45.965095], [-71.988625, -45.963568], [-71.986166, -45.962509], [-71.986664, -45.960174], [-71.985914, -45.958534], [-71.98725, -45.957068], [-71.987427, -45.954685], [-71.990678, -45.950702], [-71.991021, -45.94946], [-71.988972, -45.947603], [-71.985952, -45.947061], [-71.984283, -45.945499], [-71.985211, -45.943037], [-71.984245, -45.942244], [-71.984991, -45.940526], [-71.98273, -45.938513], [-71.983727, -45.936407], [-71.981601, -45.936027], [-71.980544, -45.93358], [-71.977932, -45.930871], [-71.97452, -45.928778], [-71.974139, -45.926233], [-71.971516, -45.92542], [-71.971537, -45.922808], [-71.969993, -45.919486], [-71.967348, -45.917012], [-71.967149, -45.913515], [-71.962826, -45.910626], [-71.963834, -45.908376], [-71.961297, -45.907127], [-71.956018, -45.900919], [-71.955224, -45.897266], [-71.952612, -45.89519], [-71.952193, -45.893395], [-71.946722, -45.892054], [-71.946056, -45.890826], [-71.946727, -45.88965], [-71.94603, -45.888888], [-71.939871, -45.887783], [-71.940011, -45.885162], [-71.939163, -45.884321], [-71.93786, -45.884019], [-71.936395, -45.884579], [-71.934555, -45.883996], [-71.932104, -45.880706], [-71.928713, -45.880886], [-71.929665, -45.878468], [-71.929277, -45.877173], [-71.924674, -45.87623], [-71.924827, -45.87548], [-71.922228, -45.87306], [-71.923909, -45.870781], [-71.925991, -45.87049], [-71.926466, -45.868942], [-71.929167, -45.868196], [-71.929513, -45.867175], [-71.926503, -45.866476], [-71.925216, -45.863256], [-71.920302, -45.860843], [-71.922051, -45.85933], [-71.92186, -45.858428], [-71.918859, -45.856528], [-71.920001, -45.853913], [-71.916279, -45.85026], [-71.916182, -45.849489], [-71.917995, -45.84737], [-71.922303, -45.846163], [-71.918129, -45.844052], [-71.918441, -45.840655], [-71.916869, -45.837108], [-71.914246, -45.836772], [-71.914122, -45.833557], [-71.912497, -45.831928], [-71.90849, -45.829823], [-71.907551, -45.825854], [-71.90827, -45.823129], [-71.909149, -45.822156], [-71.914047, -45.822747], [-71.917641, -45.820153], [-71.916879, -45.816766], [-71.919867, -45.814421], [-71.920538, -45.811643], [-71.923172, -45.809961], [-71.923129, -45.807962], [-71.926707, -45.806152]], [[-71.916847, -45.820893], [-71.917791, -45.819895]], [[-71.910624, -45.822235], [-71.913301, -45.822863]], [[-71.914964, -45.836966], [-71.913875, -45.836798], [-71.914246, -45.834664]], [[-71.914235, -45.833741], [-71.912765, -45.83216]]]}]}}