{"type": "Feature", "properties": {"id": "rio-maule", "name": "Río Maule", "type": "river", "region": "maule"}, "geometry": {"type": "MultiLineString", "coordinates": [[[-71.893893, -35.467481], [-71.897922, -35.467643], [-71.904638, -35.470422], [-71.909401, -35.470841], [-71.914487, -35.469129], [-71.92189, -35.46379], [-71.930666, -35.463632], [-71.934432, -35.465511], [-71.934453, -35.468587], [-71.935408, -35.47002], [-71.940536, -35.47376], [-71.941856, -35.473952], [-71.955171, -35.471654], [-71.959709, -35.469906], [-71.967541, -35.470221], [-71.970019, -35.469688], [-71.972455, -35.467731], [-71.971285, -35.464716], [-71.971747, -35.462217], [-71.974729, -35.46233], [-71.979064, -35.461483], [-71.987658, -35.462741], [-71.989825, -35.460941], [-71.997496, -35.450891], [-71.999281, -35.4498], [-72.006057, -35.449256], [-72.010049, -35.449805], [-72.012752, -35.451048], [-72.01654, -35.449361], [-72.017387, -35.445651], [-72.018524, -35.445078], [-72.024946, -35.44694], [-72.029634, -35.449851], [-72.032054, -35.449606], [-72.032853, -35.446787], [-72.039349, -35.440608], [-72.039483, -35.439187], [-72.038657, -35.437688], [-72.039172, -35.436206], [-72.051108, -35.43168], [-72.052441, -35.431934], [-72.055346, -35.434366], [-72.060447, -35.432421], [-72.062716, -35.428125], [-72.067322, -35.424459], [-72.068306, -35.418853], [-72.070986, -35.41753], [-72.07742, -35.418433], [-72.08493, -35.425106], [-72.092092, -35.433365], [-72.09456, -35.441744], [-72.095965, -35.44271], [-72.100545, -35.442572], [-72.102558, -35.440533], [-72.105085, -35.439187], [-72.114419, -35.436617], [-72.128431, -35.431643], [-72.133474, -35.4313], [-72.143934, -35.432133], [-72.148082, -35.431428], [-72.154748, -35.428151], [-72.154276, -35.425235], [-72.154727, -35.424439], [-72.165994, -35.421005], [-72.172188, -35.421672], [-72.176008, -35.421235], [-72.183719, -35.422829], [-72.187504, -35.422306], [-72.194408, -35.42002], [-72.197578, -35.419915], [-72.201923, -35.41344], [-72.202594, -35.411722], [-72.202645, -35.408537], [-72.205566, -35.406906], [-72.207373, -35.407057], [-72.214004, -35.409707], [-72.224598, -35.409842], [-72.231873, -35.418385], [-72.233799, -35.418254], [-72.241824, -35.414289], [-72.251388, -35.414009], [-72.256688, -35.416453], [-72.258132, -35.418022], [-72.259776, -35.421516], [-72.262369, -35.423111], [-72.266597, -35.423364], [-72.272809, -35.421978], [-72.278366, -35.419522], [-72.281166, -35.417253], [-72.282132, -35.412321], [-72.281123, -35.403244], [-72.283607, -35.399821], [-72.288204, -35.395496], [-72.291133, -35.388901], [-72.293971, -35.386732], [-72.296273, -35.386317], [-72.303139, -35.390913], [-72.305542, -35.39163], [-72.306744, -35.391289], [-72.308375, -35.389347], [-72.30897, -35.387309], [-72.308053, -35.382385], [-72.308235, -35.379892], [-72.309469, -35.378309], [-72.312634, -35.376323], [-72.321078, -35.37306], [-72.334231, -35.372832], [-72.342213, -35.368895], [-72.345711, -35.368169], [-72.354283, -35.368615], [-72.366107, -35.371695], [-72.369014, -35.371468], [-72.371471, -35.370251], [-72.379281, -35.360966], [-72.385397, -35.350048], [-72.388358, -35.346093], [-72.398014, -35.336361], [-72.399559, -35.332939], [-72.400374, -35.326313], [-72.401769, -35.322242], [-72.403915, -35.320728], [-72.408965, -35.31932]], [[-71.885766, -35.463811], [-71.887209, -35.464026], [-71.888034, -35.462477], [-71.889013, -35.462571], [-71.890122, -35.463899], [-71.890524, -35.466031], [-71.893893, -35.467481]], [[-71.755518, -35.574748], [-71.754429, -35.572854], [-71.754536, -35.57062], [-71.759262, -35.563996], [-71.761842, -35.563189], [-71.764659, -35.564904], [-71.766901, -35.563935], [-71.768108, -35.56239], [-71.76667, -35.558367], [-71.766778, -35.555421], [-71.767582, -35.549176], [-71.769605, -35.545597], [-71.773821, -35.542519], [-71.780484, -35.541773], [-71.784416, -35.538949], [-71.784545, -35.534409], [-71.783429, -35.530026], [-71.783638, -35.52804], [-71.785038, -35.524665], [-71.788353, -35.521085], [-71.790317, -35.520194], [-71.798755, -35.519639], [-71.801652, -35.518705], [-71.803738, -35.515474], [-71.80656, -35.514863], [-71.811275, -35.512701], [-71.81974, -35.50488], [-71.822696, -35.503273], [-71.838779, -35.498867], [-71.847855, -35.498644], [-71.854716, -35.497212], [-71.858402, -35.495421], [-71.860403, -35.496155], [-71.862034, -35.494084], [-71.861964, -35.489983], [-71.863713, -35.487695], [-71.865488, -35.486917], [-71.869485, -35.48738], [-71.871057, -35.486891], [-71.882762, -35.472606], [-71.893893, -35.467481]], [[-70.606712, -35.932255], [-70.608841, -35.931456], [-70.612564, -35.927129], [-70.613744, -35.927068], [-70.61493, -35.924132], [-70.618787, -35.924019], [-70.621308, -35.920991], [-70.623577, -35.920496], [-70.624242, -35.918793], [-70.628298, -35.916451], [-70.62973, -35.914327], [-70.631616, -35.91334], [-70.634875, -35.913245], [-70.638506, -35.911659], [-70.640668, -35.908518], [-70.639982, -35.906654], [-70.640438, -35.904851], [-70.639579, -35.903903], [-70.639896, -35.902335], [-70.641146, -35.901049], [-70.641323, -35.899497], [-70.642444, -35.897968], [-70.645625, -35.895447], [-70.644938, -35.893005], [-70.648431, -35.889289], [-70.650576, -35.88815], [-70.651, -35.88729], [-70.654079, -35.886929], [-70.6577, -35.883983], [-70.660479, -35.883026], [-70.665586, -35.878897], [-70.669234, -35.878058], [-70.673466, -35.875811], [-70.678428, -35.872751], [-70.67977, -35.870534], [-70.682275, -35.869369], [-70.681878, -35.867052], [-70.682961, -35.864974], [-70.681374, -35.862435], [-70.680161, -35.858131], [-70.679909, -35.856727], [-70.680617, -35.854592], [-70.685011, -35.852048], [-70.685863, -35.850144], [-70.689452, -35.850383], [-70.693545, -35.849296], [-70.695659, -35.847948], [-70.698872, -35.847957], [-70.701747, -35.844682], [-70.705205, -35.844789], [-70.707018, -35.842993], [-70.707002, -35.841602], [-70.708477, -35.838671], [-70.710772, -35.836498], [-70.710965, -35.834032], [-70.715225, -35.831936], [-70.715279, -35.8295]], [[-70.558666, -35.975198], [-70.557868, -35.973439], [-70.557899, -35.971282], [-70.559134, -35.966215], [-70.560808, -35.963184], [-70.560197, -35.960232], [-70.562512, -35.95863], [-70.563308, -35.956819], [-70.564853, -35.956063], [-70.566023, -35.953379], [-70.567487, -35.953282]], [[-70.557225, -36.015285], [-70.556553, -36.014201]], [[-71.93411, -35.4651], [-71.941084, -35.469627], [-71.947446, -35.472868]], [[-70.719166, -35.829286], [-70.720728, -35.830362], [-70.723214, -35.830379], [-70.726636, -35.827059], [-70.73183, -35.828658], [-70.736724, -35.828092], [-70.739264, -35.829611], [-70.742608, -35.826515], [-70.74923, -35.824762], [-70.751552, -35.824613], [-70.756596, -35.825864], [-70.759963, -35.82361], [-70.762413, -35.823168], [-70.764828, -35.823751], [-70.76585, -35.822957], [-70.767028, -35.81948], [-70.769523, -35.82025], [-70.771453, -35.818182], [-70.776483, -35.818651], [-70.778741, -35.817967], [-70.780475, -35.819702], [-70.784986, -35.820281], [-70.788322, -35.822589], [-70.791835, -35.823483], [-70.795093, -35.822959], [-70.804224, -35.8234], [-70.808493, -35.820963], [-70.810751, -35.82179], [-70.812998, -35.820541], [-70.82212, -35.818903], [-70.824023, -35.816871], [-70.82478, -35.816771], [-70.825773, -35.818151], [-70.827771, -35.818146], [-70.830045, -35.815212], [-70.831582, -35.815841], [-70.832297, -35.813935], [-70.836966, -35.811588], [-70.83791, -35.810272], [-70.842554, -35.809438], [-70.84488, -35.807999], [-70.848942, -35.808573], [-70.849792, -35.807651], [-70.85861, -35.807315], [-70.861951, -35.80612], [-70.863608, -35.807105], [-70.870171, -35.806942], [-70.874303, -35.806122], [-70.878811, -35.807403], [-70.880954, -35.806333], [-70.88561, -35.806107], [-70.890543, -35.804393], [-70.895872, -35.800729], [-70.898768, -35.800975], [-70.904442, -35.800205], [-70.905827, -35.799478], [-70.907198, -35.797509], [-70.911469, -35.797634], [-70.918717, -35.799222], [-70.919975, -35.799798], [-70.921565, -35.802274], [-70.92403, -35.802367], [-70.925817, -35.801414], [-70.936873, -35.806397], [-70.940588, -35.806455], [-70.944529, -35.808365], [-70.948041, -35.807903], [-70.952727, -35.809491], [-70.959444, -35.807201], [-70.965594, -35.808273], [-70.98438, -35.806413], [-70.986569, -35.804878], [-70.987569, -35.802939], [-70.989042, -35.802439], [-70.990485, -35.799733]], [[-70.556553, -36.014201], [-70.554752, -36.011799], [-70.555653, -36.010638], [-70.5573, -36.010083], [-70.558072, -36.005641], [-70.556157, -36.003059], [-70.557493, -36.002528], [-70.558178, -36.000986], [-70.555838, -35.998357], [-70.556, -35.995777], [-70.555371, -35.993977], [-70.555854, -35.991659], [-70.554357, -35.99104], [-70.554171, -35.989338], [-70.554721, -35.988758], [-70.556783, -35.989382], [-70.557701, -35.988661], [-70.556963, -35.985674], [-70.555569, -35.984665], [-70.555307, -35.983469], [-70.55781, -35.978644], [-70.557788, -35.976888], [-70.55841, -35.975443], [-70.562173, -35.972382], [-70.564028, -35.966796], [-70.563418, -35.965973], [-70.564343, -35.962756], [-70.565923, -35.9611], [-70.567408, -35.960684], [-70.568249, -35.958614], [-70.56992, -35.957417], [-70.568941, -35.95529], [-70.567421, -35.953823], [-70.568434, -35.951431], [-70.571787, -35.950587], [-70.573035, -35.951999], [-70.57487, -35.951156], [-70.582333, -35.950465], [-70.582993, -35.950111], [-70.583708, -35.94747], [-70.586587, -35.945601], [-70.591864, -35.946623], [-70.595602, -35.943943], [-70.601383, -35.941072], [-70.60216, -35.939854], [-70.601841, -35.937949], [-70.604916, -35.935639], [-70.606505, -35.933536], [-70.606712, -35.932255]], [[-71.346644, -35.670186], [-71.351309, -35.664148], [-71.351368, -35.659484], [-71.352505, -35.656647], [-71.35368, -35.655387], [-71.35516, -35.655126], [-71.357574, -35.652257], [-71.358309, -35.650118], [-71.357639, -35.648604], [-71.361211, -35.646647], [-71.360782, -35.644982], [-71.362113, -35.642066], [-71.363717, -35.64159], [-71.365519, -35.639206], [-71.365771, -35.63679], [-71.363942, -35.633595], [-71.364055, -35.631986], [-71.366774, -35.628256], [-71.370347, -35.626932], [-71.37289, -35.624953], [-71.37466, -35.624721], [-71.376275, -35.621146], [-71.378576, -35.620579], [-71.380794, -35.621865], [-71.384456, -35.622245], [-71.388752, -35.621211], [-71.38975, -35.620021], [-71.389879, -35.618399], [-71.391467, -35.616506], [-71.394417, -35.615315], [-71.400248, -35.614535], [-71.403151, -35.611957], [-71.405012, -35.608835], [-71.406554, -35.608017], [-71.407811, -35.608141], [-71.408367, -35.609203], [-71.411557, -35.608325], [-71.414142, -35.60668], [-71.419964, -35.608853]], [[-71.486256, -35.600295], [-71.487603, -35.601132], [-71.488557, -35.60337], [-71.490338, -35.604547], [-71.495231, -35.604805], [-71.498653, -35.607701], [-71.500601, -35.608181], [-71.503921, -35.606214], [-71.506888, -35.60583], [-71.50994, -35.604164], [-71.514446, -35.605564], [-71.517472, -35.605315], [-71.522394, -35.603304], [-71.534252, -35.601307], [-71.537618, -35.599693], [-71.541531, -35.599497]], [[-71.585643, -35.589936], [-71.587585, -35.58877], [-71.588427, -35.586768], [-71.590036, -35.586065], [-71.59238, -35.586449], [-71.596119, -35.585969], [-71.600443, -35.583845], [-71.602439, -35.584342], [-71.603259, -35.585258], [-71.606269, -35.585712], [-71.612438, -35.583247], [-71.614267, -35.581995], [-71.616681, -35.577876], [-71.62019, -35.576358], [-71.623805, -35.576009], [-71.626654, -35.572614], [-71.628161, -35.571755], [-71.633933, -35.573542], [-71.635202, -35.573081], [-71.636336, -35.571323], [-71.638364, -35.5699], [-71.641513, -35.569434], [-71.645257, -35.5699], [-71.647489, -35.568513], [-71.650322, -35.569796], [-71.652709, -35.569233], [-71.656764, -35.565633], [-71.662606, -35.564747], [-71.664714, -35.560418], [-71.666753, -35.559894], [-71.669118, -35.558088], [-71.673818, -35.556957], [-71.682428, -35.556639], [-71.684509, -35.553688], [-71.686145, -35.552947], [-71.695876, -35.553126], [-71.701831, -35.554422], [-71.703247, -35.555207], [-71.703708, -35.556303], [-71.705875, -35.556665], [-71.709405, -35.558633], [-71.713311, -35.563538], [-71.715328, -35.564712], [-71.71853, -35.564446], [-71.72052, -35.562831], [-71.723481, -35.561618], [-71.727709, -35.562229], [-71.731281, -35.5615], [-71.73605, -35.562059], [-71.738534, -35.56414], [-71.741028, -35.570725], [-71.742917, -35.572981], [-71.746548, -35.574216], [-71.750711, -35.573081], [-71.753511, -35.574569], [-71.755518, -35.574748]], [[-71.42357, -35.609696], [-71.431137, -35.612209], [-71.433036, -35.612311], [-71.436633, -35.614112], [-71.44149, -35.613176], [-71.444027, -35.613754], [-71.448485, -35.610627], [-71.453061, -35.60928], [-71.453984, -35.607727], [-71.458943, -35.607886], [-71.461617, -35.607339], [-71.463632, -35.606122], [-71.464428, -35.60429], [-71.466405, -35.602931], [-71.468972, -35.601985], [-71.473414, -35.602323], [-71.478268, -35.599846], [-71.479789, -35.598321], [-71.48293, -35.59848], [-71.483523, -35.599359], [-71.486256, -35.600295]], [[-71.42312, -35.609626], [-71.42357, -35.609696]], [[-71.57427, -35.58713], [-71.576877, -35.588792], [-71.580756, -35.589516], [-71.582301, -35.590724], [-71.585643, -35.589936]], [[-70.992774, -35.796483], [-70.994017, -35.792366], [-70.99332, -35.787119], [-70.993706, -35.785961], [-70.994934, -35.784055], [-71.000554, -35.779472], [-71.000031, -35.776243], [-71.003941, -35.770337], [-71.004553, -35.768243], [-71.004, -35.764056], [-71.007671, -35.758926], [-71.008228, -35.754481], [-71.011532, -35.74907], [-71.011097, -35.746508], [-71.009338, -35.743621], [-71.009595, -35.742611], [-71.010743, -35.741331], [-71.014531, -35.740034], [-71.014359, -35.736041], [-71.017068, -35.734608], [-71.01783, -35.729396], [-71.025954, -35.726667], [-71.027167, -35.725698], [-71.027955, -35.723902], [-71.035232, -35.720855], [-71.040122, -35.716574], [-71.043489, -35.715491], [-71.045553, -35.716396], [-71.054547, -35.715542], [-71.059433, -35.716169], [-71.071302, -35.712691], [-71.075283, -35.712423], [-71.07799, -35.708181], [-71.079712, -35.707237], [-71.086189, -35.707802], [-71.093211, -35.704596], [-71.09581, -35.70465], [-71.09865, -35.706103], [-71.103985, -35.704441], [-71.109729, -35.705613], [-71.113677, -35.70508], [-71.114125, -35.706367], [-71.120648, -35.710468], [-71.122551, -35.714155], [-71.128079, -35.718101], [-71.133417, -35.717942], [-71.136984, -35.718702], [-71.138623, -35.719658], [-71.139532, -35.721457], [-71.141363, -35.722435], [-71.141954, -35.72381], [-71.149458, -35.726667], [-71.150637, -35.727641], [-71.153354, -35.72803], [-71.155186, -35.72761], [-71.16114, -35.72317], [-71.166376, -35.724022], [-71.173559, -35.723124], [-71.176879, -35.724212]], [[-70.992602, -35.796707], [-70.992774, -35.796483]], [[-70.990485, -35.799733], [-70.991587, -35.797418], [-70.992602, -35.796707]], [[-71.420114, -35.608934], [-71.420649, -35.609786], [-71.42312, -35.609626]], [[-71.419964, -35.608853], [-71.420114, -35.608934]], [[-70.715279, -35.8295], [-70.717089, -35.828921], [-70.719079, -35.829253]], [[-70.719079, -35.829253], [-70.719166, -35.829286]], [[-71.541531, -35.599497], [-71.543977, -35.598197], [-71.544299, -35.595327], [-71.546037, -35.593398], [-71.551176, -35.591854], [-71.554577, -35.59154], [-71.555645, -35.590864], [-71.556128, -35.589211], [-71.55778, -35.588081], [-71.562903, -35.588633], [-71.571389, -35.58672], [-71.57427, -35.58713]], [[-70.557225, -36.015285], [-70.556553, -36.014201]], [[-70.556553, -36.014201], [-70.554752, -36.011799], [-70.555653, -36.010638], [-70.5573, -36.010083], [-70.558072, -36.005641], [-70.556157, -36.003059], [-70.557493, -36.002528], [-70.558178, -36.000986], [-70.555838, -35.998357], [-70.556, -35.995777], [-70.555371, -35.993977], [-70.555854, -35.991659], [-70.554357, -35.99104], [-70.554171, -35.989338], [-70.554721, -35.988758], [-70.556783, -35.989382], [-70.557701, -35.988661], [-70.556963, -35.985674], [-70.555569, -35.984665], [-70.555307, -35.983469], [-70.55781, -35.978644], [-70.557788, -35.976888], [-70.55841, -35.975443], [-70.562173, -35.972382], [-70.564028, -35.966796], [-70.563418, -35.965973], [-70.564343, -35.962756], [-70.565923, -35.9611], [-70.567408, -35.960684], [-70.568249, -35.958614], [-70.56992, -35.957417], [-70.568941, -35.95529], [-70.567421, -35.953823], [-70.568434, -35.951431], [-70.571787, -35.950587], [-70.573035, -35.951999], [-70.57487, -35.951156], [-70.582333, -35.950465], [-70.582993, -35.950111], [-70.583708, -35.94747], [-70.586587, -35.945601], [-70.591864, -35.946623], [-70.595602, -35.943943], [-70.601383, -35.941072], [-70.60216, -35.939854], [-70.601841, -35.937949], [-70.604916, -35.935639], [-70.606505, -35.933536], [-70.606712, -35.932255]], [[-70.606712, -35.932255], [-70.608841, -35.931456], [-70.612564, -35.927129], [-70.613744, -35.927068], [-70.61493, -35.924132], [-70.618787, -35.924019], [-70.621308, -35.920991], [-70.623577, -35.920496], [-70.624242, -35.918793], [-70.628298, -35.916451], [-70.62973, -35.914327], [-70.631616, -35.91334], [-70.634875, -35.913245], [-70.638506, -35.911659], [-70.640668, -35.908518], [-70.639982, -35.906654], [-70.640438, -35.904851], [-70.639579, -35.903903], [-70.639896, -35.902335], [-70.641146, -35.901049], [-70.641323, -35.899497], [-70.642444, -35.897968], [-70.645625, -35.895447], [-70.644938, -35.893005], [-70.648431, -35.889289], [-70.650576, -35.88815], [-70.651, -35.88729], [-70.654079, -35.886929], [-70.6577, -35.883983], [-70.660479, -35.883026], [-70.665586, -35.878897], [-70.669234, -35.878058], [-70.673466, -35.875811], [-70.678428, -35.872751], [-70.67977, -35.870534], [-70.682275, -35.869369], [-70.681878, -35.867052], [-70.682961, -35.864974], [-70.681374, -35.862435], [-70.680161, -35.858131], [-70.679909, -35.856727], [-70.680617, -35.854592], [-70.685011, -35.852048], [-70.685863, -35.850144], [-70.689452, -35.850383], [-70.693545, -35.849296], [-70.695659, -35.847948], [-70.698872, -35.847957], [-70.701747, -35.844682], [-70.705205, -35.844789], [-70.707018, -35.842993], [-70.707002, -35.841602], [-70.708477, -35.838671], [-70.710772, -35.836498], [-70.710965, -35.834032], [-70.715225, -35.831936], [-70.715279, -35.8295]], [[-70.715279, -35.8295], [-70.717089, -35.828921], [-70.719079, -35.829253]], [[-70.719079, -35.829253], [-70.719166, -35.829286]], [[-70.719166, -35.829286], [-70.720728, -35.830362], [-70.723214, -35.830379], [-70.726636, -35.827059], [-70.73183, -35.828658], [-70.736724, -35.828092], [-70.739264, -35.829611], [-70.742608, -35.826515], [-70.74923, -35.824762], [-70.751552, -35.824613], [-70.756596, -35.825864], [-70.759963, -35.82361], [-70.762413, -35.823168], [-70.764828, -35.823751], [-70.76585, -35.822957], [-70.767028, -35.81948], [-70.769523, -35.82025], [-70.771453, -35.818182], [-70.776483, -35.818651], [-70.778741, -35.817967], [-70.780475, -35.819702], [-70.784986, -35.820281], [-70.788322, -35.822589], [-70.791835, -35.823483], [-70.795093, -35.822959], [-70.804224, -35.8234], [-70.808493, -35.820963], [-70.810751, -35.82179], [-70.812998, -35.820541], [-70.82212, -35.818903], [-70.824023, -35.816871], [-70.82478, -35.816771], [-70.825773, -35.818151], [-70.827771, -35.818146], [-70.830045, -35.815212], [-70.831582, -35.815841], [-70.832297, -35.813935], [-70.836966, -35.811588], [-70.83791, -35.810272], [-70.842554, -35.809438], [-70.84488, -35.807999], [-70.848942, -35.808573], [-70.849792, -35.807651], [-70.85861, -35.807315], [-70.861951, -35.80612], [-70.863608, -35.807105], [-70.870171, -35.806942], [-70.874303, -35.806122], [-70.878811, -35.807403], [-70.880954, -35.806333], [-70.88561, -35.806107], [-70.890543, -35.804393], [-70.895872, -35.800729], [-70.898768, -35.800975], [-70.904442, -35.800205], [-70.905827, -35.799478], [-70.907198, -35.797509], [-70.911469, -35.797634], [-70.918717, -35.799222], [-70.919975, -35.799798], [-70.921565, -35.802274], [-70.92403, -35.802367], [-70.925817, -35.801414], [-70.936873, -35.806397], [-70.940588, -35.806455], [-70.944529, -35.808365], [-70.948041, -35.807903], [-70.952727, -35.809491], [-70.959444, -35.807201], [-70.965594, -35.808273], [-70.98438, -35.806413], [-70.986569, -35.804878], [-70.987569, -35.802939], [-70.989042, -35.802439], [-70.990485, -35.799733]], [[-70.990485, -35.799733], [-70.991587, -35.797418], [-70.992602, -35.796707]], [[-70.992602, -35.796707], [-70.992774, -35.796483]], [[-70.992774, -35.796483], [-70.994017, -35.792366], [-70.99332, -35.787119], [-70.993706, -35.785961], [-70.994934, -35.784055], [-71.000554, -35.779472], [-71.000031, -35.776243], [-71.003941, -35.770337], [-71.004553, -35.768243], [-71.004, -35.764056], [-71.007671, -35.758926], [-71.008228, -35.754481], [-71.011532, -35.74907], [-71.011097, -35.746508], [-71.009338, -35.743621], [-71.009595, -35.742611], [-71.010743, -35.741331], [-71.014531, -35.740034], [-71.014359, -35.736041], [-71.017068, -35.734608], [-71.01783, -35.729396], [-71.025954, -35.726667], [-71.027167, -35.725698], [-71.027955, -35.723902], [-71.035232, -35.720855], [-71.040122, -35.716574], [-71.043489, -35.715491], [-71.045553, -35.716396], [-71.054547, -35.715542], [-71.059433, -35.716169], [-71.071302, -35.712691], [-71.075283, -35.712423], [-71.07799, -35.708181], [-71.079712, -35.707237], [-71.086189, -35.707802], [-71.093211, -35.704596], [-71.09581, -35.70465], [-71.09865, -35.706103], [-71.103985, -35.704441], [-71.109729, -35.705613], [-71.113677, -35.70508], [-71.114125, -35.706367], [-71.120648, -35.710468], [-71.122551, -35.714155], [-71.128079, -35.718101], [-71.133417, -35.717942], [-71.136984, -35.718702], [-71.138623, -35.719658], [-71.139532, -35.721457], [-71.141363, -35.722435], [-71.141954, -35.72381], [-71.149458, -35.726667], [-71.150637, -35.727641], [-71.153354, -35.72803], [-71.155186, -35.72761], [-71.16114, -35.72317], [-71.166376, -35.724022], [-71.173559, -35.723124], [-71.176879, -35.724212]], [[-71.176879, -35.724212], [-71.179926, -35.724165], [-71.185452, -35.722894], [-71.189475, -35.723138]], [[-71.189475, -35.723138], [-71.194282, -35.727214], [-71.198294, -35.727162], [-71.224923, -35.713974], [-71.232691, -35.70812], [-71.255565, -35.687174], [-71.260114, -35.684176], [-71.270628, -35.680028], [-71.280027, -35.677936], [-71.290326, -35.677797], [-71.316075, -35.681387], [-71.329079, -35.681091], [-71.333992, -35.680132], [-71.336546, -35.678982], [-71.340602, -35.67628], [-71.344319, -35.672284]], [[-71.344319, -35.672284], [-71.344466, -35.672149]], [[-71.344466, -35.672149], [-71.346644, -35.670186]], [[-71.346644, -35.670186], [-71.351309, -35.664148], [-71.351368, -35.659484], [-71.352505, -35.656647], [-71.35368, -35.655387], [-71.35516, -35.655126], [-71.357574, -35.652257], [-71.358309, -35.650118], [-71.357639, -35.648604], [-71.361211, -35.646647], [-71.360782, -35.644982], [-71.362113, -35.642066], [-71.363717, -35.64159], [-71.365519, -35.639206], [-71.365771, -35.63679], [-71.363942, -35.633595], [-71.364055, -35.631986], [-71.366774, -35.628256], [-71.370347, -35.626932], [-71.37289, -35.624953], [-71.37466, -35.624721], [-71.376275, -35.621146], [-71.378576, -35.620579], [-71.380794, -35.621865], [-71.384456, -35.622245], [-71.388752, -35.621211], [-71.38975, -35.620021], [-71.389879, -35.618399], [-71.391467, -35.616506], [-71.394417, -35.615315], [-71.400248, -35.614535], [-71.403151, -35.611957], [-71.405012, -35.608835], [-71.406554, -35.608017], [-71.407811, -35.608141], [-71.408367, -35.609203], [-71.411557, -35.608325], [-71.414142, -35.60668], [-71.419964, -35.608853]], [[-71.419964, -35.608853], [-71.420114, -35.608934]], [[-71.420114, -35.608934], [-71.420649, -35.609786], [-71.42312, -35.609626]], [[-71.42312, -35.609626], [-71.42357, -35.609696]], [[-71.42357, -35.609696], [-71.431137, -35.612209], [-71.433036, -35.612311], [-71.436633, -35.614112], [-71.44149, -35.613176], [-71.444027, -35.613754], [-71.448485, -35.610627], [-71.453061, -35.60928], [-71.453984, -35.607727], [-71.458943, -35.607886], [-71.461617, -35.607339], [-71.463632, -35.606122], [-71.464428, -35.60429], [-71.466405, -35.602931], [-71.468972, -35.601985], [-71.473414, -35.602323], [-71.478268, -35.599846], [-71.479789, -35.598321], [-71.48293, -35.59848], [-71.483523, -35.599359], [-71.486256, -35.600295]], [[-71.486256, -35.600295], [-71.487603, -35.601132], [-71.488557, -35.60337], [-71.490338, -35.604547], [-71.495231, -35.604805], [-71.498653, -35.607701], [-71.500601, -35.608181], [-71.503921, -35.606214], [-71.506888, -35.60583], [-71.50994, -35.604164], [-71.514446, -35.605564], [-71.517472, -35.605315], [-71.522394, -35.603304], [-71.534252, -35.601307], [-71.537618, -35.599693], [-71.541531, -35.599497]], [[-71.541531, -35.599497], [-71.543977, -35.598197], [-71.544299, -35.595327], [-71.546037, -35.593398], [-71.551176, -35.591854], [-71.554577, -35.59154], [-71.555645, -35.590864], [-71.556128, -35.589211], [-71.55778, -35.588081], [-71.562903, -35.588633], [-71.571389, -35.58672], [-71.57427, -35.58713]], [[-71.57427, -35.58713], [-71.576877, -35.588792], [-71.580756, -35.589516], [-71.582301, -35.590724], [-71.585643, -35.589936]], [[-71.585643, -35.589936], [-71.587585, -35.58877], [-71.588427, -35.586768], [-71.590036, -35.586065], [-71.59238, -35.586449], [-71.596119, -35.585969], [-71.600443, -35.583845], [-71.602439, -35.584342], [-71.603259, -35.585258], [-71.606269, -35.585712], [-71.612438, -35.583247], [-71.614267, -35.581995], [-71.616681, -35.577876], [-71.62019, -35.576358], [-71.623805, -35.576009], [-71.626654, -35.572614], [-71.628161, -35.571755], [-71.633933, -35.573542], [-71.635202, -35.573081], [-71.636336, -35.571323], [-71.638364, -35.5699], [-71.641513, -35.569434], [-71.645257, -35.5699], [-71.647489, -35.568513], [-71.650322, -35.569796], [-71.652709, -35.569233], [-71.656764, -35.565633], [-71.662606, -35.564747], [-71.664714, -35.560418], [-71.666753, -35.559894], [-71.669118, -35.558088], [-71.673818, -35.556957], [-71.682428, -35.556639], [-71.684509, -35.553688], [-71.686145, -35.552947], [-71.695876, -35.553126], [-71.701831, -35.554422], [-71.703247, -35.555207], [-71.703708, -35.556303], [-71.705875, -35.556665], [-71.709405, -35.558633], [-71.713311, -35.563538], [-71.715328, -35.564712], [-71.71853, -35.564446], [-71.72052, -35.562831], [-71.723481, -35.561618], [-71.727709, -35.562229], [-71.731281, -35.5615], [-71.73605, -35.562059], [-71.738534, -35.56414], [-71.741028, -35.570725], [-71.742917, -35.572981], [-71.746548, -35.574216], [-71.750711, -35.573081], [-71.753511, -35.574569], [-71.755518, -35.574748]], [[-71.755518, -35.574748], [-71.754429, -35.572854], [-71.754536, -35.57062], [-71.759262, -35.563996], [-71.761842, -35.563189], [-71.764659, -35.564904], [-71.766901, -35.563935], [-71.768108, -35.56239], [-71.76667, -35.558367], [-71.766778, -35.555421], [-71.767582, -35.549176], [-71.769605, -35.545597], [-71.773821, -35.542519], [-71.780484, -35.541773], [-71.784416, -35.538949], [-71.784545, -35.534409], [-71.783429, -35.530026], [-71.783638, -35.52804], [-71.785038, -35.524665], [-71.788353, -35.521085], [-71.790317, -35.520194], [-71.798755, -35.519639], [-71.801652, -35.518705], [-71.803738, -35.515474], [-71.80656, -35.514863], [-71.811275, -35.512701], [-71.81974, -35.50488], [-71.822696, -35.503273], [-71.838779, -35.498867], [-71.847855, -35.498644], [-71.854716, -35.497212], [-71.858402, -35.495421], [-71.860403, -35.496155], [-71.862034, -35.494084], [-71.861964, -35.489983], [-71.863713, -35.487695], [-71.865488, -35.486917], [-71.869485, -35.48738], [-71.871057, -35.486891], [-71.882762, -35.472606], [-71.893893, -35.467481]], [[-71.893893, -35.467481], [-71.897922, -35.467643], [-71.904638, -35.470422], [-71.909401, -35.470841], [-71.914487, -35.469129], [-71.92189, -35.46379], [-71.930666, -35.463632], [-71.934432, -35.465511], [-71.934453, -35.468587], [-71.935408, -35.47002], [-71.940536, -35.47376], [-71.941856, -35.473952], [-71.955171, -35.471654], [-71.959709, -35.469906], [-71.967541, -35.470221], [-71.970019, -35.469688], [-71.972455, -35.467731], [-71.971285, -35.464716], [-71.971747, -35.462217], [-71.974729, -35.46233], [-71.979064, -35.461483], [-71.987658, -35.462741], [-71.989825, -35.460941], [-71.997496, -35.450891], [-71.999281, -35.4498], [-72.006057, -35.449256], [-72.010049, -35.449805], [-72.012752, -35.451048], [-72.01654, -35.449361], [-72.017387, -35.445651], [-72.018524, -35.445078], [-72.024946, -35.44694], [-72.029634, -35.449851], [-72.032054, -35.449606], [-72.032853, -35.446787], [-72.039349, -35.440608], [-72.039483, -35.439187], [-72.038657, -35.437688], [-72.039172, -35.436206], [-72.051108, -35.43168], [-72.052441, -35.431934], [-72.055346, -35.434366], [-72.060447, -35.432421], [-72.062716, -35.428125], [-72.067322, -35.424459], [-72.068306, -35.418853], [-72.070986, -35.41753], [-72.07742, -35.418433], [-72.08493, -35.425106], [-72.092092, -35.433365], [-72.09456, -35.441744], [-72.095965, -35.44271], [-72.100545, -35.442572], [-72.102558, -35.440533], [-72.105085, -35.439187], [-72.114419, -35.436617], [-72.128431, -35.431643], [-72.133474, -35.4313], [-72.143934, -35.432133], [-72.148082, -35.431428], [-72.154748, -35.428151], [-72.154276, -35.425235], [-72.154727, -35.424439], [-72.165994, -35.421005], [-72.172188, -35.421672], [-72.176008, -35.421235], [-72.183719, -35.422829], [-72.187504, -35.422306], [-72.194408, -35.42002], [-72.197578, -35.419915], [-72.201923, -35.41344], [-72.202594, -35.411722], [-72.202645, -35.408537], [-72.205566, -35.406906], [-72.207373, -35.407057], [-72.214004, -35.409707], [-72.224598, -35.409842], [-72.231873, -35.418385], [-72.233799, -35.418254], [-72.241824, -35.414289], [-72.251388, -35.414009], [-72.256688, -35.416453], [-72.258132, -35.418022], [-72.259776, -35.421516], [-72.262369, -35.423111], [-72.266597, -35.423364], [-72.272809, -35.421978], [-72.278366, -35.419522], [-72.281166, -35.417253], [-72.282132, -35.412321], [-72.281123, -35.403244], [-72.283607, -35.399821], [-72.288204, -35.395496], [-72.291133, -35.388901], [-72.293971, -35.386732], [-72.296273, -35.386317], [-72.303139, -35.390913], [-72.305542, -35.39163], [-72.306744, -35.391289], [-72.308375, -35.389347], [-72.30897, -35.387309], [-72.308053, -35.382385], [-72.308235, -35.379892], [-72.309469, -35.378309], [-72.312634, -35.376323], [-72.321078, -35.37306], [-72.334231, -35.372832], [-72.342213, -35.368895], [-72.345711, -35.368169], [-72.354283, -35.368615], [-72.366107, -35.371695], [-72.369014, -35.371468], [-72.371471, -35.370251], [-72.379281, -35.360966], [-72.385397, -35.350048], [-72.388358, -35.346093], [-72.398014, -35.336361], [-72.399559, -35.332939], [-72.400374, -35.326313], [-72.401769, -35.322242], [-72.403915, -35.320728], [-72.408965, -35.31932]], [[-71.885766, -35.463811], [-71.887209, -35.464026], [-71.888034, -35.462477], [-71.889013, -35.462571], [-71.890122, -35.463899], [-71.890524, -35.466031], [-71.893893, -35.467481]], [[-71.93411, -35.4651], [-71.941084, -35.469627], [-71.947446, -35.472868]]]}}