{"type": "Feature", "properties": {"id": "rio-tinguiririca", "name": "Río Tinguiririca", "type": "river", "region": "ohiggins"}, "geometry": {"type": "MultiLineString", "coordinates": [[[-70.404645, -34.964129], [-70.407011, -34.964892], [-70.408754, -34.964567], [-70.412434, -34.965244], [-70.415781, -34.964185], [-70.417556, -34.964537], [-70.440444, -34.959142], [-70.443785, -34.957265], [-70.446168, -34.95722], [-70.448214, -34.955871], [-70.456186, -34.954578], [-70.459204, -34.951723], [-70.462551, -34.951959], [-70.464556, -34.949443], [-70.467475, -34.948022], [-70.468449, -34.945853], [-70.468406, -34.944365], [-70.47366, -34.940679], [-70.480614, -34.940362], [-70.483769, -34.938599], [-70.488745, -34.933852], [-70.490577, -34.934753], [-70.492526, -34.934546], [-70.494069, -34.93118], [-70.493674, -34.928753], [-70.494575, -34.926244], [-70.496948, -34.923399], [-70.505572, -34.916589]], [[-71.43153, -34.307829], [-71.431876, -34.306798], [-71.431296, -34.30427], [-71.430194, -34.302515], [-71.428006, -34.301031], [-71.427156, -34.298441], [-71.428256, -34.296486], [-71.43163, -34.294474], [-71.43385, -34.28716], [-71.435994, -34.283748], [-71.437484, -34.279083], [-71.435424, -34.274294]], [[-70.616716, -34.790856], [-70.61879, -34.791041], [-70.620967, -34.787985], [-70.628441, -34.786654], [-70.632085, -34.784577], [-70.639606, -34.785149], [-70.643586, -34.784397], [-70.645825, -34.782896], [-70.649662, -34.783852], [-70.651647, -34.78193], [-70.653826, -34.781566], [-70.66047, -34.777784], [-70.665995, -34.775764], [-70.669356, -34.770737], [-70.674326, -34.770088], [-70.674392, -34.768952], [-70.678115, -34.768746], [-70.680775, -34.766835], [-70.682356, -34.767446], [-70.683821, -34.766963], [-70.686133, -34.764938], [-70.689248, -34.76415], [-70.690205, -34.762863], [-70.694795, -34.760145], [-70.696332, -34.757961], [-70.700758, -34.757849], [-70.701093, -34.756844], [-70.703137, -34.75636], [-70.705135, -34.756706], [-70.70638, -34.755369], [-70.709767, -34.754461], [-70.715521, -34.7501], [-70.715899, -34.747941], [-70.718529, -34.744171], [-70.721177, -34.743367], [-70.72184, -34.742818], [-70.722064, -34.741157], [-70.724232, -34.740347], [-70.724651, -34.736032], [-70.725792, -34.734956], [-70.727491, -34.734643], [-70.727045, -34.733283], [-70.725123, -34.731952], [-70.725426, -34.731189], [-70.726919, -34.73051], [-70.732696, -34.729331], [-70.735101, -34.72986], [-70.745403, -34.735769], [-70.748646, -34.739155], [-70.751519, -34.740006], [-70.75504, -34.738873], [-70.757178, -34.739252], [-70.759895, -34.738467], [-70.766351, -34.73949], [-70.768835, -34.738467], [-70.772429, -34.739534], [-70.777705, -34.739611], [-70.778882, -34.738478], [-70.779636, -34.736314], [-70.783405, -34.736988], [-70.785347, -34.735558], [-70.791387, -34.735999], [-70.793686, -34.737621], [-70.796408, -34.737929], [-70.800378, -34.734729], [-70.807142, -34.731724], [-70.809545, -34.729452], [-70.810688, -34.729304], [-70.812284, -34.730367], [-70.814719, -34.729571], [-70.818279, -34.727064], [-70.82035, -34.72374], [-70.821909, -34.723352], [-70.823859, -34.723997], [-70.826465, -34.721397], [-70.826151, -34.718773], [-70.827707, -34.716846], [-70.828989, -34.713125], [-70.827891, -34.709745], [-70.828782, -34.708194], [-70.832987, -34.706711], [-70.833214, -34.703991], [-70.834184, -34.702852], [-70.837569, -34.701346], [-70.841686, -34.700707], [-70.842889, -34.6994], [-70.843934, -34.696002], [-70.846478, -34.695361], [-70.848609, -34.693973], [-70.84916, -34.690286], [-70.853751, -34.688897], [-70.855765, -34.686733], [-70.858067, -34.686162], [-70.859158, -34.683928], [-70.858603, -34.68093], [-70.861363, -34.679077], [-70.869096, -34.676157], [-70.871628, -34.676519], [-70.873843, -34.678116], [-70.878434, -34.677548], [-70.881563, -34.67422], [-70.880581, -34.668962], [-70.880914, -34.667607], [-70.882724, -34.665968], [-70.886866, -34.665983], [-70.88826, -34.664986], [-70.888853, -34.662934], [-70.891361, -34.660497], [-70.890897, -34.657823], [-70.891656, -34.656404], [-70.898539, -34.654619], [-70.903983, -34.654668], [-70.905346, -34.65345], [-70.91266, -34.652212], [-70.919141, -34.647556], [-70.924091, -34.647449], [-70.92833, -34.64612], [-70.92995, -34.646303], [-70.931744, -34.647444], [-70.933229, -34.647043], [-70.935652, -34.645383], [-70.938232, -34.641678]], [[-70.54212, -34.878476], [-70.542076, -34.878333]], [[-71.379805, -34.530416], [-71.378195, -34.522237], [-71.374211, -34.520749], [-71.37455, -34.517917], [-71.373464, -34.515157], [-71.374499, -34.511965], [-71.374657, -34.507638], [-71.376532, -34.50342], [-71.375167, -34.498635], [-71.375959, -34.493366], [-71.372656, -34.487514], [-71.372645, -34.485696], [-71.374679, -34.480667], [-71.374326, -34.476902], [-71.375799, -34.47402], [-71.376195, -34.471685], [-71.378352, -34.469113], [-71.378753, -34.467186], [-71.376249, -34.463066], [-71.376104, -34.460804], [-71.378919, -34.45699], [-71.37814, -34.455079], [-71.378567, -34.452654], [-71.380623, -34.449036], [-71.382522, -34.447781], [-71.383029, -34.443726], [-71.387717, -34.440241], [-71.390553, -34.434852], [-71.392561, -34.432813], [-71.39366, -34.430004], [-71.392495, -34.427654], [-71.392924, -34.426479], [-71.395864, -34.424712], [-71.399967, -34.424674], [-71.403906, -34.423729], [-71.404049, -34.421436], [-71.402686, -34.419096], [-71.403381, -34.417009], [-71.403464, -34.412663], [-71.405205, -34.411718], [-71.407289, -34.41168], [-71.4076, -34.410648], [-71.406916, -34.408284], [-71.402519, -34.404496], [-71.402084, -34.403244], [-71.405218, -34.40081], [-71.408519, -34.400084], [-71.410173, -34.400582], [-71.411234, -34.403067], [-71.416195, -34.403232], [-71.417, -34.401759], [-71.416941, -34.397409], [-71.417728, -34.395387], [-71.416774, -34.389911], [-71.417136, -34.387791], [-71.420703, -34.385027], [-71.425957, -34.383883], [-71.428712, -34.381687], [-71.42875, -34.380324], [-71.426741, -34.375438], [-71.427296, -34.374665], [-71.42971, -34.37401], [-71.426223, -34.363954], [-71.426156, -34.361251], [-71.424217, -34.359592], [-71.423645, -34.358107], [-71.424072, -34.356333], [-71.427993, -34.352728], [-71.426779, -34.347035], [-71.427092, -34.345295], [-71.429008, -34.343235], [-71.428732, -34.33862], [-71.428062, -34.337957], [-71.426663, -34.338218], [-71.424673, -34.336263], [-71.424583, -34.334838], [-71.426108, -34.333106], [-71.42635, -34.331138], [-71.425382, -34.330033], [-71.424268, -34.330677], [-71.423394, -34.330447], [-71.422492, -34.327856], [-71.423219, -34.326339], [-71.426413, -34.325951], [-71.427637, -34.325186], [-71.4275, -34.323735], [-71.426038, -34.322651], [-71.425357, -34.321089], [-71.426764, -34.316942], [-71.425823, -34.312067], [-71.427202, -34.310308], [-71.43153, -34.307829]], [[-70.542076, -34.878333], [-70.541633, -34.876914], [-70.542417, -34.873015], [-70.544259, -34.870314], [-70.547235, -34.869063], [-70.546264, -34.867038], [-70.547473, -34.865493], [-70.547366, -34.864086], [-70.549398, -34.862935], [-70.54878, -34.861033], [-70.550866, -34.859744], [-70.552532, -34.857489], [-70.552591, -34.856514], [-70.554073, -34.855269], [-70.552796, -34.849989], [-70.553504, -34.848905], [-70.555049, -34.848244], [-70.552699, -34.842723], [-70.551704, -34.84173], [-70.552142, -34.839863], [-70.553857, -34.837501], [-70.556421, -34.836253], [-70.556633, -34.834446], [-70.555962, -34.833562], [-70.55714, -34.831782], [-70.56244, -34.829255], [-70.561678, -34.826407], [-70.563639, -34.825868], [-70.564268, -34.823143], [-70.568033, -34.819076], [-70.568466, -34.817317], [-70.573542, -34.814805], [-70.580699, -34.81463], [-70.582871, -34.812479], [-70.589739, -34.809203], [-70.591292, -34.807513], [-70.594753, -34.80625], [-70.602282, -34.801405], [-70.605419, -34.796937], [-70.610142, -34.792879], [-70.613554, -34.791758], [-70.614874, -34.790416], [-70.616716, -34.790856]], [[-71.234357, -34.646073], [-71.235831, -34.648118], [-71.240458, -34.648808], [-71.243235, -34.646972], [-71.248097, -34.641818], [-71.25529, -34.640333], [-71.258925, -34.637433], [-71.260715, -34.637049], [-71.26435, -34.637529], [-71.267639, -34.636125], [-71.271298, -34.637261], [-71.27271, -34.635742], [-71.276663, -34.636516], [-71.280635, -34.633464], [-71.28168, -34.633592], [-71.283125, -34.63269], [-71.287734, -34.628538], [-71.293489, -34.626492], [-71.298417, -34.623604], [-71.300663, -34.623823], [-71.306194, -34.627727], [-71.307587, -34.628022], [-71.310559, -34.627334], [-71.31295, -34.62783], [-71.313497, -34.630623], [-71.312901, -34.633964], [-71.31343, -34.635083], [-71.314631, -34.635708], [-71.315684, -34.634995], [-71.321642, -34.633861], [-71.325116, -34.631796], [-71.33065, -34.626702], [-71.334073, -34.624924], [-71.33527, -34.623329], [-71.335624, -34.620946], [-71.334779, -34.616501], [-71.337924, -34.614849], [-71.339691, -34.613162], [-71.339892, -34.609873], [-71.341392, -34.608651], [-71.342578, -34.604332], [-71.344059, -34.602894], [-71.346563, -34.60181], [-71.347122, -34.60006], [-71.351207, -34.598815], [-71.353789, -34.596663], [-71.351674, -34.592322], [-71.347582, -34.588829], [-71.347569, -34.587402], [-71.352318, -34.581524], [-71.352979, -34.579876], [-71.354625, -34.578611], [-71.356968, -34.57159], [-71.362614, -34.569127], [-71.363086, -34.568196], [-71.362512, -34.566038], [-71.366064, -34.563311], [-71.366048, -34.560535], [-71.369164, -34.55592], [-71.368821, -34.552631], [-71.37367, -34.547042], [-71.373448, -34.544092], [-71.375931, -34.538719], [-71.376275, -34.535913], [-71.379472, -34.533041], [-71.379805, -34.530416]], [[-71.008598, -34.606811], [-71.010631, -34.604065], [-71.012484, -34.602921], [-71.01518, -34.603949], [-71.0173, -34.602846], [-71.021811, -34.601831], [-71.022919, -34.60094], [-71.026644, -34.600892], [-71.030134, -34.599913], [-71.032252, -34.598573], [-71.034352, -34.595677], [-71.04208, -34.594266], [-71.043383, -34.593042], [-71.046469, -34.591734], [-71.051496, -34.592856], [-71.053639, -34.594427], [-71.056195, -34.595133], [-71.057301, -34.596283], [-71.06059, -34.595355], [-71.068402, -34.597092], [-71.069492, -34.596528], [-71.069704, -34.595407], [-71.07079, -34.594997], [-71.079057, -34.595952], [-71.082248, -34.59688], [-71.083397, -34.598989], [-71.085686, -34.600672], [-71.090247, -34.601908], [-71.093701, -34.601908], [-71.094841, -34.603329], [-71.096568, -34.604191], [-71.100466, -34.603497], [-71.103188, -34.604389], [-71.106996, -34.607586], [-71.109151, -34.608537], [-71.110986, -34.611553], [-71.117925, -34.612275], [-71.120086, -34.611756], [-71.122036, -34.614396], [-71.125416, -34.615879], [-71.128702, -34.616287], [-71.129925, -34.617489], [-71.130735, -34.619793], [-71.133709, -34.618898], [-71.137454, -34.619281], [-71.144913, -34.623501], [-71.150034, -34.625225], [-71.150261, -34.627101], [-71.151224, -34.628114], [-71.156112, -34.630586], [-71.157889, -34.632541], [-71.161239, -34.634294], [-71.164568, -34.635108], [-71.171362, -34.634338], [-71.179165, -34.636633], [-71.183172, -34.63605], [-71.185065, -34.634759], [-71.187482, -34.635188], [-71.190138, -34.634269], [-71.192627, -34.634329], [-71.195164, -34.635978], [-71.197492, -34.636538], [-71.20441, -34.636969], [-71.207269, -34.6394], [-71.210217, -34.639639], [-71.215475, -34.642432], [-71.216536, -34.643624], [-71.219698, -34.643564], [-71.22156, -34.644209], [-71.226471, -34.643631], [-71.232647, -34.644936], [-71.234357, -34.646073]], [[-70.505572, -34.916589], [-70.505909, -34.916536]], [[-70.505909, -34.916536], [-70.507996, -34.917012], [-70.509372, -34.916613], [-70.510973, -34.914313], [-70.515996, -34.912151], [-70.518327, -34.908548], [-70.521618, -34.907653], [-70.522933, -34.905235], [-70.523772, -34.90509], [-70.5251, -34.906164], [-70.526768, -34.905746], [-70.528383, -34.901951], [-70.528312, -34.900594], [-70.529326, -34.899709], [-70.528702, -34.898547], [-70.532157, -34.895959], [-70.532641, -34.890608], [-70.534751, -34.88834], [-70.538808, -34.886546], [-70.541026, -34.88236], [-70.54212, -34.878476]], [[-70.938232, -34.641678], [-70.939391, -34.640279], [-70.939462, -34.638944], [-70.941385, -34.63747], [-70.944964, -34.637229], [-70.947858, -34.635138], [-70.950022, -34.635073]], [[-70.950022, -34.635073], [-70.955808, -34.632924], [-70.962533, -34.62713], [-70.966396, -34.625035], [-70.971774, -34.623108], [-70.973247, -34.621979], [-70.976564, -34.62129], [-70.982274, -34.616636], [-70.992593, -34.615193], [-70.993985, -34.613482], [-70.996893, -34.612814], [-70.998535, -34.611382], [-71.00079, -34.611504], [-71.002431, -34.609383], [-71.008598, -34.606811]], [[-70.938232, -34.641678], [-70.946158, -34.638639], [-70.950022, -34.635073]], [[-70.91372, -34.651793], [-70.920152, -34.650555], [-70.923454, -34.64909], [-70.930598, -34.648982], [-70.931515, -34.648622], [-70.931744, -34.647444]], [[-70.945261, -34.637114], [-70.949044, -34.636322]], [[-70.942533, -34.637019], [-70.945414, -34.633826], [-70.949282, -34.633348], [-70.951013, -34.631609], [-70.956704, -34.631717]], [[-70.954224, -34.631893], [-70.956777, -34.630931], [-70.95937, -34.627707], [-70.96109, -34.627552], [-70.963204, -34.625323], [-70.964722, -34.624629]], [[-70.938232, -34.641678], [-70.939391, -34.640279], [-70.939462, -34.638944], [-70.941385, -34.63747], [-70.944964, -34.637229], [-70.947858, -34.635138], [-70.950022, -34.635073]], [[-71.379805, -34.530416], [-71.378195, -34.522237], [-71.374211, -34.520749], [-71.37455, -34.517917], [-71.373464, -34.515157], [-71.374499, -34.511965], [-71.374657, -34.507638], [-71.376532, -34.50342], [-71.375167, -34.498635], [-71.375959, -34.493366], [-71.372656, -34.487514], [-71.372645, -34.485696], [-71.374679, -34.480667], [-71.374326, -34.476902], [-71.375799, -34.47402], [-71.376195, -34.471685], [-71.378352, -34.469113], [-71.378753, -34.467186], [-71.376249, -34.463066], [-71.376104, -34.460804], [-71.378919, -34.45699], [-71.37814, -34.455079], [-71.378567, -34.452654], [-71.380623, -34.449036], [-71.382522, -34.447781], [-71.383029, -34.443726], [-71.387717, -34.440241], [-71.390553, -34.434852], [-71.392561, -34.432813], [-71.39366, -34.430004], [-71.392495, -34.427654], [-71.392924, -34.426479], [-71.395864, -34.424712], [-71.399967, -34.424674], [-71.403906, -34.423729], [-71.404049, -34.421436], [-71.402686, -34.419096], [-71.403381, -34.417009], [-71.403464, -34.412663], [-71.405205, -34.411718], [-71.407289, -34.41168], [-71.4076, -34.410648], [-71.406916, -34.408284], [-71.402519, -34.404496], [-71.402084, -34.403244], [-71.405218, -34.40081], [-71.408519, -34.400084], [-71.410173, -34.400582], [-71.411234, -34.403067], [-71.416195, -34.403232], [-71.417, -34.401759], [-71.416941, -34.397409], [-71.417728, -34.395387], [-71.416774, -34.389911], [-71.417136, -34.387791], [-71.420703, -34.385027], [-71.425957, -34.383883], [-71.428712, -34.381687], [-71.42875, -34.380324], [-71.426741, -34.375438], [-71.427296, -34.374665], [-71.42971, -34.37401], [-71.426223, -34.363954], [-71.426156, -34.361251], [-71.424217, -34.359592], [-71.423645, -34.358107], [-71.424072, -34.356333], [-71.427993, -34.352728], [-71.426779, -34.347035], [-71.427092, -34.345295], [-71.429008, -34.343235], [-71.428732, -34.33862], [-71.428062, -34.337957], [-71.426663, -34.338218], [-71.424673, -34.336263], [-71.424583, -34.334838], [-71.426108, -34.333106], [-71.42635, -34.331138], [-71.425382, -34.330033], [-71.424268, -34.330677], [-71.423394, -34.330447], [-71.422492, -34.327856], [-71.423219, -34.326339], [-71.426413, -34.325951], [-71.427637, -34.325186], [-71.4275, -34.323735], [-71.426038, -34.322651], [-71.425357, -34.321089], [-71.426764, -34.316942], [-71.425823, -34.312067], [-71.427202, -34.310308], [-71.43153, -34.307829]], [[-70.616716, -34.790856], [-70.61879, -34.791041], [-70.620967, -34.787985], [-70.628441, -34.786654], [-70.632085, -34.784577], [-70.639606, -34.785149], [-70.643586, -34.784397], [-70.645825, -34.782896], [-70.649662, -34.783852], [-70.651647, -34.78193], [-70.653826, -34.781566], [-70.66047, -34.777784], [-70.665995, -34.775764], [-70.669356, -34.770737], [-70.674326, -34.770088], [-70.674392, -34.768952], [-70.678115, -34.768746], [-70.680775, -34.766835], [-70.682356, -34.767446], [-70.683821, -34.766963], [-70.686133, -34.764938], [-70.689248, -34.76415], [-70.690205, -34.762863], [-70.694795, -34.760145], [-70.696332, -34.757961], [-70.700758, -34.757849], [-70.701093, -34.756844], [-70.703137, -34.75636], [-70.705135, -34.756706], [-70.70638, -34.755369], [-70.709767, -34.754461], [-70.715521, -34.7501], [-70.715899, -34.747941], [-70.718529, -34.744171], [-70.721177, -34.743367], [-70.72184, -34.742818], [-70.722064, -34.741157], [-70.724232, -34.740347], [-70.724651, -34.736032], [-70.725792, -34.734956], [-70.727491, -34.734643], [-70.727045, -34.733283], [-70.725123, -34.731952], [-70.725426, -34.731189], [-70.726919, -34.73051], [-70.732696, -34.729331], [-70.735101, -34.72986], [-70.745403, -34.735769], [-70.748646, -34.739155], [-70.751519, -34.740006], [-70.75504, -34.738873], [-70.757178, -34.739252], [-70.759895, -34.738467], [-70.766351, -34.73949], [-70.768835, -34.738467], [-70.772429, -34.739534], [-70.777705, -34.739611], [-70.778882, -34.738478], [-70.779636, -34.736314], [-70.783405, -34.736988], [-70.785347, -34.735558], [-70.791387, -34.735999], [-70.793686, -34.737621], [-70.796408, -34.737929], [-70.800378, -34.734729], [-70.807142, -34.731724], [-70.809545, -34.729452], [-70.810688, -34.729304], [-70.812284, -34.730367], [-70.814719, -34.729571], [-70.818279, -34.727064], [-70.82035, -34.72374], [-70.821909, -34.723352], [-70.823859, -34.723997], [-70.826465, -34.721397], [-70.826151, -34.718773], [-70.827707, -34.716846], [-70.828989, -34.713125], [-70.827891, -34.709745], [-70.828782, -34.708194], [-70.832987, -34.706711], [-70.833214, -34.703991], [-70.834184, -34.702852], [-70.837569, -34.701346], [-70.841686, -34.700707], [-70.842889, -34.6994], [-70.843934, -34.696002], [-70.846478, -34.695361], [-70.848609, -34.693973], [-70.84916, -34.690286], [-70.853751, -34.688897], [-70.855765, -34.686733], [-70.858067, -34.686162], [-70.859158, -34.683928], [-70.858603, -34.68093], [-70.861363, -34.679077], [-70.869096, -34.676157], [-70.871628, -34.676519], [-70.873843, -34.678116], [-70.878434, -34.677548], [-70.881563, -34.67422], [-70.880581, -34.668962], [-70.880914, -34.667607], [-70.882724, -34.665968], [-70.886866, -34.665983], [-70.88826, -34.664986], [-70.888853, -34.662934], [-70.891361, -34.660497], [-70.890897, -34.657823], [-70.891656, -34.656404], [-70.898539, -34.654619], [-70.903983, -34.654668], [-70.905346, -34.65345], [-70.91266, -34.652212], [-70.919141, -34.647556], [-70.924091, -34.647449], [-70.92833, -34.64612], [-70.92995, -34.646303], [-70.931744, -34.647444], [-70.933229, -34.647043], [-70.935652, -34.645383], [-70.938232, -34.641678]], [[-70.938232, -34.641678], [-70.946158, -34.638639], [-70.950022, -34.635073]], [[-70.950022, -34.635073], [-70.955808, -34.632924], [-70.962533, -34.62713], [-70.966396, -34.625035], [-70.971774, -34.623108], [-70.973247, -34.621979], [-70.976564, -34.62129], [-70.982274, -34.616636], [-70.992593, -34.615193], [-70.993985, -34.613482], [-70.996893, -34.612814], [-70.998535, -34.611382], [-71.00079, -34.611504], [-71.002431, -34.609383], [-71.008598, -34.606811]], [[-71.008598, -34.606811], [-71.010631, -34.604065], [-71.012484, -34.602921], [-71.01518, -34.603949], [-71.0173, -34.602846], [-71.021811, -34.601831], [-71.022919, -34.60094], [-71.026644, -34.600892], [-71.030134, -34.599913], [-71.032252, -34.598573], [-71.034352, -34.595677], [-71.04208, -34.594266], [-71.043383, -34.593042], [-71.046469, -34.591734], [-71.051496, -34.592856], [-71.053639, -34.594427], [-71.056195, -34.595133], [-71.057301, -34.596283], [-71.06059, -34.595355], [-71.068402, -34.597092], [-71.069492, -34.596528], [-71.069704, -34.595407], [-71.07079, -34.594997], [-71.079057, -34.595952], [-71.082248, -34.59688], [-71.083397, -34.598989], [-71.085686, -34.600672], [-71.090247, -34.601908], [-71.093701, -34.601908], [-71.094841, -34.603329], [-71.096568, -34.604191], [-71.100466, -34.603497], [-71.103188, -34.604389], [-71.106996, -34.607586], [-71.109151, -34.608537], [-71.110986, -34.611553], [-71.117925, -34.612275], [-71.120086, -34.611756], [-71.122036, -34.614396], [-71.125416, -34.615879], [-71.128702, -34.616287], [-71.129925, -34.617489], [-71.130735, -34.619793], [-71.133709, -34.618898], [-71.137454, -34.619281], [-71.144913, -34.623501], [-71.150034, -34.625225], [-71.150261, -34.627101], [-71.151224, -34.628114], [-71.156112, -34.630586], [-71.157889, -34.632541], [-71.161239, -34.634294], [-71.164568, -34.635108], [-71.171362, -34.634338], [-71.179165, -34.636633], [-71.183172, -34.63605], [-71.185065, -34.634759], [-71.187482, -34.635188], [-71.190138, -34.634269], [-71.192627, -34.634329], [-71.195164, -34.635978], [-71.197492, -34.636538], [-71.20441, -34.636969], [-71.207269, -34.6394], [-71.210217, -34.639639], [-71.215475, -34.642432], [-71.216536, -34.643624], [-71.219698, -34.643564], [-71.22156, -34.644209], [-71.226471, -34.643631], [-71.232647, -34.644936], [-71.234357, -34.646073]], [[-71.234357, -34.646073], [-71.235831, -34.648118], [-71.240458, -34.648808], [-71.243235, -34.646972], [-71.248097, -34.641818], [-71.25529, -34.640333], [-71.258925, -34.637433], [-71.260715, -34.637049], [-71.26435, -34.637529], [-71.267639, -34.636125], [-71.271298, -34.637261], [-71.27271, -34.635742], [-71.276663, -34.636516], [-71.280635, -34.633464], [-71.28168, -34.633592], [-71.283125, -34.63269], [-71.287734, -34.628538], [-71.293489, -34.626492], [-71.298417, -34.623604], [-71.300663, -34.623823], [-71.306194, -34.627727], [-71.307587, -34.628022], [-71.310559, -34.627334], [-71.31295, -34.62783], [-71.313497, -34.630623], [-71.312901, -34.633964], [-71.31343, -34.635083], [-71.314631, -34.635708], [-71.315684, -34.634995], [-71.321642, -34.633861], [-71.325116, -34.631796], [-71.33065, -34.626702], [-71.334073, -34.624924], [-71.33527, -34.623329], [-71.335624, -34.620946], [-71.334779, -34.616501], [-71.337924, -34.614849], [-71.339691, -34.613162], [-71.339892, -34.609873], [-71.341392, -34.608651], [-71.342578, -34.604332], [-71.344059, -34.602894], [-71.346563, -34.60181], [-71.347122, -34.60006], [-71.351207, -34.598815], [-71.353789, -34.596663], [-71.351674, -34.592322], [-71.347582, -34.588829], [-71.347569, -34.587402], [-71.352318, -34.581524], [-71.352979, -34.579876], [-71.354625, -34.578611], [-71.356968, -34.57159], [-71.362614, -34.569127], [-71.363086, -34.568196], [-71.362512, -34.566038], [-71.366064, -34.563311], [-71.366048, -34.560535], [-71.369164, -34.55592], [-71.368821, -34.552631], [-71.37367, -34.547042], [-71.373448, -34.544092], [-71.375931, -34.538719], [-71.376275, -34.535913], [-71.379472, -34.533041], [-71.379805, -34.530416]], [[-70.542076, -34.878333], [-70.541633, -34.876914], [-70.542417, -34.873015], [-70.544259, -34.870314], [-70.547235, -34.869063], [-70.546264, -34.867038], [-70.547473, -34.865493], [-70.547366, -34.864086], [-70.549398, -34.862935], [-70.54878, -34.861033], [-70.550866, -34.859744], [-70.552532, -34.857489], [-70.552591, -34.856514], [-70.554073, -34.855269], [-70.552796, -34.849989], [-70.553504, -34.848905], [-70.555049, -34.848244], [-70.552699, -34.842723], [-70.551704, -34.84173], [-70.552142, -34.839863], [-70.553857, -34.837501], [-70.556421, -34.836253], [-70.556633, -34.834446], [-70.555962, -34.833562], [-70.55714, -34.831782], [-70.56244, -34.829255], [-70.561678, -34.826407], [-70.563639, -34.825868], [-70.564268, -34.823143], [-70.568033, -34.819076], [-70.568466, -34.817317], [-70.573542, -34.814805], [-70.580699, -34.81463], [-70.582871, -34.812479], [-70.589739, -34.809203], [-70.591292, -34.807513], [-70.594753, -34.80625], [-70.602282, -34.801405], [-70.605419, -34.796937], [-70.610142, -34.792879], [-70.613554, -34.791758], [-70.614874, -34.790416], [-70.616716, -34.790856]], [[-70.54212, -34.878476], [-70.542076, -34.878333]], [[-70.404645, -34.964129], [-70.407011, -34.964892], [-70.408754, -34.964567], [-70.412434, -34.965244], [-70.415781, -34.964185], [-70.417556, -34.964537], [-70.440444, -34.959142], [-70.443785, -34.957265], [-70.446168, -34.95722], [-70.448214, -34.955871], [-70.456186, -34.954578], [-70.459204, -34.951723], [-70.462551, -34.951959], [-70.464556, -34.949443], [-70.467475, -34.948022], [-70.468449, -34.945853], [-70.468406, -34.944365], [-70.47366, -34.940679], [-70.480614, -34.940362], [-70.483769, -34.938599], [-70.488745, -34.933852], [-70.490577, -34.934753], [-70.492526, -34.934546], [-70.494069, -34.93118], [-70.493674, -34.928753], [-70.494575, -34.926244], [-70.496948, -34.923399], [-70.505572, -34.916589]], [[-70.505572, -34.916589], [-70.505909, -34.916536]], [[-70.505909, -34.916536], [-70.507996, -34.917012], [-70.509372, -34.916613], [-70.510973, -34.914313], [-70.515996, -34.912151], [-70.518327, -34.908548], [-70.521618, -34.907653], [-70.522933, -34.905235], [-70.523772, -34.90509], [-70.5251, -34.906164], [-70.526768, -34.905746], [-70.528383, -34.901951], [-70.528312, -34.900594], [-70.529326, -34.899709], [-70.528702, -34.898547], [-70.532157, -34.895959], [-70.532641, -34.890608], [-70.534751, -34.88834], [-70.538808, -34.886546], [-70.541026, -34.88236], [-70.54212, -34.878476]], [[-70.339432, -34.965049], [-70.342657, -34.965193], [-70.345065, -34.966174], [-70.34717, -34.964944], [-70.350075, -34.965161], [-70.358124, -34.970204], [-70.363947, -34.979505], [-70.366817, -34.980084], [-70.373231, -34.979555], [-70.3769, -34.980241], [-70.379858, -34.978969], [-70.38364, -34.978388], [-70.386384, -34.978946], [-70.388191, -34.977961], [-70.38931, -34.978288], [-70.389813, -34.97739], [-70.391378, -34.977511], [-70.391561, -34.976987], [-70.394487, -34.976275], [-70.397481, -34.97416], [-70.398819, -34.972335], [-70.400163, -34.971809], [-70.401117, -34.969583], [-70.403483, -34.967677], [-70.40251, -34.966274], [-70.402998, -34.964629], [-70.404645, -34.964129]]]}}