{"type": "Feature", "properties": {"id": "rio-palena", "name": "Río Palena", "type": "river", "region": "los-lagos"}, "geometry": {"type": "MultiLineString", "coordinates": [[[-71.745544, -43.585435], [-71.748041, -43.589836], [-71.751721, -43.590916], [-71.755219, -43.593947], [-71.773887, -43.596511], [-71.785206, -43.600419], [-71.792683, -43.601574], [-71.802618, -43.60622], [-71.812306, -43.604285], [-71.818153, -43.605963], [-71.81811, -43.609218], [-71.816801, -43.613312], [-71.816791, -43.615899], [-71.817982, -43.618159], [-71.82267, -43.618439], [-71.824698, -43.617747], [-71.829676, -43.614625], [-71.831382, -43.612302], [-71.832551, -43.61179], [-71.840523, -43.615899], [-71.846822, -43.615894], [-71.851402, -43.620303], [-71.854803, -43.621561], [-71.858064, -43.621468], [-71.861803, -43.61958], [-71.864061, -43.62019], [-71.86964, -43.619611], [-71.879983, -43.616819], [-71.883888, -43.616982], [-71.886683, -43.619044], [-71.88914, -43.623891], [-71.892868, -43.626027], [-71.893469, -43.631653], [-71.898759, -43.636658], [-71.901323, -43.638374], [-71.908005, -43.640727], [-71.91171, -43.643369], [-71.916806, -43.645015], [-71.919188, -43.647571], [-71.924573, -43.646466], [-71.930678, -43.646466], [-71.9335, -43.644417], [-71.936397, -43.644937], [-71.939186, -43.647313], [-71.940066, -43.647398], [-71.949271, -43.646544], [-71.95264, -43.645589], [-71.956953, -43.646055]], [[-71.956953, -43.646055], [-71.959416, -43.645801], [-71.961344, -43.644307], [-71.962459, -43.644171], [-71.978543, -43.645578], [-71.988345, -43.643589], [-71.997192, -43.642788], [-72.005432, -43.644521], [-72.013495, -43.648274], [-72.01484, -43.648515], [-72.018036, -43.647701], [-72.023791, -43.648985], [-72.035112, -43.644422], [-72.037985, -43.64444], [-72.043032, -43.645797], [-72.046548, -43.648848], [-72.049097, -43.649746], [-72.059259, -43.651257], [-72.064176, -43.655892], [-72.069977, -43.654582], [-72.073753, -43.655451], [-72.075715, -43.657164], [-72.075864, -43.658845], [-72.075194, -43.660298], [-72.075523, -43.662348], [-72.081071, -43.665978], [-72.093438, -43.669972], [-72.099561, -43.666976], [-72.101734, -43.667205], [-72.104061, -43.671209], [-72.103152, -43.675027], [-72.104093, -43.679725], [-72.103192, -43.680835], [-72.099196, -43.682388], [-72.109047, -43.690498], [-72.111334, -43.691701], [-72.113777, -43.691747], [-72.125261, -43.68932], [-72.127949, -43.690329], [-72.137138, -43.690759], [-72.140959, -43.693467], [-72.142375, -43.695802], [-72.146544, -43.699109], [-72.15199, -43.701197], [-72.152967, -43.702151], [-72.154521, -43.70602], [-72.161759, -43.709437], [-72.165549, -43.712252], [-72.169232, -43.711745], [-72.170283, -43.710755], [-72.171147, -43.707662], [-72.173366, -43.704101], [-72.175738, -43.702314], [-72.177619, -43.702086], [-72.183195, -43.704478], [-72.187221, -43.704985], [-72.189453, -43.705978], [-72.190364, -43.709669], [-72.189643, -43.712631], [-72.193788, -43.715324], [-72.193651, -43.718771], [-72.19445, -43.721658], [-72.197509, -43.724393], [-72.203892, -43.728131], [-72.205802, -43.732344], [-72.211917, -43.733184], [-72.228541, -43.7331], [-72.234035, -43.734755], [-72.240225, -43.739205], [-72.247274, -43.736747], [-72.254208, -43.73696], [-72.257273, -43.738654], [-72.256383, -43.742949], [-72.256613, -43.744278], [-72.257472, -43.744902], [-72.260672, -43.745368], [-72.264204, -43.744469], [-72.265536, -43.743459], [-72.269894, -43.743467], [-72.271756, -43.744837], [-72.271691, -43.746941], [-72.272527, -43.748554], [-72.274754, -43.749362], [-72.276829, -43.749519], [-72.278043, -43.74865], [-72.279784, -43.748644], [-72.284082, -43.750075], [-72.285755, -43.750015], [-72.286629, -43.748492], [-72.28712, -43.746691], [-72.283568, -43.739075], [-72.285204, -43.7333], [-72.283249, -43.723823], [-72.283828, -43.720536], [-72.28945, -43.71396], [-72.290759, -43.710656], [-72.292561, -43.705414], [-72.292002, -43.700198], [-72.295887, -43.697905], [-72.300372, -43.692258], [-72.307281, -43.687805], [-72.311333, -43.686768], [-72.320445, -43.689276], [-72.321845, -43.688547], [-72.325434, -43.683647], [-72.328024, -43.682631], [-72.330036, -43.683015], [-72.33061, -43.685955], [-72.326721, -43.689187], [-72.326378, -43.690366], [-72.329926, -43.696092], [-72.331592, -43.700473], [-72.332466, -43.705717], [-72.331967, -43.71004], [-72.332783, -43.713755], [-72.332461, -43.719268], [-72.334065, -43.72106], [-72.339005, -43.723029], [-72.33833, -43.724595], [-72.339553, -43.728918], [-72.345679, -43.733228], [-72.347063, -43.741398], [-72.351129, -43.747018], [-72.34982, -43.749707], [-72.350228, -43.751683], [-72.352127, -43.755558], [-72.356054, -43.761068], [-72.355238, -43.764965], [-72.356687, -43.772806], [-72.353967, -43.781409], [-72.350399, -43.784708], [-72.350078, -43.785742], [-72.350893, -43.788012], [-72.354112, -43.790459], [-72.35644, -43.795865], [-72.35644, -43.801417], [-72.353007, -43.808982], [-72.358918, -43.81739], [-72.364744, -43.822352], [-72.361927, -43.827188], [-72.362126, -43.831245], [-72.363478, -43.833149], [-72.363328, -43.833908], [-72.357352, -43.837297], [-72.356633, -43.838768], [-72.357405, -43.839944], [-72.357405, -43.841685], [-72.360742, -43.845361], [-72.37161, -43.849021], [-72.374024, -43.855666], [-72.374389, -43.858908], [-72.373735, -43.863503], [-72.371922, -43.868523], [-72.378155, -43.881346], [-72.378899, -43.886555], [-72.37794, -43.890834], [-72.374464, -43.895465], [-72.37499, -43.901325], [-72.376234, -43.902392], [-72.377565, -43.901758], [-72.381159, -43.901812], [-72.387371, -43.903296], [-72.387607, -43.904749], [-72.384185, -43.909271], [-72.383906, -43.911474], [-72.385687, -43.913089], [-72.390171, -43.915424], [-72.397141, -43.921373], [-72.39913, -43.92598], [-72.398036, -43.929882], [-72.398432, -43.931667], [-72.401758, -43.932857], [-72.406774, -43.931001], [-72.410593, -43.933041], [-72.412256, -43.936007], [-72.411451, -43.938202], [-72.40849, -43.940087], [-72.403904, -43.940247], [-72.395938, -43.938775], [-72.392703, -43.939563], [-72.391115, -43.940919], [-72.391099, -43.942143], [-72.393841, -43.944453], [-72.395321, -43.947474], [-72.398593, -43.951251], [-72.399184, -43.953159], [-72.399119, -43.957051], [-72.399822, -43.9587], [-72.402343, -43.96055], [-72.408233, -43.961697], [-72.4211, -43.960628], [-72.424447, -43.961369], [-72.426035, -43.963192], [-72.434712, -43.964762], [-72.438844, -43.964315], [-72.451176, -43.959955], [-72.457377, -43.959955], [-72.459276, -43.961384], [-72.467344, -43.973793], [-72.471507, -43.975507], [-72.477826, -43.97526], [-72.480314, -43.976996], [-72.483156, -43.981012], [-72.497661, -43.985088], [-72.503798, -43.989102], [-72.508427, -43.990974], [-72.512469, -43.991796], [-72.518402, -43.991572], [-72.546082, -43.996157], [-72.549074, -43.997747], [-72.550533, -43.99855], [-72.552464, -44.003242], [-72.552464, -44.010156], [-72.553537, -44.012286], [-72.555468, -44.013613], [-72.558343, -44.013798], [-72.587056, -44.009608], [-72.592807, -44.007771], [-72.598214, -44.004237], [-72.601755, -44.003604], [-72.607527, -44.004931], [-72.611153, -44.010025], [-72.614522, -44.013512], [-72.617955, -44.014886], [-72.62038, -44.014762], [-72.622161, -44.013404], [-72.622976, -44.011074], [-72.622762, -44.00578], [-72.621474, -44.001551], [-72.622397, -43.999452], [-72.624457, -43.999329], [-72.635357, -44.001613], [-72.637203, -44.001196], [-72.638172, -43.999594], [-72.640636, -43.999452], [-72.65276, -44.003048], [-72.659433, -44.003018], [-72.671878, -43.998511], [-72.688142, -43.996834], [-72.692649, -43.99547], [-72.696941, -43.992567], [-72.70016, -43.987488], [-72.703164, -43.984632], [-72.70752, -43.982069], [-72.710631, -43.981035], [-72.718012, -43.979799], [-72.726359, -43.980942], [-72.729321, -43.980247], [-72.73329, -43.977514], [-72.735522, -43.974364], [-72.736273, -43.971677], [-72.735929, -43.969716], [-72.734749, -43.967955], [-72.728269, -43.964866], [-72.728548, -43.963338], [-72.730136, -43.961376], [-72.734277, -43.958549], [-72.743375, -43.959538], [-72.748096, -43.957993], [-72.751508, -43.956093], [-72.757366, -43.948856], [-72.764983, -43.941943], [-72.772729, -43.936488], [-72.77848, -43.934016], [-72.789016, -43.932656], [-72.796161, -43.929565], [-72.796891, -43.927618], [-72.796633, -43.92377], [-72.798479, -43.920447], [-72.801826, -43.918129], [-72.814937, -43.912317], [-72.820601, -43.907354], [-72.823048, -43.903907], [-72.828133, -43.892047], [-72.834281, -43.883503], [-72.836115, -43.881934], [-72.847638, -43.881439], [-72.853518, -43.883171], [-72.856672, -43.885166], [-72.857895, -43.886944], [-72.858002, -43.888661], [-72.855232, -43.894112], [-72.854397, -43.897537], [-72.854698, -43.899207], [-72.856243, -43.900397], [-72.874653, -43.896006], [-72.880447, -43.893223], [-72.884191, -43.889133], [-72.884974, -43.885993], [-72.884352, -43.883418], [-72.882593, -43.881207], [-72.879546, -43.879211], [-72.86783, -43.874587], [-72.867379, -43.873566], [-72.867894, -43.87256], [-72.871284, -43.871422]], [[-72.871284, -43.871422], [-72.888257, -43.870008], [-72.896562, -43.87072], [-72.907846, -43.870604], [-72.913082, -43.869429], [-72.923982, -43.861013], [-72.934005, -43.856363], [-72.946311, -43.852139], [-72.947427, -43.846869], [-72.951019, -43.841131], [-72.953722, -43.829016], [-72.954605, -43.82719], [-72.962737, -43.814123], [-72.967887, -43.807759], [-72.969947, -43.803593], [-72.971449, -43.795633], [-72.971384, -43.784774], [-72.976642, -43.768862]], [[-72.570164, -44.011796], [-72.576993, -44.013543], [-72.582314, -44.012139], [-72.584825, -44.010086]], [[-71.436785, -43.585687], [-71.438717, -43.584634], [-71.441131, -43.582085], [-71.4429, -43.577233], [-71.448619, -43.576979], [-71.449832, -43.576077], [-71.450433, -43.574904], [-71.449037, -43.574108], [-71.448496, -43.571274], [-71.451709, -43.570197], [-71.455926, -43.571122], [-71.456264, -43.567542], [-71.4571, -43.565937], [-71.458522, -43.5646], [-71.461553, -43.564619], [-71.463232, -43.563815], [-71.465287, -43.560464], [-71.463007, -43.555173], [-71.467411, -43.554267], [-71.469407, -43.552378], [-71.472856, -43.55076], [-71.476793, -43.551009], [-71.481745, -43.552358], [-71.482222, -43.550858], [-71.479017, -43.546692], [-71.479148, -43.545593], [-71.482914, -43.546577], [-71.485242, -43.544376], [-71.487109, -43.543571], [-71.489067, -43.54508], [-71.490875, -43.545476], [-71.493659, -43.54123], [-71.496368, -43.541059], [-71.500472, -43.537167], [-71.50858, -43.533822], [-71.509497, -43.532342], [-71.509962, -43.529568], [-71.510702, -43.529023], [-71.511973, -43.529042], [-71.514687, -43.530925], [-71.527036, -43.534024], [-71.532379, -43.532632], [-71.537674, -43.533406], [-71.54012, -43.535164], [-71.539659, -43.536226], [-71.542985, -43.537917], [-71.547813, -43.53411], [-71.54939, -43.530551], [-71.552415, -43.530054], [-71.556932, -43.526382], [-71.559341, -43.525799], [-71.561476, -43.525857], [-71.565349, -43.527273], [-71.569153, -43.525203], [-71.575413, -43.525643], [-71.575831, -43.527296], [-71.573192, -43.528768], [-71.572734, -43.530492], [-71.573251, -43.53117], [-71.577982, -43.530995], [-71.581002, -43.529182], [-71.584613, -43.529373], [-71.588931, -43.531356], [-71.593083, -43.529598], [-71.596951, -43.529478]], [[-71.596951, -43.529478], [-71.602567, -43.527109], [-71.606644, -43.527903], [-71.60989, -43.525709], [-71.621434, -43.528272], [-71.624339, -43.529826], [-71.628306, -43.527897], [-71.633276, -43.527638], [-71.63565, -43.528591], [-71.640046, -43.526145], [-71.647725, -43.524225], [-71.653363, -43.525674], [-71.657317, -43.524764], [-71.66458, -43.525849], [-71.67227, -43.53159], [-71.671951, -43.533371], [-71.670202, -43.535448], [-71.673088, -43.538018], [-71.672074, -43.545204], [-71.672745, -43.547343], [-71.672444, -43.550414], [-71.674923, -43.553206], [-71.684418, -43.556308], [-71.687062, -43.555908], [-71.690496, -43.553735], [-71.69704, -43.554936], [-71.698065, -43.554135], [-71.698692, -43.549012], [-71.699333, -43.548561], [-71.701988, -43.548826], [-71.705368, -43.549548], [-71.707943, -43.551165], [-71.712921, -43.552534], [-71.717727, -43.555519], [-71.721676, -43.55527], [-71.723564, -43.556141], [-71.725452, -43.558629], [-71.7294, -43.560744], [-71.734105, -43.562085], [-71.73505, -43.561907], [-71.735535, -43.560769], [-71.738618, -43.560673], [-71.739944, -43.5614], [-71.741398, -43.563772], [-71.747288, -43.569354], [-71.750335, -43.574422], [-71.749788, -43.57509], [-71.746848, -43.575821], [-71.746923, -43.577702], [-71.74481, -43.579412], [-71.745544, -43.585435]], [[-71.956953, -43.646055], [-71.959416, -43.645801], [-71.961344, -43.644307], [-71.962459, -43.644171], [-71.978543, -43.645578], [-71.988345, -43.643589], [-71.997192, -43.642788], [-72.005432, -43.644521], [-72.013495, -43.648274], [-72.01484, -43.648515], [-72.018036, -43.647701], [-72.023791, -43.648985], [-72.035112, -43.644422], [-72.037985, -43.64444], [-72.043032, -43.645797], [-72.046548, -43.648848], [-72.049097, -43.649746], [-72.059259, -43.651257], [-72.064176, -43.655892], [-72.069977, -43.654582], [-72.073753, -43.655451], [-72.075715, -43.657164], [-72.075864, -43.658845], [-72.075194, -43.660298], [-72.075523, -43.662348], [-72.081071, -43.665978], [-72.093438, -43.669972], [-72.099561, -43.666976], [-72.101734, -43.667205], [-72.104061, -43.671209], [-72.103152, -43.675027], [-72.104093, -43.679725], [-72.103192, -43.680835], [-72.099196, -43.682388], [-72.109047, -43.690498], [-72.111334, -43.691701], [-72.113777, -43.691747], [-72.125261, -43.68932], [-72.127949, -43.690329], [-72.137138, -43.690759], [-72.140959, -43.693467], [-72.142375, -43.695802], [-72.146544, -43.699109], [-72.15199, -43.701197], [-72.152967, -43.702151], [-72.154521, -43.70602], [-72.161759, -43.709437], [-72.165549, -43.712252], [-72.169232, -43.711745], [-72.170283, -43.710755], [-72.171147, -43.707662], [-72.173366, -43.704101], [-72.175738, -43.702314], [-72.177619, -43.702086], [-72.183195, -43.704478], [-72.187221, -43.704985], [-72.189453, -43.705978], [-72.190364, -43.709669], [-72.189643, -43.712631], [-72.193788, -43.715324], [-72.193651, -43.718771], [-72.19445, -43.721658], [-72.197509, -43.724393], [-72.203892, -43.728131], [-72.205802, -43.732344], [-72.211917, -43.733184], [-72.228541, -43.7331], [-72.234035, -43.734755], [-72.240225, -43.739205], [-72.247274, -43.736747], [-72.254208, -43.73696], [-72.257273, -43.738654], [-72.256383, -43.742949], [-72.256613, -43.744278], [-72.257472, -43.744902], [-72.260672, -43.745368], [-72.264204, -43.744469], [-72.265536, -43.743459], [-72.269894, -43.743467], [-72.271756, -43.744837], [-72.271691, -43.746941], [-72.272527, -43.748554], [-72.274754, -43.749362], [-72.276829, -43.749519], [-72.278043, -43.74865], [-72.279784, -43.748644], [-72.284082, -43.750075], [-72.285755, -43.750015], [-72.286629, -43.748492], [-72.28712, -43.746691], [-72.283568, -43.739075], [-72.285204, -43.7333], [-72.283249, -43.723823], [-72.283828, -43.720536], [-72.28945, -43.71396], [-72.290759, -43.710656], [-72.292561, -43.705414], [-72.292002, -43.700198], [-72.295887, -43.697905], [-72.300372, -43.692258], [-72.307281, -43.687805], [-72.311333, -43.686768], [-72.320445, -43.689276], [-72.321845, -43.688547], [-72.325434, -43.683647], [-72.328024, -43.682631], [-72.330036, -43.683015], [-72.33061, -43.685955], [-72.326721, -43.689187], [-72.326378, -43.690366], [-72.329926, -43.696092], [-72.331592, -43.700473], [-72.332466, -43.705717], [-72.331967, -43.71004], [-72.332783, -43.713755], [-72.332461, -43.719268], [-72.334065, -43.72106], [-72.339005, -43.723029], [-72.33833, -43.724595], [-72.339553, -43.728918], [-72.345679, -43.733228], [-72.347063, -43.741398], [-72.351129, -43.747018], [-72.34982, -43.749707], [-72.350228, -43.751683], [-72.352127, -43.755558], [-72.356054, -43.761068], [-72.355238, -43.764965], [-72.356687, -43.772806], [-72.353967, -43.781409], [-72.350399, -43.784708], [-72.350078, -43.785742], [-72.350893, -43.788012], [-72.354112, -43.790459], [-72.35644, -43.795865], [-72.35644, -43.801417], [-72.353007, -43.808982], [-72.358918, -43.81739], [-72.364744, -43.822352], [-72.361927, -43.827188], [-72.362126, -43.831245], [-72.363478, -43.833149], [-72.363328, -43.833908], [-72.357352, -43.837297], [-72.356633, -43.838768], [-72.357405, -43.839944], [-72.357405, -43.841685], [-72.360742, -43.845361], [-72.37161, -43.849021], [-72.374024, -43.855666], [-72.374389, -43.858908], [-72.373735, -43.863503], [-72.371922, -43.868523], [-72.378155, -43.881346], [-72.378899, -43.886555], [-72.37794, -43.890834], [-72.374464, -43.895465], [-72.37499, -43.901325], [-72.376234, -43.902392], [-72.377565, -43.901758], [-72.381159, -43.901812], [-72.387371, -43.903296], [-72.387607, -43.904749], [-72.384185, -43.909271], [-72.383906, -43.911474], [-72.385687, -43.913089], [-72.390171, -43.915424], [-72.397141, -43.921373], [-72.39913, -43.92598], [-72.398036, -43.929882], [-72.398432, -43.931667], [-72.401758, -43.932857], [-72.406774, -43.931001], [-72.410593, -43.933041], [-72.412256, -43.936007], [-72.411451, -43.938202], [-72.40849, -43.940087], [-72.403904, -43.940247], [-72.395938, -43.938775], [-72.392703, -43.939563], [-72.391115, -43.940919], [-72.391099, -43.942143], [-72.393841, -43.944453], [-72.395321, -43.947474], [-72.398593, -43.951251], [-72.399184, -43.953159], [-72.399119, -43.957051], [-72.399822, -43.9587], [-72.402343, -43.96055], [-72.408233, -43.961697], [-72.4211, -43.960628], [-72.424447, -43.961369], [-72.426035, -43.963192], [-72.434712, -43.964762], [-72.438844, -43.964315], [-72.451176, -43.959955], [-72.457377, -43.959955], [-72.459276, -43.961384], [-72.467344, -43.973793], [-72.471507, -43.975507], [-72.477826, -43.97526], [-72.480314, -43.976996], [-72.483156, -43.981012], [-72.497661, -43.985088], [-72.503798, -43.989102], [-72.508427, -43.990974], [-72.512469, -43.991796], [-72.518402, -43.991572], [-72.546082, -43.996157], [-72.549074, -43.997747], [-72.550533, -43.99855], [-72.552464, -44.003242], [-72.552464, -44.010156], [-72.553537, -44.012286], [-72.555468, -44.013613], [-72.558343, -44.013798], [-72.587056, -44.009608], [-72.592807, -44.007771], [-72.598214, -44.004237], [-72.601755, -44.003604], [-72.607527, -44.004931], [-72.611153, -44.010025], [-72.614522, -44.013512], [-72.617955, -44.014886], [-72.62038, -44.014762], [-72.622161, -44.013404], [-72.622976, -44.011074], [-72.622762, -44.00578], [-72.621474, -44.001551], [-72.622397, -43.999452], [-72.624457, -43.999329], [-72.635357, -44.001613], [-72.637203, -44.001196], [-72.638172, -43.999594], [-72.640636, -43.999452], [-72.65276, -44.003048], [-72.659433, -44.003018], [-72.671878, -43.998511], [-72.688142, -43.996834], [-72.692649, -43.99547], [-72.696941, -43.992567], [-72.70016, -43.987488], [-72.703164, -43.984632], [-72.70752, -43.982069], [-72.710631, -43.981035], [-72.718012, -43.979799], [-72.726359, -43.980942], [-72.729321, -43.980247], [-72.73329, -43.977514], [-72.735522, -43.974364], [-72.736273, -43.971677], [-72.735929, -43.969716], [-72.734749, -43.967955], [-72.728269, -43.964866], [-72.728548, -43.963338], [-72.730136, -43.961376], [-72.734277, -43.958549], [-72.743375, -43.959538], [-72.748096, -43.957993], [-72.751508, -43.956093], [-72.757366, -43.948856], [-72.764983, -43.941943], [-72.772729, -43.936488], [-72.77848, -43.934016], [-72.789016, -43.932656], [-72.796161, -43.929565], [-72.796891, -43.927618], [-72.796633, -43.92377], [-72.798479, -43.920447], [-72.801826, -43.918129], [-72.814937, -43.912317], [-72.820601, -43.907354], [-72.823048, -43.903907], [-72.828133, -43.892047], [-72.834281, -43.883503], [-72.836115, -43.881934], [-72.847638, -43.881439], [-72.853518, -43.883171], [-72.856672, -43.885166], [-72.857895, -43.886944], [-72.858002, -43.888661], [-72.855232, -43.894112], [-72.854397, -43.897537], [-72.854698, -43.899207], [-72.856243, -43.900397], [-72.874653, -43.896006], [-72.880447, -43.893223], [-72.884191, -43.889133], [-72.884974, -43.885993], [-72.884352, -43.883418], [-72.882593, -43.881207], [-72.879546, -43.879211], [-72.86783, -43.874587], [-72.867379, -43.873566], [-72.867894, -43.87256], [-72.871284, -43.871422]], [[-72.871284, -43.871422], [-72.888257, -43.870008], [-72.896562, -43.87072], [-72.907846, -43.870604], [-72.913082, -43.869429], [-72.923982, -43.861013], [-72.934005, -43.856363], [-72.946311, -43.852139], [-72.947427, -43.846869], [-72.951019, -43.841131], [-72.953722, -43.829016], [-72.954605, -43.82719], [-72.962737, -43.814123], [-72.967887, -43.807759], [-72.969947, -43.803593], [-72.971449, -43.795633], [-72.971384, -43.784774], [-72.976642, -43.768862]], [[-71.745544, -43.585435], [-71.748041, -43.589836], [-71.751721, -43.590916], [-71.755219, -43.593947], [-71.773887, -43.596511], [-71.785206, -43.600419], [-71.792683, -43.601574], [-71.802618, -43.60622], [-71.812306, -43.604285], [-71.818153, -43.605963], [-71.81811, -43.609218], [-71.816801, -43.613312], [-71.816791, -43.615899], [-71.817982, -43.618159], [-71.82267, -43.618439], [-71.824698, -43.617747], [-71.829676, -43.614625], [-71.831382, -43.612302], [-71.832551, -43.61179], [-71.840523, -43.615899], [-71.846822, -43.615894], [-71.851402, -43.620303], [-71.854803, -43.621561], [-71.858064, -43.621468], [-71.861803, -43.61958], [-71.864061, -43.62019], [-71.86964, -43.619611], [-71.879983, -43.616819], [-71.883888, -43.616982], [-71.886683, -43.619044], [-71.88914, -43.623891], [-71.892868, -43.626027], [-71.893469, -43.631653], [-71.898759, -43.636658], [-71.901323, -43.638374], [-71.908005, -43.640727], [-71.91171, -43.643369], [-71.916806, -43.645015], [-71.919188, -43.647571], [-71.924573, -43.646466], [-71.930678, -43.646466], [-71.9335, -43.644417], [-71.936397, -43.644937], [-71.939186, -43.647313], [-71.940066, -43.647398], [-71.949271, -43.646544], [-71.95264, -43.645589], [-71.956953, -43.646055]], [[-71.228524, -43.738904], [-71.228551, -43.7377], [-71.232661, -43.736824], [-71.241501, -43.731443], [-71.240985, -43.730296], [-71.238501, -43.730058], [-71.235939, -43.727895], [-71.231512, -43.728315], [-71.229273, -43.727545], [-71.228848, -43.726338], [-71.229286, -43.725601], [-71.232919, -43.725237], [-71.23401, -43.724015], [-71.233561, -43.719656], [-71.242169, -43.716615], [-71.247422, -43.716596], [-71.248389, -43.714357], [-71.249899, -43.713854], [-71.251242, -43.715645], [-71.250545, -43.718518], [-71.252325, -43.718704], [-71.252119, -43.71696], [-71.253642, -43.716839], [-71.255675, -43.721817], [-71.257081, -43.721845], [-71.259301, -43.720782], [-71.262682, -43.721043], [-71.262992, -43.720278], [-71.261056, -43.719374], [-71.261211, -43.718833], [-71.266063, -43.71998], [-71.266476, -43.71956], [-71.266115, -43.717406], [-71.271083, -43.716921], [-71.272748, -43.714066], [-71.276426, -43.714523], [-71.278594, -43.713833], [-71.278878, -43.712658], [-71.276478, -43.712658], [-71.276813, -43.711343], [-71.280091, -43.710783], [-71.284324, -43.70846], [-71.285511, -43.709169], [-71.284866, -43.711454], [-71.285615, -43.711883], [-71.286195, -43.710344], [-71.288776, -43.707863], [-71.289228, -43.706118], [-71.295035, -43.706398], [-71.29572, -43.704588], [-71.294829, -43.701957], [-71.29519, -43.701491], [-71.299533, -43.701826], [-71.308804, -43.699121], [-71.309443, -43.698185], [-71.307417, -43.697432], [-71.307107, -43.69668], [-71.310538, -43.695255], [-71.310739, -43.693131], [-71.319463, -43.690716], [-71.319682, -43.690161], [-71.318313, -43.689092], [-71.318715, -43.688327], [-71.324062, -43.686413], [-71.329701, -43.68743], [-71.333206, -43.687086], [-71.335742, -43.688235], [-71.335688, -43.689911], [-71.336472, -43.690834], [-71.340707, -43.690531], [-71.345689, -43.691098], [-71.358629, -43.694041], [-71.361056, -43.694094], [-71.365725, -43.696917], [-71.367043, -43.699206], [-71.368647, -43.699162], [-71.370925, -43.700902], [-71.373841, -43.701575], [-71.376749, -43.704104], [-71.375984, -43.705019], [-71.376263, -43.705728], [-71.380525, -43.705981], [-71.383655, -43.707179], [-71.385161, -43.706695], [-71.390283, -43.70176], [-71.392716, -43.700765], [-71.396307, -43.697473], [-71.397625, -43.695527], [-71.397276, -43.692814], [-71.399517, -43.69125], [-71.401062, -43.687618], [-71.406081, -43.683401], [-71.40538, -43.681627], [-71.40342, -43.681489], [-71.401843, -43.679184], [-71.403215, -43.677632], [-71.401254, -43.675953], [-71.401705, -43.674242], [-71.401074, -43.672319], [-71.402249, -43.669787], [-71.400646, -43.666044], [-71.402389, -43.661923], [-71.400672, -43.659024], [-71.403295, -43.65439], [-71.408451, -43.651653], [-71.408735, -43.650904], [-71.408107, -43.649662], [-71.41168, -43.647791], [-71.409373, -43.646196], [-71.407045, -43.64125], [-71.403494, -43.637981], [-71.401863, -43.632604], [-71.402818, -43.629983], [-71.400951, -43.627242], [-71.402668, -43.626011], [-71.406418, -43.618815], [-71.409609, -43.617378], [-71.411954, -43.614252], [-71.412646, -43.612516], [-71.412007, -43.60829], [-71.419369, -43.605576], [-71.419106, -43.603131], [-71.417791, -43.60181], [-71.417982, -43.600529], [-71.421063, -43.597251], [-71.422843, -43.597855], [-71.42469, -43.596093], [-71.426616, -43.59606], [-71.430379, -43.597659], [-71.430593, -43.594404], [-71.433759, -43.593441], [-71.434705, -43.591614], [-71.43457, -43.590031], [-71.436785, -43.585687]], [[-71.365831, -43.897594], [-71.365759, -43.896819], [-71.367333, -43.894499], [-71.370102, -43.893946], [-71.371715, -43.892858], [-71.371715, -43.891486], [-71.370785, -43.890579], [-71.368818, -43.890156], [-71.365527, -43.891728], [-71.360094, -43.889714], [-71.357106, -43.890216], [-71.357048, -43.887012], [-71.353389, -43.886054], [-71.352143, -43.885146], [-71.348814, -43.885076], [-71.348388, -43.883904], [-71.349649, -43.882241], [-71.348836, -43.881608], [-71.346339, -43.881943], [-71.346365, -43.879822], [-71.345804, -43.879227], [-71.343287, -43.879948], [-71.341945, -43.879525], [-71.341648, -43.878464], [-71.34341, -43.877222], [-71.343461, -43.876329], [-71.341829, -43.875962], [-71.340041, -43.876469], [-71.339474, -43.875748], [-71.34008, -43.874701], [-71.342113, -43.873915], [-71.341693, -43.873092], [-71.337338, -43.873385], [-71.327614, -43.871478], [-71.325626, -43.869561], [-71.32593, -43.868682], [-71.327633, -43.868128], [-71.327511, -43.867533], [-71.320974, -43.868291], [-71.320768, -43.866407], [-71.318083, -43.86697], [-71.314967, -43.865054], [-71.314947, -43.863876], [-71.314341, -43.86349], [-71.312185, -43.863849], [-71.310597, -43.865996], [-71.309639, -43.866371], [-71.303005, -43.867266], [-71.299647, -43.866614], [-71.295595, -43.86793], [-71.29304, -43.870713], [-71.290877, -43.875798], [-71.286634, -43.878455], [-71.28553, -43.880646], [-71.281852, -43.882238], [-71.277992, -43.881257], [-71.275729, -43.879317], [-71.276085, -43.875857], [-71.273795, -43.872239], [-71.268119, -43.869595], [-71.265354, -43.869285], [-71.261758, -43.870108], [-71.256849, -43.867022], [-71.256977, -43.866285], [-71.259824, -43.8652], [-71.259687, -43.863818], [-71.257241, -43.862154], [-71.254111, -43.862377], [-71.25141, -43.861318], [-71.251465, -43.860522], [-71.255225, -43.858166], [-71.254942, -43.855541], [-71.25705, -43.853554], [-71.253901, -43.850119], [-71.253865, -43.849322], [-71.254723, -43.848928], [-71.257187, -43.849428], [-71.257643, -43.848335], [-71.256767, -43.846275], [-71.255024, -43.846604], [-71.25194, -43.845644], [-71.251255, -43.843202], [-71.258336, -43.843485], [-71.258738, -43.842879], [-71.257971, -43.841556], [-71.255307, -43.842011], [-71.25329, -43.841194], [-71.25068, -43.841918], [-71.249348, -43.840721], [-71.252149, -43.838917], [-71.251638, -43.837561], [-71.250251, -43.837331], [-71.248892, -43.838279], [-71.244664, -43.83845], [-71.244073, -43.837686], [-71.245124, -43.835973], [-71.243449, -43.836109], [-71.240151, -43.834548], [-71.23789, -43.834754], [-71.234437, -43.83284], [-71.234245, -43.831911], [-71.235732, -43.831343], [-71.235187, -43.830565], [-71.237687, -43.830132], [-71.23847, -43.828092], [-71.237574, -43.826595], [-71.23391, -43.827946], [-71.233822, -43.824394], [-71.23292, -43.823093], [-71.232004, -43.822934], [-71.231129, -43.824858], [-71.227944, -43.826676], [-71.223583, -43.827568], [-71.220566, -43.824049], [-71.219431, -43.824142], [-71.219489, -43.82519], [-71.21876, -43.825315], [-71.215456, -43.821963], [-71.213236, -43.822531], [-71.21058, -43.820534], [-71.210192, -43.818262], [-71.212433, -43.817393], [-71.212875, -43.816185], [-71.212725, -43.814809], [-71.211114, -43.813831], [-71.213147, -43.812197], [-71.212557, -43.81137], [-71.210521, -43.812083], [-71.209304, -43.811338], [-71.210463, -43.808646], [-71.212053, -43.807384], [-71.212163, -43.805831], [-71.215883, -43.804576], [-71.217247, -43.803419], [-71.223486, -43.805148], [-71.224317, -43.806887], [-71.224855, -43.80341], [-71.227812, -43.803502], [-71.228441, -43.804134], [-71.228314, -43.805115], [-71.226087, -43.806347], [-71.225813, -43.807144], [-71.230385, -43.807815], [-71.235988, -43.806683], [-71.235486, -43.804365], [-71.23618, -43.803673], [-71.239685, -43.803671], [-71.243098, -43.805456], [-71.244677, -43.808999], [-71.244385, -43.81046], [-71.245307, -43.811218], [-71.246456, -43.810908], [-71.248984, -43.808531], [-71.251585, -43.808715], [-71.252443, -43.804843], [-71.255509, -43.805739], [-71.255682, -43.802749], [-71.259807, -43.800345], [-71.264516, -43.7991], [-71.263822, -43.796808], [-71.264342, -43.793982], [-71.263868, -43.792256], [-71.264634, -43.789522], [-71.264005, -43.787816], [-71.267272, -43.785306], [-71.268768, -43.781004], [-71.267272, -43.778125], [-71.267746, -43.772643], [-71.265839, -43.769348], [-71.262143, -43.769111], [-71.258456, -43.771062], [-71.255116, -43.769249], [-71.249933, -43.769987], [-71.247561, -43.771404], [-71.245746, -43.77163], [-71.241572, -43.766669], [-71.240629, -43.761804], [-71.237526, -43.757787], [-71.235383, -43.75245], [-71.233557, -43.751802], [-71.231699, -43.752856], [-71.230292, -43.7528], [-71.228737, -43.751742], [-71.227189, -43.751798], [-71.224827, -43.750031], [-71.225885, -43.742568], [-71.228757, -43.740573], [-71.228524, -43.738904]], [[-71.42525, -43.89875], [-71.421165, -43.895364], [-71.414353, -43.894815], [-71.411992, -43.896717], [-71.407722, -43.898683], [-71.405469, -43.902963], [-71.400405, -43.907539], [-71.398603, -43.907354], [-71.398002, -43.905127], [-71.395835, -43.903098], [-71.394954, -43.903087], [-71.393217, -43.904752], [-71.391821, -43.9025], [-71.394579, -43.899183], [-71.394129, -43.898042], [-71.398903, -43.888335], [-71.398002, -43.885351], [-71.395932, -43.884074], [-71.39496, -43.884422], [-71.393574, -43.886501], [-71.389032, -43.889529], [-71.386866, -43.892147], [-71.378728, -43.894502], [-71.377008, -43.89564], [-71.375857, -43.898618], [-71.374251, -43.900349], [-71.372588, -43.900262], [-71.368991, -43.897428], [-71.367188, -43.898541], [-71.365831, -43.897594]]]}}