{"type": "Feature", "properties": {"id": "rio-las-lenas", "name": "Río Las Leñas", "type": "river", "region": "ohiggins"}, "geometry": {"type": "MultiLineString", "coordinates": [[[-70.234863, -34.407536], [-70.238085, -34.407299], [-70.240424, -34.405723], [-70.244007, -34.405935], [-70.246218, -34.403315], [-70.248449, -34.402465], [-70.255251, -34.402182], [-70.256753, -34.40135], [-70.25778, -34.399392], [-70.260208, -34.397809], [-70.263512, -34.397242], [-70.264285, -34.396463], [-70.266645, -34.396481], [-70.270998, -34.394788], [-70.277095, -34.389646], [-70.278637, -34.387121], [-70.279606, -34.386884], [-70.281344, -34.384883], [-70.282933, -34.381093], [-70.285422, -34.379641], [-70.291516, -34.373266], [-70.293876, -34.371778], [-70.294777, -34.370219], [-70.298082, -34.368484], [-70.299927, -34.36572], [-70.304905, -34.36239], [-70.309058, -34.362882]], [[-70.092315, -34.424364], [-70.093689, -34.422559], [-70.09371, -34.421125], [-70.097208, -34.418948], [-70.096929, -34.417266], [-70.097637, -34.416098], [-70.101134, -34.412894], [-70.105512, -34.411141], [-70.120747, -34.415], [-70.121562, -34.416063], [-70.126819, -34.417302], [-70.132548, -34.420081], [-70.137097, -34.420576], [-70.140359, -34.422612], [-70.147011, -34.422187], [-70.155337, -34.41916], [-70.164885, -34.418169], [-70.166623, -34.41955], [-70.170915, -34.419674], [-70.173275, -34.421001], [-70.175035, -34.420682], [-70.177406, -34.421298], [-70.1807, -34.419864], [-70.18527, -34.419554], [-70.186869, -34.418324], [-70.194207, -34.41597], [-70.19528, -34.415014], [-70.200923, -34.414022], [-70.204442, -34.414253], [-70.206843, -34.411972], [-70.208731, -34.411724], [-70.210659, -34.410421], [-70.21255, -34.412751], [-70.214997, -34.412663], [-70.218301, -34.414875], [-70.220318, -34.414964], [-70.222206, -34.414185], [-70.223966, -34.415371], [-70.227957, -34.414397], [-70.232052, -34.41205], [-70.233, -34.410184], [-70.232592, -34.408502], [-70.234863, -34.407536]]]}}