{"type": "Feature", "properties": {"id": "rio-manso", "name": "Río Manso", "type": "river", "region": "los-lagos"}, "geometry": {"type": "MultiLineString", "coordinates": [[[-71.871639, -41.514552], [-71.872958, -41.515265], [-71.872842, -41.519136], [-71.873681, -41.52107], [-71.877413, -41.523884], [-71.881667, -41.523887], [-71.883342, -41.523155], [-71.886989, -41.524341], [-71.891215, -41.524397], [-71.893287, -41.52539], [-71.897098, -41.530007], [-71.901078, -41.531544], [-71.901111, -41.533259], [-71.905454, -41.537341], [-71.910785, -41.539667], [-71.919163, -41.546681], [-71.921159, -41.547259], [-71.922775, -41.548589], [-71.924122, -41.550184], [-71.923772, -41.552351], [-71.927828, -41.55513], [-71.930367, -41.559109], [-71.930612, -41.560031], [-71.928987, -41.56264], [-71.930067, -41.566708], [-71.929847, -41.571438], [-71.931309, -41.572194], [-71.932399, -41.574203], [-71.935149, -41.576417], [-71.937085, -41.580697], [-71.936017, -41.584087], [-71.93341, -41.585006], [-71.931687, -41.589203], [-71.929113, -41.59147], [-71.929487, -41.600836], [-71.933164, -41.607151], [-71.932457, -41.609278], [-71.935741, -41.614905], [-71.935794, -41.619128], [-71.937371, -41.62157], [-71.940531, -41.624148], [-71.940105, -41.629661], [-71.942078, -41.634377], [-71.945361, -41.639544], [-71.946255, -41.642379], [-71.945686, -41.645739], [-71.949409, -41.64996], [-71.951099, -41.654354], [-71.953996, -41.657922], [-71.953431, -41.660112], [-71.951109, -41.662268], [-71.951786, -41.663911], [-71.953408, -41.665344], [-71.953942, -41.667306], [-71.955517, -41.668897], [-71.956062, -41.672057], [-71.95472, -41.673449], [-71.954033, -41.675614], [-71.954377, -41.676806], [-71.953864, -41.678353], [-71.954887, -41.680972], [-71.954758, -41.682873], [-71.953713, -41.683883], [-71.954469, -41.688173], [-71.956131, -41.689254], [-71.960848, -41.6901], [-71.962721, -41.691195], [-71.977626, -41.693632], [-71.981676, -41.695082], [-71.985596, -41.697925], [-71.984935, -41.700227], [-71.985651, -41.702334], [-71.988307, -41.705132], [-71.992566, -41.705897], [-71.996477, -41.703858], [-72.000423, -41.70303], [-72.004014, -41.70811], [-72.003446, -41.712058], [-72.003813, -41.713133], [-72.009458, -41.716406], [-72.010287, -41.717963], [-72.009947, -41.720059], [-72.010502, -41.721371], [-72.016524, -41.725884], [-72.018254, -41.726471], [-72.023945, -41.734742], [-72.027134, -41.734265], [-72.032605, -41.735537], [-72.033534, -41.734237], [-72.033576, -41.731546], [-72.040676, -41.731849], [-72.04625, -41.72952], [-72.051569, -41.731051], [-72.054053, -41.736495], [-72.058425, -41.734053], [-72.062404, -41.734042], [-72.065777, -41.732308], [-72.067834, -41.732872], [-72.067869, -41.73474]], [[-71.84561, -41.507146], [-71.85397, -41.504147], [-71.854679, -41.506187], [-71.85363, -41.51071], [-71.863726, -41.512141], [-71.866715, -41.513762], [-71.871639, -41.514552]], [[-71.824188, -41.206914], [-71.821727, -41.207527], [-71.820193, -41.209638], [-71.818648, -41.21061], [-71.817495, -41.210279], [-71.816964, -41.211543], [-71.815328, -41.212358], [-71.814058, -41.212072], [-71.811884, -41.212963], [-71.810768, -41.212721], [-71.805156, -41.214023], [-71.803006, -41.21653], [-71.796831, -41.219367], [-71.796209, -41.220771], [-71.796745, -41.222817], [-71.795796, -41.224431], [-71.794128, -41.225322], [-71.790777, -41.230096], [-71.788321, -41.231101], [-71.788219, -41.231786], [-71.785712, -41.233349]], [[-71.785712, -41.233349], [-71.785416, -41.233833], [-71.786206, -41.234705], [-71.785327, -41.235545]], [[-71.785327, -41.235545], [-71.783302, -41.235099], [-71.779939, -41.235817], [-71.777704, -41.235319], [-71.777471, -41.236641], [-71.774735, -41.237277], [-71.772882, -41.235432], [-71.772554, -41.232642], [-71.770157, -41.231011], [-71.768407, -41.231946], [-71.765702, -41.231117], [-71.765827, -41.232285], [-71.763021, -41.232902], [-71.763273, -41.234036], [-71.762143, -41.23501], [-71.760872, -41.235401], [-71.759649, -41.23476], [-71.757825, -41.236563], [-71.755679, -41.234872], [-71.755406, -41.233747]], [[-71.755406, -41.233747], [-71.752965, -41.234727], [-71.752694, -41.236795], [-71.749972, -41.236797], [-71.748727, -41.235986], [-71.746013, -41.237733], [-71.74539, -41.238289], [-71.745675, -41.240814], [-71.74516, -41.241157], [-71.740412, -41.241424], [-71.740015, -41.240617], [-71.740863, -41.239467], [-71.739822, -41.238983], [-71.737596, -41.239826], [-71.736131, -41.24194], [-71.732779, -41.241504], [-71.732071, -41.240451], [-71.732564, -41.239782], [-71.731829, -41.239778], [-71.727023, -41.241988], [-71.726014, -41.243795], [-71.723302, -41.241886], [-71.722667, -41.243045], [-71.723713, -41.244355], [-71.721071, -41.245194], [-71.718329, -41.247912], [-71.716996, -41.247671], [-71.716166, -41.246413], [-71.712789, -41.245343], [-71.711346, -41.24608], [-71.71159, -41.247928], [-71.707488, -41.247563], [-71.705774, -41.249599], [-71.70339, -41.249048], [-71.702234, -41.249946], [-71.69812, -41.250604], [-71.696746, -41.249954], [-71.697154, -41.248311], [-71.694069, -41.247692], [-71.694758, -41.246304], [-71.694232, -41.245354], [-71.692149, -41.245159], [-71.691156, -41.244198], [-71.685211, -41.247665], [-71.676525, -41.248199], [-71.675685, -41.250007], [-71.672945, -41.251353], [-71.671616, -41.250742], [-71.670488, -41.251109], [-71.665751, -41.2494], [-71.664927, -41.24969], [-71.663805, -41.251802], [-71.662293, -41.250296], [-71.660602, -41.250743], [-71.658574, -41.249609], [-71.657536, -41.251023], [-71.656728, -41.25449], [-71.654521, -41.254239], [-71.650868, -41.255718], [-71.653138, -41.257015], [-71.653698, -41.258444]], [[-71.653698, -41.258444], [-71.654246, -41.259261], [-71.653833, -41.260185], [-71.655987, -41.260477], [-71.657197, -41.261678], [-71.656679, -41.263447], [-71.645524, -41.263464]], [[-71.645524, -41.263464], [-71.63146, -41.267733], [-71.617952, -41.273426], [-71.602483, -41.286458], [-71.590465, -41.295404], [-71.582397, -41.300466], [-71.58156, -41.308815], [-71.582955, -41.314779], [-71.574908, -41.321483], [-71.5689, -41.330781], [-71.56757, -41.338466], [-71.568642, -41.344443], [-71.573277, -41.350709], [-71.58701, -41.351885], [-71.59452, -41.351563], [-71.597014, -41.352387]], [[-71.597014, -41.352387], [-71.605025, -41.349543], [-71.605459, -41.348463]], [[-71.605459, -41.348463], [-71.607948, -41.345994], [-71.612497, -41.345059], [-71.626637, -41.345929], [-71.633207, -41.34721]], [[-71.633207, -41.34721], [-71.636298, -41.34794], [-71.637017, -41.349298], [-71.638176, -41.349749], [-71.639973, -41.347896], [-71.645096, -41.345697], [-71.647574, -41.343575], [-71.651791, -41.344344], [-71.657944, -41.344232], [-71.657894, -41.345782], [-71.659638, -41.346374], [-71.660133, -41.347695], [-71.661717, -41.34805], [-71.662488, -41.34695], [-71.664871, -41.346643], [-71.670335, -41.344019], [-71.67217, -41.344343], [-71.672632, -41.345513], [-71.679118, -41.345598], [-71.680201, -41.346777], [-71.686989, -41.346216], [-71.687847, -41.345825], [-71.68828, -41.344662], [-71.69255, -41.345928], [-71.694674, -41.34544], [-71.69969, -41.347636], [-71.701638, -41.350757], [-71.703826, -41.352503], [-71.710467, -41.355154], [-71.71037, -41.356145], [-71.711723, -41.357574], [-71.709915, -41.35848], [-71.711841, -41.361814], [-71.715355, -41.362665], [-71.716183, -41.362476], [-71.716835, -41.361213], [-71.719532, -41.361889], [-71.724198, -41.359262], [-71.724386, -41.360603], [-71.725897, -41.361318]], [[-71.725897, -41.361318], [-71.731261, -41.36183], [-71.733353, -41.359374], [-71.733536, -41.357336], [-71.735123, -41.356764], [-71.737022, -41.357248], [-71.738192, -41.359076], [-71.738492, -41.361314], [-71.73963, -41.3622], [-71.739737, -41.364922], [-71.737752, -41.365582], [-71.737122, -41.366968]], [[-71.737122, -41.366968], [-71.737844, -41.370462], [-71.737407, -41.372856], [-71.739877, -41.372925], [-71.74289, -41.374472], [-71.747252, -41.374201], [-71.747481, -41.375772], [-71.746486, -41.376706], [-71.742368, -41.377442], [-71.737466, -41.379927], [-71.736648, -41.381137], [-71.734948, -41.380876]], [[-71.734948, -41.380876], [-71.7303, -41.380975], [-71.727575, -41.382738], [-71.723788, -41.383608], [-71.722756, -41.383586], [-71.721897, -41.382497], [-71.721123, -41.384714], [-71.720423, -41.384718], [-71.719703, -41.38359], [-71.717887, -41.38438], [-71.712681, -41.384306], [-71.711013, -41.385409], [-71.709963, -41.387684], [-71.708171, -41.389608], [-71.703531, -41.393375], [-71.70394, -41.395464], [-71.702241, -41.397075], [-71.702054, -41.398462], [-71.699967, -41.398925], [-71.697453, -41.402319], [-71.694092, -41.403914], [-71.693183, -41.407003], [-71.690954, -41.408499]], [[-71.690954, -41.408499], [-71.686381, -41.410511]], [[-71.686381, -41.410511], [-71.685267, -41.411068], [-71.68508, -41.411925]], [[-71.68508, -41.411925], [-71.684849, -41.41297]], [[-71.684849, -41.41297], [-71.682183, -41.415923], [-71.680531, -41.416814], [-71.680391, -41.418552], [-71.678581, -41.420201], [-71.677883, -41.422771], [-71.674541, -41.425525], [-71.669011, -41.433406], [-71.666465, -41.434405], [-71.666951, -41.436968], [-71.664097, -41.43813], [-71.662779, -41.440793], [-71.658629, -41.44304], [-71.65783, -41.446269], [-71.655411, -41.447305], [-71.654904, -41.449774], [-71.655484, -41.450423], [-71.652522, -41.452785], [-71.651658, -41.454029], [-71.651513, -41.456241], [-71.647251, -41.460249], [-71.644352, -41.466769], [-71.641932, -41.469834], [-71.641163, -41.47255], [-71.642009, -41.473399], [-71.643412, -41.478797], [-71.643071, -41.479545], [-71.641191, -41.480361], [-71.642185, -41.484448], [-71.641312, -41.486275], [-71.642505, -41.488117], [-71.643005, -41.490971], [-71.641332, -41.496068], [-71.641351, -41.498472], [-71.640471, -41.499671], [-71.640558, -41.50223], [-71.636533, -41.504111], [-71.63391, -41.508317], [-71.623952, -41.511415]], [[-71.623952, -41.511415], [-71.619459, -41.513543], [-71.609203, -41.51519], [-71.598817, -41.515447], [-71.586415, -41.518146], [-71.555516, -41.510739], [-71.543113, -41.511012], [-71.539763, -41.512255]], [[-71.539763, -41.512255], [-71.536113, -41.516392], [-71.531413, -41.517594], [-71.528019, -41.517526], [-71.525996, -41.51838], [-71.527321, -41.522961], [-71.527026, -41.525382], [-71.528157, -41.526603], [-71.528137, -41.527571], [-71.527852, -41.528358], [-71.524988, -41.528997], [-71.523776, -41.532016], [-71.524398, -41.532418], [-71.529215, -41.53033], [-71.531522, -41.530699], [-71.529473, -41.532258], [-71.528625, -41.535871], [-71.525979, -41.537441], [-71.523136, -41.537738], [-71.522557, -41.538409], [-71.523652, -41.539895], [-71.525969, -41.53977], [-71.52672, -41.540416], [-71.525744, -41.541914], [-71.525031, -41.545331], [-71.522895, -41.546929], [-71.522401, -41.548402], [-71.523619, -41.550972], [-71.526028, -41.552369], [-71.526426, -41.553381], [-71.524521, -41.556154], [-71.521532, -41.557804], [-71.515149, -41.556319], [-71.514286, -41.556837], [-71.513851, -41.558527], [-71.517166, -41.561951], [-71.520766, -41.562035], [-71.521276, -41.562693], [-71.519339, -41.564965], [-71.517875, -41.565354], [-71.517966, -41.566691], [-71.517183, -41.567731], [-71.514832, -41.567822], [-71.513303, -41.568778], [-71.51325, -41.570115]], [[-71.51325, -41.570115], [-71.514634, -41.571596], [-71.516456, -41.572324], [-71.517878, -41.576465], [-71.521485, -41.577101], [-71.522073, -41.577753], [-71.521748, -41.586495], [-71.520861, -41.587213], [-71.520284, -41.589405], [-71.521432, -41.591315], [-71.520761, -41.598836], [-71.521748, -41.599827], [-71.526283, -41.595578], [-71.528233, -41.594811], [-71.531099, -41.595874], [-71.534656, -41.595084], [-71.541902, -41.594932], [-71.549895, -41.59841], [-71.553328, -41.596581], [-71.55636, -41.597775], [-71.562571, -41.594852], [-71.56594, -41.594186], [-71.57447, -41.600888], [-71.577265, -41.600039], [-71.577897, -41.59693], [-71.58006, -41.596352], [-71.585246, -41.597408], [-71.591131, -41.596962], [-71.595013, -41.598626], [-71.601785, -41.596593], [-71.604636, -41.598313], [-71.608936, -41.596927], [-71.611306, -41.597376], [-71.614735, -41.595859], [-71.618608, -41.592289], [-71.624606, -41.590945], [-71.625894, -41.589798], [-71.626795, -41.586989], [-71.628565, -41.585834], [-71.634748, -41.58469], [-71.636719, -41.583254], [-71.64346, -41.582105], [-71.647149, -41.5801], [-71.651458, -41.581006], [-71.656147, -41.583422], [-71.659215, -41.584071], [-71.665567, -41.582563], [-71.665449, -41.580163], [-71.66686, -41.579529], [-71.672091, -41.581452], [-71.672621, -41.582936], [-71.675276, -41.583803], [-71.67723, -41.585641], [-71.681532, -41.586387], [-71.694708, -41.586684], [-71.697308, -41.587935], [-71.698719, -41.589945], [-71.701602, -41.591653], [-71.703314, -41.593727], [-71.71275, -41.592584], [-71.714906, -41.594297], [-71.728593, -41.598748], [-71.729672, -41.598687], [-71.73474, -41.592265], [-71.73545, -41.589871], [-71.737681, -41.589081], [-71.742864, -41.589719], [-71.744645, -41.591596], [-71.748105, -41.592306], [-71.752794, -41.590691], [-71.755163, -41.588244], [-71.762715, -41.590007], [-71.765727, -41.589014], [-71.768513, -41.589048], [-71.770811, -41.590654], [-71.773572, -41.590998], [-71.77582, -41.590034], [-71.776701, -41.587537], [-71.7732, -41.584962], [-71.770392, -41.58587], [-71.769361, -41.584463], [-71.76986, -41.583034], [-71.771614, -41.582568], [-71.772462, -41.581537], [-71.771496, -41.577681], [-71.769222, -41.576136], [-71.772189, -41.567821], [-71.774157, -41.56594], [-71.774903, -41.563144], [-71.778219, -41.560895], [-71.779679, -41.557545], [-71.785562, -41.5539], [-71.788233, -41.548902], [-71.795117, -41.539432], [-71.800138, -41.53408], [-71.802177, -41.529902], [-71.804139, -41.527991], [-71.80775, -41.526078], [-71.807207, -41.523955], [-71.808248, -41.523279], [-71.8115, -41.523164], [-71.813567, -41.521776], [-71.818221, -41.521747], [-71.818948, -41.523227], [-71.819512, -41.523203], [-71.822839, -41.521126], [-71.825435, -41.517661], [-71.826142, -41.515303], [-71.828059, -41.513278], [-71.831621, -41.512051], [-71.835599, -41.511939], [-71.83761, -41.510115], [-71.84561, -41.507146]], [[-71.84561, -41.507146], [-71.85397, -41.504147], [-71.854679, -41.506187], [-71.85363, -41.51071], [-71.863726, -41.512141], [-71.866715, -41.513762], [-71.871639, -41.514552]], [[-71.871639, -41.514552], [-71.872958, -41.515265], [-71.872842, -41.519136], [-71.873681, -41.52107], [-71.877413, -41.523884], [-71.881667, -41.523887], [-71.883342, -41.523155], [-71.886989, -41.524341], [-71.891215, -41.524397], [-71.893287, -41.52539], [-71.897098, -41.530007], [-71.901078, -41.531544], [-71.901111, -41.533259], [-71.905454, -41.537341], [-71.910785, -41.539667], [-71.919163, -41.546681], [-71.921159, -41.547259], [-71.922775, -41.548589], [-71.924122, -41.550184], [-71.923772, -41.552351], [-71.927828, -41.55513], [-71.930367, -41.559109], [-71.930612, -41.560031], [-71.928987, -41.56264], [-71.930067, -41.566708], [-71.929847, -41.571438], [-71.931309, -41.572194], [-71.932399, -41.574203], [-71.935149, -41.576417], [-71.937085, -41.580697], [-71.936017, -41.584087], [-71.93341, -41.585006], [-71.931687, -41.589203], [-71.929113, -41.59147], [-71.929487, -41.600836], [-71.933164, -41.607151], [-71.932457, -41.609278], [-71.935741, -41.614905], [-71.935794, -41.619128], [-71.937371, -41.62157], [-71.940531, -41.624148], [-71.940105, -41.629661], [-71.942078, -41.634377], [-71.945361, -41.639544], [-71.946255, -41.642379], [-71.945686, -41.645739], [-71.949409, -41.64996], [-71.951099, -41.654354], [-71.953996, -41.657922], [-71.953431, -41.660112], [-71.951109, -41.662268], [-71.951786, -41.663911], [-71.953408, -41.665344], [-71.953942, -41.667306], [-71.955517, -41.668897], [-71.956062, -41.672057], [-71.95472, -41.673449], [-71.954033, -41.675614], [-71.954377, -41.676806], [-71.953864, -41.678353], [-71.954887, -41.680972], [-71.954758, -41.682873], [-71.953713, -41.683883], [-71.954469, -41.688173], [-71.956131, -41.689254], [-71.960848, -41.6901], [-71.962721, -41.691195], [-71.977626, -41.693632], [-71.981676, -41.695082], [-71.985596, -41.697925], [-71.984935, -41.700227], [-71.985651, -41.702334], [-71.988307, -41.705132], [-71.992566, -41.705897], [-71.996477, -41.703858], [-72.000423, -41.70303], [-72.004014, -41.70811], [-72.003446, -41.712058], [-72.003813, -41.713133], [-72.009458, -41.716406], [-72.010287, -41.717963], [-72.009947, -41.720059], [-72.010502, -41.721371], [-72.016524, -41.725884], [-72.018254, -41.726471], [-72.023945, -41.734742], [-72.027134, -41.734265], [-72.032605, -41.735537], [-72.033534, -41.734237], [-72.033576, -41.731546], [-72.040676, -41.731849], [-72.04625, -41.72952], [-72.051569, -41.731051], [-72.054053, -41.736495], [-72.058425, -41.734053], [-72.062404, -41.734042], [-72.065777, -41.732308], [-72.067834, -41.732872], [-72.067869, -41.73474]], [[-71.672292, -41.345364], [-71.673437, -41.345551]], [[-71.677824, -41.34584], [-71.680201, -41.346777]], [[-71.679261, -41.346617], [-71.679639, -41.346554]], [[-71.679779, -41.346635], [-71.680967, -41.34619], [-71.6814, -41.346619]], [[-71.705843, -41.35334], [-71.70756, -41.353946]], [[-71.716254, -41.362354], [-71.717685, -41.361376]]]}}