{"type": "Feature", "properties": {"id": "rio-maullin", "name": "Río Maullín", "type": "river", "region": "los-lagos"}, "geometry": {"type": "MultiLineString", "coordinates": [[[-73.001377, -41.259396], [-73.002874, -41.260662], [-73.003188, -41.262204], [-73.004863, -41.26417], [-73.005677, -41.264354], [-73.006005, -41.266104], [-73.007836, -41.267792], [-73.013597, -41.269815], [-73.021962, -41.276355], [-73.030028, -41.279452], [-73.034062, -41.279774], [-73.048224, -41.282838], [-73.04904, -41.284483], [-73.050714, -41.285708], [-73.050344, -41.288187], [-73.050971, -41.290674], [-73.052816, -41.293931], [-73.053117, -41.296639], [-73.057022, -41.301217], [-73.057065, -41.30415], [-73.060284, -41.310371], [-73.056164, -41.314239], [-73.051872, -41.316077], [-73.040424, -41.316829], [-73.032432, -41.322104], [-73.031993, -41.322901], [-73.03354, -41.32436], [-73.031015, -41.325843], [-73.031273, -41.326809], [-73.029642, -41.329226], [-73.028183, -41.329774], [-73.028441, -41.33187], [-73.026854, -41.333255], [-73.025051, -41.336671], [-73.026794, -41.340627], [-73.028285, -41.341803], [-73.028886, -41.343166], [-73.04168, -41.344791], [-73.044341, -41.348705], [-73.047087, -41.350107], [-73.048715, -41.355275], [-73.049165, -41.359366], [-73.05159, -41.361637], [-73.054701, -41.362555], [-73.058006, -41.361927]], [[-73.067273, -41.36289], [-73.070628, -41.363894], [-73.072087, -41.365473], [-73.074919, -41.366857], [-73.076121, -41.369756], [-73.078953, -41.371882], [-73.079905, -41.375237], [-73.082944, -41.376841], [-73.083644, -41.378028], [-73.088652, -41.376777], [-73.091914, -41.377968], [-73.092961, -41.379963], [-73.092274, -41.382861], [-73.094918, -41.385535], [-73.095046, -41.388304], [-73.102213, -41.393649], [-73.104874, -41.397158], [-73.107921, -41.398864], [-73.108136, -41.40028], [-73.109289, -41.400367], [-73.111311, -41.402147], [-73.113157, -41.402534], [-73.114528, -41.401826], [-73.117489, -41.402373], [-73.119248, -41.403564], [-73.121995, -41.402856], [-73.124619, -41.403109]], [[-73.260108, -41.447674], [-73.259652, -41.449721], [-73.258038, -41.45182], [-73.251622, -41.455396], [-73.247231, -41.460132], [-73.249345, -41.460158], [-73.249964, -41.458576], [-73.250777, -41.458475], [-73.251323, -41.463273], [-73.255689, -41.46291], [-73.257389, -41.463728], [-73.262262, -41.469654], [-73.263279, -41.47401], [-73.264174, -41.474523], [-73.270169, -41.475688], [-73.271843, -41.475224], [-73.272811, -41.473139], [-73.275381, -41.471275], [-73.282904, -41.470558], [-73.284701, -41.470998], [-73.287636, -41.473651], [-73.289586, -41.474163], [-73.292448, -41.47187], [-73.300116, -41.471631], [-73.304751, -41.470073], [-73.305449, -41.47032], [-73.306253, -41.473596], [-73.306226, -41.474846], [-73.305261, -41.476239], [-73.305536, -41.476915], [-73.308168, -41.475863], [-73.31118, -41.476252], [-73.315952, -41.474794], [-73.316818, -41.471671], [-73.31983, -41.470284], [-73.32366, -41.471001], [-73.325042, -41.47274], [-73.330495, -41.472594], [-73.334087, -41.474128], [-73.335541, -41.477428], [-73.337967, -41.478531], [-73.338633, -41.480154], [-73.340741, -41.481608], [-73.339939, -41.48444], [-73.336382, -41.486875], [-73.33518, -41.488423], [-73.332034, -41.499017]], [[-73.124619, -41.403109], [-73.129304, -41.40223], [-73.130141, -41.401393], [-73.129347, -41.400813], [-73.132094, -41.400572], [-73.133231, -41.398753], [-73.137756, -41.396817], [-73.141717, -41.39767], [-73.145453, -41.40046], [-73.148459, -41.400329], [-73.15055, -41.399389], [-73.15032, -41.396795], [-73.151716, -41.39511], [-73.157263, -41.393472], [-73.161406, -41.393959], [-73.171494, -41.391575], [-73.17487, -41.393035], [-73.177788, -41.391164], [-73.17896, -41.391834], [-73.185339, -41.391611], [-73.186289, -41.390754], [-73.186714, -41.387741], [-73.18764, -41.38702], [-73.193219, -41.386991], [-73.194063, -41.388689], [-73.19458, -41.392621], [-73.195805, -41.394363], [-73.198289, -41.395701], [-73.199395, -41.397705], [-73.204419, -41.39909], [-73.209436, -41.402642], [-73.210764, -41.404954], [-73.21314, -41.41225], [-73.21683, -41.414944], [-73.219662, -41.418693], [-73.223949, -41.421063], [-73.225273, -41.424659], [-73.230179, -41.429894], [-73.229901, -41.431967], [-73.231857, -41.435196], [-73.236138, -41.436624], [-73.238685, -41.436446], [-73.245326, -41.438208], [-73.248886, -41.441825], [-73.251248, -41.443018], [-73.254054, -41.443418], [-73.260108, -41.447674]], [[-73.058006, -41.361927], [-73.062772, -41.361218], [-73.067273, -41.36289]], [[-73.501977, -41.551374], [-73.524014, -41.590255], [-73.530022, -41.595807], [-73.543583, -41.601776], [-73.55414, -41.604055], [-73.5665, -41.605146], [-73.585039, -41.609799], [-73.593837, -41.610184], [-73.603965, -41.60951], [-73.61508, -41.607328], [-73.623577, -41.604247], [-73.636601, -41.597039], [-73.640615, -41.595551], [-73.646535, -41.595218], [-73.654779, -41.597228]], [[-73.333062, -41.508592], [-73.334542, -41.510312], [-73.336613, -41.514698], [-73.344681, -41.521382], [-73.346762, -41.522466], [-73.350442, -41.522643], [-73.35335, -41.522057], [-73.357974, -41.520024], [-73.36071, -41.517952], [-73.368177, -41.509862], [-73.375559, -41.505668], [-73.38867, -41.504869], [-73.416178, -41.500032], [-73.422551, -41.499871], [-73.427937, -41.50061], [-73.441316, -41.505367], [-73.450393, -41.50977], [-73.463053, -41.517032], [-73.481678, -41.523105], [-73.488544, -41.526897], [-73.492171, -41.530045], [-73.493952, -41.532599], [-73.497642, -41.54389], [-73.501977, -41.551374]], [[-73.075434, -41.368371], [-73.073744, -41.373028], [-73.074195, -41.375008], [-73.075886, -41.37665], [-73.07928, -41.376538], [-73.083163, -41.377674]], [[-73.026579, -41.339378], [-73.030075, -41.341977], [-73.033088, -41.342933], [-73.034707, -41.344211]], [[-73.332034, -41.499017], [-73.33009, -41.503699], [-73.333062, -41.508592]], [[-73.001377, -41.259396], [-73.002874, -41.260662], [-73.003188, -41.262204], [-73.004863, -41.26417], [-73.005677, -41.264354], [-73.006005, -41.266104], [-73.007836, -41.267792], [-73.013597, -41.269815], [-73.021962, -41.276355], [-73.030028, -41.279452], [-73.034062, -41.279774], [-73.048224, -41.282838], [-73.04904, -41.284483], [-73.050714, -41.285708], [-73.050344, -41.288187], [-73.050971, -41.290674], [-73.052816, -41.293931], [-73.053117, -41.296639], [-73.057022, -41.301217], [-73.057065, -41.30415], [-73.060284, -41.310371], [-73.056164, -41.314239], [-73.051872, -41.316077], [-73.040424, -41.316829], [-73.032432, -41.322104], [-73.031993, -41.322901], [-73.03354, -41.32436], [-73.031015, -41.325843], [-73.031273, -41.326809], [-73.029642, -41.329226], [-73.028183, -41.329774], [-73.028441, -41.33187], [-73.026854, -41.333255], [-73.025051, -41.336671], [-73.026794, -41.340627], [-73.028285, -41.341803], [-73.028886, -41.343166], [-73.04168, -41.344791], [-73.044341, -41.348705], [-73.047087, -41.350107], [-73.048715, -41.355275], [-73.049165, -41.359366], [-73.05159, -41.361637], [-73.054701, -41.362555], [-73.058006, -41.361927]], [[-73.058006, -41.361927], [-73.062772, -41.361218], [-73.067273, -41.36289]], [[-73.067273, -41.36289], [-73.070628, -41.363894], [-73.072087, -41.365473], [-73.074919, -41.366857], [-73.076121, -41.369756], [-73.078953, -41.371882], [-73.079905, -41.375237], [-73.082944, -41.376841], [-73.083644, -41.378028], [-73.088652, -41.376777], [-73.091914, -41.377968], [-73.092961, -41.379963], [-73.092274, -41.382861], [-73.094918, -41.385535], [-73.095046, -41.388304], [-73.102213, -41.393649], [-73.104874, -41.397158], [-73.107921, -41.398864], [-73.108136, -41.40028], [-73.109289, -41.400367], [-73.111311, -41.402147], [-73.113157, -41.402534], [-73.114528, -41.401826], [-73.117489, -41.402373], [-73.119248, -41.403564], [-73.121995, -41.402856], [-73.124619, -41.403109]], [[-73.124619, -41.403109], [-73.129304, -41.40223], [-73.130141, -41.401393], [-73.129347, -41.400813], [-73.132094, -41.400572], [-73.133231, -41.398753], [-73.137756, -41.396817], [-73.141717, -41.39767], [-73.145453, -41.40046], [-73.148459, -41.400329], [-73.15055, -41.399389], [-73.15032, -41.396795], [-73.151716, -41.39511], [-73.157263, -41.393472], [-73.161406, -41.393959], [-73.171494, -41.391575], [-73.17487, -41.393035], [-73.177788, -41.391164], [-73.17896, -41.391834], [-73.185339, -41.391611], [-73.186289, -41.390754], [-73.186714, -41.387741], [-73.18764, -41.38702], [-73.193219, -41.386991], [-73.194063, -41.388689], [-73.19458, -41.392621], [-73.195805, -41.394363], [-73.198289, -41.395701], [-73.199395, -41.397705], [-73.204419, -41.39909], [-73.209436, -41.402642], [-73.210764, -41.404954], [-73.21314, -41.41225], [-73.21683, -41.414944], [-73.219662, -41.418693], [-73.223949, -41.421063], [-73.225273, -41.424659], [-73.230179, -41.429894], [-73.229901, -41.431967], [-73.231857, -41.435196], [-73.236138, -41.436624], [-73.238685, -41.436446], [-73.245326, -41.438208], [-73.248886, -41.441825], [-73.251248, -41.443018], [-73.254054, -41.443418], [-73.260108, -41.447674]], [[-73.260108, -41.447674], [-73.259652, -41.449721], [-73.258038, -41.45182], [-73.251622, -41.455396], [-73.247231, -41.460132], [-73.249345, -41.460158], [-73.249964, -41.458576], [-73.250777, -41.458475], [-73.251323, -41.463273], [-73.255689, -41.46291], [-73.257389, -41.463728], [-73.262262, -41.469654], [-73.263279, -41.47401], [-73.264174, -41.474523], [-73.270169, -41.475688], [-73.271843, -41.475224], [-73.272811, -41.473139], [-73.275381, -41.471275], [-73.282904, -41.470558], [-73.284701, -41.470998], [-73.287636, -41.473651], [-73.289586, -41.474163], [-73.292448, -41.47187], [-73.300116, -41.471631], [-73.304751, -41.470073], [-73.305449, -41.47032], [-73.306253, -41.473596], [-73.306226, -41.474846], [-73.305261, -41.476239], [-73.305536, -41.476915], [-73.308168, -41.475863], [-73.31118, -41.476252], [-73.315952, -41.474794], [-73.316818, -41.471671], [-73.31983, -41.470284], [-73.32366, -41.471001], [-73.325042, -41.47274], [-73.330495, -41.472594], [-73.334087, -41.474128], [-73.335541, -41.477428], [-73.337967, -41.478531], [-73.338633, -41.480154], [-73.340741, -41.481608], [-73.339939, -41.48444], [-73.336382, -41.486875], [-73.33518, -41.488423], [-73.332034, -41.499017]], [[-73.332034, -41.499017], [-73.33009, -41.503699], [-73.333062, -41.508592]], [[-73.333062, -41.508592], [-73.334542, -41.510312], [-73.336613, -41.514698], [-73.344681, -41.521382], [-73.346762, -41.522466], [-73.350442, -41.522643], [-73.35335, -41.522057], [-73.357974, -41.520024], [-73.36071, -41.517952], [-73.368177, -41.509862], [-73.375559, -41.505668], [-73.38867, -41.504869], [-73.416178, -41.500032], [-73.422551, -41.499871], [-73.427937, -41.50061], [-73.441316, -41.505367], [-73.450393, -41.50977], [-73.463053, -41.517032], [-73.481678, -41.523105], [-73.488544, -41.526897], [-73.492171, -41.530045], [-73.493952, -41.532599], [-73.497642, -41.54389], [-73.501977, -41.551374]], [[-73.501977, -41.551374], [-73.524014, -41.590255], [-73.530022, -41.595807], [-73.543583, -41.601776], [-73.55414, -41.604055], [-73.5665, -41.605146], [-73.585039, -41.609799], [-73.593837, -41.610184], [-73.603965, -41.60951], [-73.61508, -41.607328], [-73.623577, -41.604247], [-73.636601, -41.597039], [-73.640615, -41.595551], [-73.646535, -41.595218], [-73.654779, -41.597228]]]}}