{"type": "Feature", "properties": {"id": "rio-ancoa", "name": "Río Ancoa", "type": "river", "region": "maule"}, "geometry": {"type": "MultiLineString", "coordinates": [[[-71.522627, -35.912724], [-71.523493, -35.912359], [-71.524059, -35.910742], [-71.530464, -35.907564], [-71.536411, -35.907458], [-71.540796, -35.908364], [-71.54873, -35.906723], [-71.550608, -35.905431], [-71.551233, -35.903145], [-71.55528, -35.901633], [-71.557152, -35.898387], [-71.5597, -35.895636], [-71.5643, -35.894133], [-71.568179, -35.891521], [-71.571311, -35.890629], [-71.573699, -35.888214], [-71.574689, -35.885382], [-71.57727, -35.884552], [-71.580113, -35.882199], [-71.586849, -35.880739], [-71.593673, -35.874985], [-71.599431, -35.874783], [-71.600668, -35.87361], [-71.601269, -35.871906], [-71.606118, -35.871002], [-71.607457, -35.869228], [-71.609477, -35.868469], [-71.612194, -35.865976], [-71.61626, -35.86618], [-71.619379, -35.863426], [-71.622239, -35.864639], [-71.626481, -35.863404], [-71.632919, -35.864447], [-71.634528, -35.860935], [-71.63447, -35.857714], [-71.635065, -35.856698], [-71.638989, -35.85679], [-71.641909, -35.854552], [-71.643926, -35.853943], [-71.645235, -35.854274], [-71.647853, -35.8569], [-71.649763, -35.857317], [-71.651118, -35.856944], [-71.651931, -35.85532], [-71.655927, -35.854592], [-71.663883, -35.851355], [-71.664781, -35.851585], [-71.665648, -35.85362]], [[-71.150997, -35.974338], [-71.144925, -35.969562], [-71.140333, -35.96331], [-71.13617, -35.961261], [-71.134604, -35.959333], [-71.131986, -35.957874], [-71.127523, -35.953896], [-71.124712, -35.954695], [-71.120356, -35.953184], [-71.117674, -35.950197], [-71.114305, -35.948338], [-71.114004, -35.946566], [-71.113017, -35.945385], [-71.111365, -35.938141], [-71.114047, -35.931417], [-71.114069, -35.927542], [-71.119824, -35.923845], [-71.12094, -35.922316], [-71.121369, -35.91957], [-71.123, -35.918666], [-71.12433, -35.915017], [-71.125875, -35.912932], [-71.124931, -35.910394], [-71.122957, -35.909039], [-71.122485, -35.906745], [-71.121498, -35.906571], [-71.122356, -35.904485], [-71.122099, -35.901843], [-71.123944, -35.90007], [-71.124502, -35.898575], [-71.124681, -35.893235], [-71.123828, -35.89191], [-71.121197, -35.890266], [-71.120371, -35.888666], [-71.117549, -35.886651], [-71.11682, -35.883173], [-71.117643, -35.882031], [-71.117262, -35.881034], [-71.118257, -35.879971], [-71.118166, -35.877211], [-71.115962, -35.87462], [-71.116742, -35.873553], [-71.118667, -35.873288], [-71.118536, -35.869869]], [[-71.118536, -35.869869], [-71.118617, -35.868184], [-71.120312, -35.865987], [-71.120274, -35.863857], [-71.122935, -35.863042]], [[-71.28394, -35.903207], [-71.287682, -35.903899], [-71.29234, -35.907075], [-71.298003, -35.90839], [-71.302273, -35.91023], [-71.307857, -35.910443], [-71.312106, -35.908896], [-71.316655, -35.910303], [-71.319997, -35.91232], [-71.329623, -35.911086], [-71.332625, -35.911264], [-71.335258, -35.912689], [-71.341191, -35.913649], [-71.343547, -35.915265], [-71.346803, -35.915635], [-71.350145, -35.914579], [-71.354758, -35.914779], [-71.369408, -35.918971], [-71.37231, -35.9208], [-71.378415, -35.919271], [-71.379944, -35.919896], [-71.382058, -35.919453], [-71.386408, -35.916821], [-71.388001, -35.917646], [-71.388828, -35.91901], [-71.390442, -35.919462], [-71.393693, -35.91858], [-71.397931, -35.918941], [-71.399814, -35.917451], [-71.402759, -35.916351], [-71.408848, -35.917498], [-71.410564, -35.919236], [-71.419051, -35.919614], [-71.422393, -35.921956], [-71.427146, -35.921912], [-71.433406, -35.924749], [-71.435171, -35.924514], [-71.437494, -35.925353], [-71.439924, -35.925135], [-71.442134, -35.923007], [-71.445862, -35.921456], [-71.447965, -35.922034], [-71.453308, -35.920657], [-71.455706, -35.919088], [-71.458082, -35.919214], [-71.461167, -35.916794], [-71.462004, -35.91457], [-71.464686, -35.913627], [-71.467078, -35.914792], [-71.471815, -35.911116], [-71.474009, -35.910495], [-71.479701, -35.906854], [-71.484625, -35.90933], [-71.493149, -35.908904], [-71.496464, -35.911856], [-71.499887, -35.913258], [-71.500708, -35.914909], [-71.502677, -35.915687], [-71.504409, -35.91593], [-71.50917, -35.914711], [-71.510152, -35.915115]], [[-71.240485, -35.859435], [-71.243908, -35.859648], [-71.246107, -35.860935], [-71.250136, -35.8612], [-71.252228, -35.863761], [-71.257812, -35.863483], [-71.261243, -35.864593], [-71.261881, -35.865578], [-71.261884, -35.869147], [-71.264319, -35.869252], [-71.26518, -35.869954], [-71.264727, -35.872129], [-71.266382, -35.875318], [-71.265864, -35.877276], [-71.271894, -35.884069], [-71.275984, -35.892564], [-71.275654, -35.894128], [-71.27728, -35.895391], [-71.277543, -35.896968], [-71.278838, -35.898889], [-71.280659, -35.899352], [-71.281453, -35.900923]], [[-71.311381, -35.908978], [-71.313254, -35.908596], [-71.315201, -35.909817]], [[-71.267173, -35.879336], [-71.268949, -35.88044], [-71.269582, -35.881579]], [[-71.422119, -35.920231], [-71.425086, -35.920661]], [[-71.419051, -35.919614], [-71.421475, -35.919831], [-71.42324, -35.9208], [-71.425284, -35.920717], [-71.426679, -35.921834]], [[-71.367418, -35.918593], [-71.372026, -35.92073]], [[-71.342849, -35.915039], [-71.345038, -35.916621], [-71.350177, -35.91749], [-71.358159, -35.915743]], [[-71.183227, -35.853503], [-71.186646, -35.853224]], [[-71.421652, -35.92157], [-71.426566, -35.924744], [-71.42841, -35.924518], [-71.429804, -35.925135], [-71.430957, -35.926672], [-71.437494, -35.925353]], [[-71.186646, -35.853224], [-71.190699, -35.855213], [-71.193048, -35.855596], [-71.194636, -35.857313], [-71.19846, -35.857009], [-71.202033, -35.859142], [-71.203463, -35.858877], [-71.205016, -35.856744], [-71.206486, -35.857148], [-71.207623, -35.858931], [-71.212912, -35.858435], [-71.217531, -35.859205], [-71.220288, -35.858718], [-71.223797, -35.859587], [-71.22782, -35.858753], [-71.231527, -35.860161], [-71.240384, -35.859478]], [[-71.240384, -35.859478], [-71.240485, -35.859435]], [[-71.183227, -35.853503], [-71.186646, -35.853224]], [[-71.186646, -35.853224], [-71.190699, -35.855213], [-71.193048, -35.855596], [-71.194636, -35.857313], [-71.19846, -35.857009], [-71.202033, -35.859142], [-71.203463, -35.858877], [-71.205016, -35.856744], [-71.206486, -35.857148], [-71.207623, -35.858931], [-71.212912, -35.858435], [-71.217531, -35.859205], [-71.220288, -35.858718], [-71.223797, -35.859587], [-71.22782, -35.858753], [-71.231527, -35.860161], [-71.240384, -35.859478]], [[-71.240384, -35.859478], [-71.240485, -35.859435]], [[-71.240485, -35.859435], [-71.243908, -35.859648], [-71.246107, -35.860935], [-71.250136, -35.8612], [-71.252228, -35.863761], [-71.257812, -35.863483], [-71.261243, -35.864593], [-71.261881, -35.865578], [-71.261884, -35.869147], [-71.264319, -35.869252], [-71.26518, -35.869954], [-71.264727, -35.872129], [-71.266382, -35.875318], [-71.265864, -35.877276], [-71.271894, -35.884069], [-71.275984, -35.892564], [-71.275654, -35.894128], [-71.27728, -35.895391], [-71.277543, -35.896968], [-71.278838, -35.898889], [-71.280659, -35.899352], [-71.281453, -35.900923]], [[-71.281453, -35.900923], [-71.282848, -35.902794], [-71.28394, -35.903207]], [[-71.28394, -35.903207], [-71.287682, -35.903899], [-71.29234, -35.907075], [-71.298003, -35.90839], [-71.302273, -35.91023], [-71.307857, -35.910443], [-71.312106, -35.908896], [-71.316655, -35.910303], [-71.319997, -35.91232], [-71.329623, -35.911086], [-71.332625, -35.911264], [-71.335258, -35.912689], [-71.341191, -35.913649], [-71.343547, -35.915265], [-71.346803, -35.915635], [-71.350145, -35.914579], [-71.354758, -35.914779], [-71.369408, -35.918971], [-71.37231, -35.9208], [-71.378415, -35.919271], [-71.379944, -35.919896], [-71.382058, -35.919453], [-71.386408, -35.916821], [-71.388001, -35.917646], [-71.388828, -35.91901], [-71.390442, -35.919462], [-71.393693, -35.91858], [-71.397931, -35.918941], [-71.399814, -35.917451], [-71.402759, -35.916351], [-71.408848, -35.917498], [-71.410564, -35.919236], [-71.419051, -35.919614], [-71.422393, -35.921956], [-71.427146, -35.921912], [-71.433406, -35.924749], [-71.435171, -35.924514], [-71.437494, -35.925353], [-71.439924, -35.925135], [-71.442134, -35.923007], [-71.445862, -35.921456], [-71.447965, -35.922034], [-71.453308, -35.920657], [-71.455706, -35.919088], [-71.458082, -35.919214], [-71.461167, -35.916794], [-71.462004, -35.91457], [-71.464686, -35.913627], [-71.467078, -35.914792], [-71.471815, -35.911116], [-71.474009, -35.910495], [-71.479701, -35.906854], [-71.484625, -35.90933], [-71.493149, -35.908904], [-71.496464, -35.911856], [-71.499887, -35.913258], [-71.500708, -35.914909], [-71.502677, -35.915687], [-71.504409, -35.91593], [-71.50917, -35.914711], [-71.510152, -35.915115]], [[-71.522627, -35.912724], [-71.523493, -35.912359], [-71.524059, -35.910742], [-71.530464, -35.907564], [-71.536411, -35.907458], [-71.540796, -35.908364], [-71.54873, -35.906723], [-71.550608, -35.905431], [-71.551233, -35.903145], [-71.55528, -35.901633], [-71.557152, -35.898387], [-71.5597, -35.895636], [-71.5643, -35.894133], [-71.568179, -35.891521], [-71.571311, -35.890629], [-71.573699, -35.888214], [-71.574689, -35.885382], [-71.57727, -35.884552], [-71.580113, -35.882199], [-71.586849, -35.880739], [-71.593673, -35.874985], [-71.599431, -35.874783], [-71.600668, -35.87361], [-71.601269, -35.871906], [-71.606118, -35.871002], [-71.607457, -35.869228], [-71.609477, -35.868469], [-71.612194, -35.865976], [-71.61626, -35.86618], [-71.619379, -35.863426], [-71.622239, -35.864639], [-71.626481, -35.863404], [-71.632919, -35.864447], [-71.634528, -35.860935], [-71.63447, -35.857714], [-71.635065, -35.856698], [-71.638989, -35.85679], [-71.641909, -35.854552], [-71.643926, -35.853943], [-71.645235, -35.854274], [-71.647853, -35.8569], [-71.649763, -35.857317], [-71.651118, -35.856944], [-71.651931, -35.85532], [-71.655927, -35.854592], [-71.663883, -35.851355], [-71.664781, -35.851585], [-71.665648, -35.85362]]]}}