{"type": "Feature", "properties": {"id": "rio-san-pedro", "name": "Río San Pedro", "type": "river", "region": "los-rios"}, "geometry": {"type": "MultiLineString", "coordinates": [[[-72.52827, -39.750632], [-72.530901, -39.749681], [-72.535635, -39.75038], [-72.540643, -39.748725], [-72.548964, -39.749823], [-72.560446, -39.752934], [-72.562217, -39.754449], [-72.567006, -39.756587], [-72.571776, -39.756806], [-72.57715, -39.759765], [-72.580459, -39.759976], [-72.585131, -39.761603], [-72.587103, -39.761297], [-72.59077, -39.758058], [-72.599072, -39.758058], [-72.602479, -39.757278]], [[-73.774148, -42.35986], [-73.771528, -42.357898], [-73.775513, -42.354788], [-73.773345, -42.35187], [-73.776907, -42.35181], [-73.779202, -42.353676], [-73.778206, -42.356191], [-73.780063, -42.355797], [-73.78109, -42.354373], [-73.778118, -42.350816], [-73.781905, -42.349648], [-73.783333, -42.347941], [-73.78351, -42.346574], [-73.782522, -42.346039], [-73.781299, -42.347014], [-73.779819, -42.347165], [-73.778751, -42.346761], [-73.778816, -42.345948], [-73.778108, -42.345381], [-73.769117, -42.343907], [-73.768537, -42.342781], [-73.770785, -42.342403], [-73.775168, -42.340119], [-73.777598, -42.341285], [-73.774696, -42.342511], [-73.775399, -42.343228], [-73.780833, -42.340433], [-73.78146, -42.340385], [-73.781726, -42.341582], [-73.7833, -42.342337], [-73.785811, -42.341797], [-73.781798, -42.339688], [-73.776857, -42.338402], [-73.777108, -42.33554], [-73.77454, -42.335065], [-73.773515, -42.333883], [-73.773747, -42.331396], [-73.77567, -42.330708], [-73.77522, -42.329476], [-73.772095, -42.329331], [-73.767798, -42.327919], [-73.764171, -42.325694], [-73.765609, -42.324984], [-73.768098, -42.326285], [-73.771081, -42.325841], [-73.77056, -42.32452], [-73.770952, -42.319891], [-73.768914, -42.318241], [-73.76606, -42.317765], [-73.763994, -42.318227], [-73.760888, -42.316645], [-73.759005, -42.31368], [-73.7589, -42.307743], [-73.757439, -42.307689], [-73.756261, -42.309832], [-73.754237, -42.309879], [-73.749553, -42.306172], [-73.746659, -42.299786], [-73.747909, -42.298463], [-73.747694, -42.297255], [-73.748407, -42.295775], [-73.740666, -42.295158], [-73.737064, -42.29426], [-73.735692, -42.292767], [-73.73663, -42.290621], [-73.734715, -42.289918], [-73.73346, -42.287906], [-73.733857, -42.286977], [-73.736254, -42.285887], [-73.73439, -42.283728], [-73.734607, -42.282696], [-73.737595, -42.2806], [-73.739473, -42.277857], [-73.74119, -42.276715], [-73.749263, -42.277167], [-73.750953, -42.278493], [-73.753866, -42.277751], [-73.756441, -42.278977], [-73.760437, -42.278318], [-73.759032, -42.276528], [-73.760802, -42.276], [-73.760644, -42.274691], [-73.757776, -42.27184], [-73.758672, -42.270804], [-73.758493, -42.270072], [-73.754978, -42.268859], [-73.755027, -42.266343], [-73.753108, -42.263563], [-73.753121, -42.261959], [-73.754092, -42.260982], [-73.755234, -42.261339], [-73.755926, -42.262495], [-73.758247, -42.262312], [-73.757257, -42.257993], [-73.758346, -42.255389], [-73.76003, -42.255047], [-73.760148, -42.256052], [-73.761677, -42.255972], [-73.761645, -42.25436], [-73.759992, -42.252419], [-73.764419, -42.249401], [-73.767688, -42.244963], [-73.769201, -42.244935], [-73.76982, -42.245942], [-73.768318, -42.24989], [-73.770397, -42.250217], [-73.774132, -42.247134], [-73.775851, -42.244257], [-73.777401, -42.242916], [-73.775758, -42.240814], [-73.772003, -42.240136], [-73.770882, -42.239224], [-73.770563, -42.235033], [-73.772761, -42.234469], [-73.773292, -42.233691], [-73.770418, -42.232944], [-73.769875, -42.23178], [-73.77072, -42.231177], [-73.772538, -42.231744], [-73.773493, -42.23058], [-73.772814, -42.229977], [-73.770063, -42.229935], [-73.76909, -42.228579]], [[-73.789631, -41.011924], [-73.792539, -41.010311], [-73.792111, -41.007568], [-73.79425, -41.005599], [-73.793181, -41.00392], [-73.793651, -41.003468], [-73.802408, -41.003073], [-73.80259, -41.002516], [-73.807829, -41.001024], [-73.811518, -40.998982], [-73.813464, -40.997085], [-73.814308, -40.995173], [-73.816586, -40.993817], [-73.817516, -40.988983], [-73.819451, -40.988119], [-73.819804, -40.986852], [-73.823044, -40.985617], [-73.824274, -40.983664], [-73.825728, -40.98326], [-73.826198, -40.982348], [-73.829235, -40.980968], [-73.829556, -40.979918], [-73.830839, -40.979612], [-73.832362, -40.976308], [-73.836884, -40.97479], [-73.839598, -40.974647], [-73.840709, -40.973175], [-73.846296, -40.972438], [-73.847801, -40.971245], [-73.85199, -40.970686], [-73.857395, -40.968693], [-73.858522, -40.96295], [-73.860019, -40.961968], [-73.861403, -40.959787], [-73.858688, -40.958154], [-73.859596, -40.95603], [-73.859112, -40.954271], [-73.864858, -40.950988], [-73.863905, -40.947876], [-73.861191, -40.945123], [-73.86417, -40.942925], [-73.866325, -40.93915]], [[-74.000557, -42.435947], [-73.995512, -42.43277], [-73.99101, -42.432659], [-73.981097, -42.433926], [-73.97532, -42.436983], [-73.953717, -42.438376], [-73.94897, -42.437521], [-73.944786, -42.435938], [-73.935795, -42.43551], [-73.922582, -42.432548], [-73.914621, -42.43277], [-73.911016, -42.434275], [-73.892648, -42.434243], [-73.888528, -42.433657], [-73.883975, -42.42946], [-73.881142, -42.424107], [-73.882114, -42.422367], [-73.881473, -42.421671], [-73.882346, -42.421269], [-73.881519, -42.420477], [-73.882031, -42.420246], [-73.881827, -42.419627], [-73.88078, -42.418837], [-73.880995, -42.415269], [-73.883096, -42.412154], [-73.880999, -42.4112], [-73.882533, -42.410492], [-73.882407, -42.408788], [-73.881611, -42.40868], [-73.882853, -42.407682], [-73.880482, -42.406498], [-73.88068, -42.405813], [-73.879688, -42.404795], [-73.880401, -42.403915], [-73.878363, -42.403107], [-73.877966, -42.40224], [-73.878246, -42.401472], [-73.879629, -42.401876], [-73.880176, -42.400025], [-73.87876, -42.399459], [-73.878636, -42.398624], [-73.87568, -42.398318], [-73.877167, -42.396865], [-73.875376, -42.396104], [-73.876207, -42.394709], [-73.873969, -42.394658], [-73.875627, -42.393786], [-73.875782, -42.392914], [-73.874496, -42.39242], [-73.874721, -42.391489], [-73.873148, -42.39169], [-73.873443, -42.392392], [-73.872211, -42.391623], [-73.873101, -42.390839], [-73.872806, -42.389777], [-73.874425, -42.390141], [-73.873723, -42.389456], [-73.875081, -42.387677], [-73.874737, -42.386362], [-73.872596, -42.384669], [-73.868595, -42.383101], [-73.863927, -42.383809], [-73.864297, -42.386021], [-73.863707, -42.386563], [-73.862045, -42.385343], [-73.861255, -42.387185], [-73.858596, -42.386473], [-73.857281, -42.386647], [-73.855875, -42.387756], [-73.854185, -42.38734], [-73.85367, -42.386191], [-73.854571, -42.384796], [-73.854074, -42.381848], [-73.857661, -42.381242], [-73.858489, -42.379538], [-73.856294, -42.378104], [-73.856021, -42.376733], [-73.854138, -42.375389], [-73.85448, -42.373459], [-73.853323, -42.370503], [-73.854062, -42.370055], [-73.855751, -42.370994], [-73.856348, -42.369972], [-73.85315, -42.368683], [-73.852711, -42.367308], [-73.853327, -42.364672], [-73.856889, -42.365215], [-73.856996, -42.363578], [-73.852388, -42.362349], [-73.854363, -42.360776], [-73.852341, -42.359607], [-73.849997, -42.359892], [-73.849787, -42.359262], [-73.851263, -42.357494], [-73.849008, -42.355777], [-73.84543, -42.355274], [-73.846101, -42.353569], [-73.839112, -42.353439], [-73.840068, -42.35227], [-73.83917, -42.351944], [-73.836804, -42.353728], [-73.839063, -42.354517], [-73.839079, -42.356863], [-73.834187, -42.355563], [-73.830474, -42.355412], [-73.830738, -42.356443], [-73.83233, -42.357807], [-73.830631, -42.358497], [-73.830453, -42.359456], [-73.829762, -42.359749], [-73.828457, -42.357632], [-73.828715, -42.355682], [-73.821087, -42.356285], [-73.820529, -42.355682], [-73.821022, -42.353621], [-73.816409, -42.355769], [-73.812397, -42.355849], [-73.811013, -42.354683], [-73.807918, -42.358037], [-73.805337, -42.356055], [-73.803985, -42.358005], [-73.80228, -42.357458], [-73.799115, -42.353835], [-73.796535, -42.354636], [-73.794008, -42.354207], [-73.793686, -42.356475], [-73.794244, -42.357878], [-73.791808, -42.358338], [-73.791535, -42.360503], [-73.78816, -42.361707], [-73.78447, -42.360954], [-73.778107, -42.361604], [-73.774148, -42.35986]], [[-72.454745, -39.775804], [-72.459182, -39.776043], [-72.461095, -39.774835], [-72.461886, -39.772706], [-72.460001, -39.77125], [-72.459486, -39.769771], [-72.460648, -39.764612], [-72.461238, -39.763829], [-72.462657, -39.763624], [-72.466056, -39.763975], [-72.46697, -39.762387], [-72.467436, -39.75752], [-72.468274, -39.756847], [-72.473054, -39.755917], [-72.478585, -39.751291], [-72.48605, -39.750596], [-72.488011, -39.748553], [-72.489477, -39.744878], [-72.491696, -39.743678], [-72.492781, -39.743612], [-72.499769, -39.747726], [-72.502407, -39.748041], [-72.505045, -39.747891], [-72.510661, -39.745623], [-72.512845, -39.746439], [-72.518558, -39.745676], [-72.52028, -39.746476], [-72.522914, -39.750853], [-72.524346, -39.752061], [-72.526229, -39.752127], [-72.52827, -39.750632]], [[-72.602479, -39.757278], [-72.606433, -39.757577], [-72.612982, -39.755635], [-72.615639, -39.754201], [-72.620846, -39.753271], [-72.625188, -39.751456], [-72.627225, -39.748652], [-72.629406, -39.748074], [-72.633555, -39.748959], [-72.641545, -39.747232], [-72.646574, -39.748036], [-72.650163, -39.74792], [-72.654426, -39.745496], [-72.656397, -39.745307], [-72.661843, -39.746463], [-72.665179, -39.748923], [-72.66759, -39.749352], [-72.673573, -39.748162], [-72.675403, -39.748559], [-72.676862, -39.75044], [-72.67743, -39.754709], [-72.67845, -39.756861], [-72.680628, -39.758115], [-72.687805, -39.759286], [-72.693856, -39.770358], [-72.701088, -39.774456], [-72.710124, -39.782119], [-72.711934, -39.786568], [-72.71179, -39.790418], [-72.71438, -39.7967], [-72.716543, -39.798349], [-72.719815, -39.799416], [-72.72431, -39.802594], [-72.729084, -39.812649], [-72.729835, -39.816167], [-72.732099, -39.819851], [-72.732689, -39.829335], [-72.734821, -39.83589], [-72.735268, -39.840664], [-72.737306, -39.845291], [-72.740448, -39.84736], [-72.746855, -39.849144], [-72.754615, -39.8532], [-72.757623, -39.853025], [-72.759479, -39.852182]], [[-71.002214, -53.713765], [-71.002514, -53.713117], [-71.001699, -53.711898], [-71.002536, -53.708736], [-70.998352, -53.704379], [-70.992558, -53.702143], [-70.987043, -53.700962], [-70.984576, -53.701242], [-70.978868, -53.700289], [-70.975714, -53.701064], [-70.975263, -53.700086], [-70.973353, -53.699298], [-70.969641, -53.698993], [-70.969341, -53.698282], [-70.967273, -53.698042]]]}}