{"type": "Feature", "properties": {"id": "rio-ventisquero", "name": "Río Ventisquero", "type": "river", "region": "los-lagos"}, "geometry": {"type": "MultiLineString", "coordinates": [[[-72.281059, -42.046707], [-72.277488, -42.045606], [-72.271783, -42.045273], [-72.271169, -42.04334], [-72.265647, -42.042785], [-72.264983, -42.041911], [-72.261584, -42.041344], [-72.256359, -42.039337], [-72.254204, -42.039928], [-72.248548, -42.039472], [-72.244286, -42.042157], [-72.236359, -42.041357], [-72.232511, -42.043795], [-72.229294, -42.044177], [-72.223605, -42.043331], [-72.221436, -42.041964], [-72.216663, -42.042504], [-72.212875, -42.041694], [-72.204553, -42.043767], [-72.196321, -42.043837], [-72.195031, -42.044325], [-72.193381, -42.044118], [-72.19149, -42.042761], [-72.183936, -42.043082], [-72.183089, -42.041341], [-72.182043, -42.041002], [-72.177896, -42.042612], [-72.177311, -42.04507], [-72.175991, -42.046345], [-72.168058, -42.047366], [-72.166043, -42.047201], [-72.165139, -42.046461], [-72.162344, -42.046913], [-72.15934, -42.045998], [-72.159287, -42.043429], [-72.157123, -42.041446], [-72.155398, -42.04074], [-72.15256, -42.040596], [-72.13924, -42.042508], [-72.13976, -42.038261], [-72.142287, -42.035831], [-72.139776, -42.034197], [-72.132828, -42.035321], [-72.129621, -42.031415], [-72.120865, -42.032361], [-72.118398, -42.032073], [-72.116425, -42.029442], [-72.116713, -42.028661], [-72.12128, -42.028563], [-72.121764, -42.02712], [-72.123489, -42.025361], [-72.117162, -42.021529], [-72.115562, -42.022166], [-72.11414, -42.025212], [-72.111403, -42.026156], [-72.109376, -42.025069], [-72.107888, -42.020801], [-72.106436, -42.020281], [-72.104339, -42.020604], [-72.098143, -42.023108], [-72.093777, -42.026567], [-72.089335, -42.027826], [-72.087361, -42.026559], [-72.086459, -42.022646], [-72.085869, -42.022152], [-72.084249, -42.022215], [-72.081149, -42.023554], [-72.078992, -42.023499], [-72.075205, -42.019067], [-72.074304, -42.018852], [-72.070355, -42.018971], [-72.065871, -42.019984], [-72.062244, -42.019298], [-72.059004, -42.020111], [-72.055989, -42.019258], [-72.050314, -42.018955], [-72.0479, -42.016867], [-72.042643, -42.016469], [-72.038727, -42.015113], [-72.037171, -42.013846], [-72.035959, -42.011622], [-72.029135, -42.009278], [-72.021797, -42.010171], [-72.020466, -42.011104], [-72.020327, -42.01285], [-72.019383, -42.013854], [-72.015359, -42.015241], [-72.012157, -42.0156], [-72.007656, -42.013985], [-72.001358, -42.013296], [-71.998113, -42.015631], [-71.997045, -42.017772], [-71.991284, -42.019163], [-71.98902, -42.018613], [-71.987947, -42.015273], [-71.987277, -42.014898], [-71.979525, -42.015193], [-71.97739, -42.016763], [-71.976564, -42.020223], [-71.975861, -42.020948], [-71.967799, -42.021586], [-71.963829, -42.023738], [-71.957778, -42.023626], [-71.955643, -42.022383], [-71.954119, -42.020212], [-71.95093, -42.019601], [-71.949181, -42.016985], [-71.945236, -42.016995], [-71.94324, -42.016293], [-71.94132, -42.010442], [-71.936996, -42.006871], [-71.933536, -42.00115], [-71.932801, -41.995661], [-71.930687, -41.991574], [-71.925135, -41.984672]], [[-72.557257, -48.19505], [-72.557876, -48.19549], [-72.557745, -48.198412], [-72.560733, -48.19961], [-72.563013, -48.201933], [-72.562593, -48.20496], [-72.564247, -48.207252], [-72.563538, -48.211328], [-72.563926, -48.21346], [-72.565641, -48.215637], [-72.567343, -48.216698], [-72.567031, -48.2182], [-72.568019, -48.219267], [-72.566977, -48.222568], [-72.565438, -48.223418], [-72.564835, -48.225142], [-72.566395, -48.226738], [-72.565443, -48.229233], [-72.566666, -48.230162], [-72.566553, -48.233106], [-72.568506, -48.235039], [-72.568418, -48.237168], [-72.567471, -48.237862], [-72.56837, -48.240542], [-72.568094, -48.241407], [-72.56569, -48.242521], [-72.565727, -48.244957], [-72.565049, -48.246075], [-72.565876, -48.248103], [-72.565298, -48.249112], [-72.566886, -48.249983], [-72.566398, -48.250634], [-72.56694, -48.252959], [-72.566425, -48.253816], [-72.567858, -48.255515], [-72.567621, -48.256529], [-72.569305, -48.259545], [-72.568265, -48.260113], [-72.5682, -48.26187], [-72.565442, -48.26172], [-72.566526, -48.26322], [-72.563413, -48.266616], [-72.564674, -48.269553], [-72.566575, -48.27013], [-72.565244, -48.27159], [-72.566852, -48.273347]], [[-73.251351, -47.506375], [-73.247241, -47.509577], [-73.250612, -47.513618], [-73.248505, -47.515611], [-73.245134, -47.516578], [-73.241258, -47.524545], [-73.237971, -47.52796], [-73.234264, -47.530179], [-73.229966, -47.531089], [-73.227606, -47.533308], [-73.226848, -47.536494], [-73.214409, -47.544235], [-73.210788, -47.544185], [-73.208605, -47.545369], [-73.20214, -47.545152], [-73.19779, -47.543218], [-73.193895, -47.54329], [-73.189244, -47.541299], [-73.1777, -47.541433], [-73.169315, -47.539857], [-73.165898, -47.538579], [-73.162873, -47.538706], [-73.16188, -47.539039], [-73.160711, -47.540937], [-73.156511, -47.541483], [-73.152391, -47.543218], [-73.148512, -47.543279], [-73.145353, -47.542345], [-73.141699, -47.543949], [-73.132199, -47.544417], [-73.131362, -47.545184], [-73.130686, -47.547429], [-73.12809, -47.548812], [-73.124388, -47.549377], [-73.120698, -47.554037], [-73.115489, -47.554703], [-73.114051, -47.555453], [-73.109492, -47.561487], [-73.108842, -47.564256], [-73.104529, -47.567568], [-73.099358, -47.56535], [-73.094391, -47.56178], [-73.089874, -47.561194], [-73.085829, -47.559167], [-73.083651, -47.559891], [-73.080754, -47.56249], [-73.076956, -47.563395]]]}}