{"type": "Feature", "properties": {"id": "rio-quepe", "name": "Río Quepe", "type": "river", "region": "araucania"}, "geometry": {"type": "MultiLineString", "coordinates": [[[-72.562685, -38.852201], [-72.564942, -38.854859], [-72.565232, -38.856118], [-72.567357, -38.856415], [-72.574258, -38.855156], [-72.577091, -38.857306], [-72.577618, -38.860502], [-72.585337, -38.861379], [-72.588934, -38.862593]], [[-72.588934, -38.862593], [-72.599051, -38.863149], [-72.603123, -38.861904], [-72.603638, -38.859022], [-72.601036, -38.854464], [-72.601224, -38.853315], [-72.602001, -38.852764], [-72.604893, -38.852563], [-72.61096, -38.854794], [-72.618808, -38.853963], [-72.622848, -38.851916], [-72.624076, -38.84966], [-72.625294, -38.841976], [-72.626211, -38.839678], [-72.62612, -38.837493], [-72.627659, -38.836131], [-72.632739, -38.837063], [-72.634869, -38.836595], [-72.635577, -38.833983], [-72.635459, -38.830458], [-72.634638, -38.82948], [-72.632954, -38.829474], [-72.632243, -38.828734], [-72.63388, -38.826741], [-72.636556, -38.82541], [-72.637973, -38.826369], [-72.638533, -38.830444], [-72.640252, -38.83223], [-72.641982, -38.832414], [-72.644375, -38.828563], [-72.647626, -38.828632], [-72.652862, -38.833011], [-72.654099, -38.837097], [-72.656733, -38.838159], [-72.658548, -38.837642], [-72.668357, -38.831144], [-72.669992, -38.830649], [-72.674755, -38.831261], [-72.677583, -38.834775], [-72.683774, -38.837828], [-72.684899, -38.837858], [-72.686526, -38.837707], [-72.688927, -38.836223], [-72.695346, -38.833898], [-72.697764, -38.831875], [-72.703719, -38.831505], [-72.708643, -38.833735], [-72.710612, -38.835954], [-72.710653, -38.838916], [-72.708185, -38.842238], [-72.706853, -38.842687], [-72.706874, -38.844253], [-72.709121, -38.844107], [-72.712303, -38.845591], [-72.714811, -38.8459], [-72.719925, -38.844417], [-72.721363, -38.843036], [-72.721885, -38.84155], [-72.720887, -38.838113], [-72.725097, -38.838153], [-72.728076, -38.837079], [-72.732909, -38.83802], [-72.736225, -38.83621], [-72.738569, -38.83568], [-72.755435, -38.836256], [-72.76589, -38.838258], [-72.771893, -38.8414], [-72.775079, -38.841922], [-72.778571, -38.841563], [-72.787305, -38.838299], [-72.789166, -38.833937], [-72.790196, -38.833118], [-72.793538, -38.83265], [-72.80373, -38.833369], [-72.813311, -38.826392]], [[-72.813311, -38.826392], [-72.814964, -38.82094], [-72.815854, -38.819791], [-72.822045, -38.81814], [-72.825842, -38.815486], [-72.82786, -38.812363], [-72.830038, -38.811068], [-72.840616, -38.808459]], [[-72.840616, -38.808459], [-72.845932, -38.805562], [-72.848228, -38.80501], [-72.856607, -38.806708], [-72.858957, -38.805512], [-72.860502, -38.803647], [-72.861918, -38.803393], [-72.863651, -38.803769], [-72.86731, -38.806055], [-72.870587, -38.805926], [-72.874331, -38.8068], [-72.880812, -38.804739], [-72.885152, -38.805892], [-72.8876, -38.80575], [-72.894523, -38.803677], [-72.901701, -38.798125], [-72.903176, -38.797853], [-72.905193, -38.798451], [-72.908771, -38.797393], [-72.918256, -38.792832], [-72.923571, -38.788681], [-72.925342, -38.785818], [-72.924821, -38.784467], [-72.925181, -38.782836], [-72.927227, -38.780931], [-72.937498, -38.780474]], [[-72.452404, -38.820305], [-72.454051, -38.820597], [-72.454995, -38.821889], [-72.45941, -38.8241], [-72.461169, -38.823803], [-72.463181, -38.821968], [-72.468481, -38.822545], [-72.468851, -38.82308], [-72.466995, -38.825094], [-72.468658, -38.827995], [-72.473438, -38.832186], [-72.473829, -38.828981], [-72.475138, -38.828112], [-72.476324, -38.830477], [-72.480015, -38.832896], [-72.482069, -38.838538], [-72.484714, -38.841295], [-72.485889, -38.841329], [-72.49062, -38.839298], [-72.492267, -38.839419], [-72.494375, -38.835947], [-72.496816, -38.835111], [-72.499509, -38.835304], [-72.501719, -38.836365], [-72.502749, -38.837618], [-72.502706, -38.839373], [-72.501183, -38.841742], [-72.502803, -38.843543], [-72.503918, -38.843401], [-72.505372, -38.842056], [-72.515929, -38.842545], [-72.516541, -38.843894], [-72.514486, -38.84511], [-72.516756, -38.84628], [-72.52058, -38.847065], [-72.520961, -38.850428], [-72.524557, -38.850855], [-72.526226, -38.852337], [-72.527618, -38.85243], [-72.529782, -38.851252], [-72.53324, -38.851811], [-72.532366, -38.855354], [-72.533267, -38.85626], [-72.538009, -38.851899], [-72.543234, -38.851147], [-72.546024, -38.849259], [-72.547479, -38.850094], [-72.54659, -38.852318], [-72.547256, -38.854184], [-72.548767, -38.853973], [-72.555982, -38.849311], [-72.557676, -38.849086], [-72.559169, -38.849212], [-72.562685, -38.852201]], [[-72.379489, -38.737687], [-72.379083, -38.739235], [-72.382162, -38.739331], [-72.382447, -38.740507], [-72.388498, -38.743147], [-72.393492, -38.747599], [-72.393465, -38.748502], [-72.39229, -38.748561], [-72.388327, -38.746673], [-72.38278, -38.745938], [-72.382284, -38.746983], [-72.384535, -38.748299], [-72.385405, -38.750869], [-72.390335, -38.752989], [-72.392639, -38.755811], [-72.394296, -38.756681], [-72.397714, -38.756551], [-72.402445, -38.754443], [-72.403647, -38.754728], [-72.403995, -38.758363], [-72.402547, -38.761257], [-72.405363, -38.763161], [-72.412257, -38.764436], [-72.415019, -38.767285], [-72.41547, -38.769079], [-72.414361, -38.771967], [-72.416798, -38.772925], [-72.417469, -38.773689], [-72.417348, -38.774617], [-72.413149, -38.776075], [-72.412798, -38.777097], [-72.41473, -38.778476], [-72.417308, -38.779149], [-72.419152, -38.780687], [-72.420137, -38.784436], [-72.419456, -38.786271], [-72.417809, -38.787129], [-72.41326, -38.786372], [-72.412938, -38.78909], [-72.414858, -38.793175], [-72.424074, -38.796432], [-72.421092, -38.798589]], [[-72.020879, -38.692976], [-72.022569, -38.693015], [-72.025723, -38.691756], [-72.028148, -38.692326], [-72.028966, -38.69133], [-72.030311, -38.692021], [-72.031859, -38.695295], [-72.033381, -38.694996], [-72.033266, -38.693212], [-72.033967, -38.692931], [-72.035339, -38.694687], [-72.037109, -38.695], [-72.03754, -38.694056], [-72.038968, -38.6948], [-72.039844, -38.693436], [-72.041569, -38.694052], [-72.042928, -38.69296], [-72.044183, -38.693163], [-72.04558, -38.692164], [-72.048573, -38.692073], [-72.049674, -38.690452], [-72.052872, -38.688705], [-72.058361, -38.689484], [-72.059037, -38.68922], [-72.059396, -38.687947], [-72.059922, -38.689241], [-72.062105, -38.689513], [-72.061617, -38.688282], [-72.064299, -38.687578], [-72.066101, -38.688717], [-72.069046, -38.689396], [-72.06954, -38.690752], [-72.073966, -38.694604], [-72.076938, -38.695513], [-72.077356, -38.697058], [-72.082849, -38.699586], [-72.083482, -38.701048], [-72.082162, -38.701127], [-72.080923, -38.702241], [-72.08198, -38.703564], [-72.083412, -38.703764], [-72.086196, -38.705904], [-72.085317, -38.70672], [-72.088192, -38.705765], [-72.089104, -38.706724], [-72.089093, -38.70806], [-72.09125, -38.708319], [-72.092623, -38.707917], [-72.092993, -38.706184], [-72.094227, -38.706427], [-72.096883, -38.709307], [-72.096019, -38.709809], [-72.095198, -38.712254], [-72.097607, -38.713146], [-72.099699, -38.713079], [-72.100761, -38.71145], [-72.10274, -38.710441], [-72.103819, -38.710291], [-72.104854, -38.710969], [-72.108738, -38.709014], [-72.11297, -38.707892], [-72.11422, -38.705464], [-72.115164, -38.705506], [-72.115862, -38.707051], [-72.117256, -38.707511], [-72.118378, -38.705874], [-72.120856, -38.70577], [-72.123951, -38.703806], [-72.125121, -38.703882], [-72.125823, -38.705016], [-72.129203, -38.704397], [-72.130249, -38.703245], [-72.132465, -38.702906], [-72.137967, -38.70362], [-72.137852, -38.705154], [-72.139238, -38.707426], [-72.143001, -38.708824], [-72.145992, -38.707743], [-72.148421, -38.707681], [-72.156736, -38.71017], [-72.159217, -38.711504], [-72.162419, -38.714735], [-72.163671, -38.712998], [-72.165861, -38.712291], [-72.166503, -38.710771], [-72.168346, -38.709063], [-72.172163, -38.709648], [-72.173744, -38.709255], [-72.175534, -38.707235], [-72.175375, -38.705381], [-72.17663, -38.704923], [-72.177777, -38.70609], [-72.180022, -38.702424], [-72.183171, -38.70353], [-72.184746, -38.70253], [-72.187362, -38.703552], [-72.187282, -38.704364], [-72.189978, -38.703844], [-72.193687, -38.701507], [-72.196677, -38.701174], [-72.199613, -38.699591], [-72.203484, -38.698737], [-72.209731, -38.694676], [-72.209571, -38.692613], [-72.212478, -38.693093], [-72.214747, -38.692051], [-72.219151, -38.69126], [-72.221446, -38.689593], [-72.223528, -38.689947], [-72.224222, -38.689801], [-72.224382, -38.68903], [-72.226966, -38.689169], [-72.22764, -38.688315], [-72.229114, -38.681845], [-72.230208, -38.680229], [-72.233167, -38.680425], [-72.237422, -38.677917], [-72.238387, -38.678918], [-72.240539, -38.678126], [-72.24496, -38.680334], [-72.247911, -38.677923], [-72.251001, -38.677133], [-72.24932, -38.674356], [-72.249819, -38.67332], [-72.252134, -38.674124], [-72.252662, -38.676669], [-72.25476, -38.676977], [-72.255784, -38.678461], [-72.256581, -38.678598], [-72.259844, -38.677698], [-72.26307, -38.675108], [-72.269655, -38.674303], [-72.272467, -38.672985], [-72.272818, -38.671557], [-72.273627, -38.671278], [-72.277531, -38.673329], [-72.281288, -38.67375], [-72.282444, -38.67503], [-72.283553, -38.679076], [-72.284632, -38.680426], [-72.285617, -38.680304], [-72.285876, -38.678335], [-72.286629, -38.678108], [-72.287696, -38.679175], [-72.288869, -38.679063], [-72.29207, -38.681851], [-72.298926, -38.685048], [-72.306949, -38.68617], [-72.307683, -38.687067], [-72.307108, -38.689011], [-72.311971, -38.688161], [-72.315367, -38.688347], [-72.318213, -38.686634], [-72.31944, -38.686957], [-72.319884, -38.687777], [-72.318124, -38.689225], [-72.317871, -38.690219], [-72.320703, -38.691154], [-72.323497, -38.690239], [-72.325312, -38.693078], [-72.328511, -38.694498], [-72.328739, -38.697115], [-72.330839, -38.698729], [-72.330828, -38.701665], [-72.333927, -38.70248], [-72.333, -38.706002], [-72.334421, -38.707652], [-72.336921, -38.708928], [-72.337288, -38.711866], [-72.342842, -38.712833], [-72.347984, -38.712078], [-72.348034, -38.713599], [-72.350049, -38.716814], [-72.353424, -38.718612], [-72.354544, -38.717496], [-72.35579, -38.717325], [-72.356103, -38.717822], [-72.354906, -38.719465], [-72.35814, -38.722144], [-72.362593, -38.723944], [-72.371321, -38.725635], [-72.373445, -38.726618], [-72.373601, -38.727635], [-72.370983, -38.728439], [-72.372791, -38.729744], [-72.373676, -38.732644], [-72.375226, -38.732711], [-72.378176, -38.730092], [-72.381406, -38.731925], [-72.381696, -38.733908], [-72.380886, -38.73436], [-72.377828, -38.732996], [-72.375183, -38.734243], [-72.375435, -38.735624], [-72.378981, -38.736293], [-72.379489, -38.737687]], [[-72.421092, -38.798589], [-72.423082, -38.803418], [-72.424294, -38.803037], [-72.425909, -38.800424]], [[-72.425909, -38.800424], [-72.426837, -38.800291], [-72.42821, -38.802711], [-72.430764, -38.803171], [-72.431343, -38.80603], [-72.432556, -38.807761], [-72.433215, -38.811498], [-72.434428, -38.812568], [-72.435093, -38.812848], [-72.437201, -38.810482], [-72.438017, -38.810474], [-72.44359, -38.817028], [-72.445366, -38.817785], [-72.447614, -38.816255], [-72.452404, -38.820305]], [[-72.840616, -38.808459], [-72.845932, -38.805562], [-72.848228, -38.80501], [-72.856607, -38.806708], [-72.858957, -38.805512], [-72.860502, -38.803647], [-72.861918, -38.803393], [-72.863651, -38.803769], [-72.86731, -38.806055], [-72.870587, -38.805926], [-72.874331, -38.8068], [-72.880812, -38.804739], [-72.885152, -38.805892], [-72.8876, -38.80575], [-72.894523, -38.803677], [-72.901701, -38.798125], [-72.903176, -38.797853], [-72.905193, -38.798451], [-72.908771, -38.797393], [-72.918256, -38.792832], [-72.923571, -38.788681], [-72.925342, -38.785818], [-72.924821, -38.784467], [-72.925181, -38.782836], [-72.927227, -38.780931], [-72.937498, -38.780474]], [[-72.813311, -38.826392], [-72.814964, -38.82094], [-72.815854, -38.819791], [-72.822045, -38.81814], [-72.825842, -38.815486], [-72.82786, -38.812363], [-72.830038, -38.811068], [-72.840616, -38.808459]], [[-72.588934, -38.862593], [-72.599051, -38.863149], [-72.603123, -38.861904], [-72.603638, -38.859022], [-72.601036, -38.854464], [-72.601224, -38.853315], [-72.602001, -38.852764], [-72.604893, -38.852563], [-72.61096, -38.854794], [-72.618808, -38.853963], [-72.622848, -38.851916], [-72.624076, -38.84966], [-72.625294, -38.841976], [-72.626211, -38.839678], [-72.62612, -38.837493], [-72.627659, -38.836131], [-72.632739, -38.837063], [-72.634869, -38.836595], [-72.635577, -38.833983], [-72.635459, -38.830458], [-72.634638, -38.82948], [-72.632954, -38.829474], [-72.632243, -38.828734], [-72.63388, -38.826741], [-72.636556, -38.82541], [-72.637973, -38.826369], [-72.638533, -38.830444], [-72.640252, -38.83223], [-72.641982, -38.832414], [-72.644375, -38.828563], [-72.647626, -38.828632], [-72.652862, -38.833011], [-72.654099, -38.837097], [-72.656733, -38.838159], [-72.658548, -38.837642], [-72.668357, -38.831144], [-72.669992, -38.830649], [-72.674755, -38.831261], [-72.677583, -38.834775], [-72.683774, -38.837828], [-72.684899, -38.837858], [-72.686526, -38.837707], [-72.688927, -38.836223], [-72.695346, -38.833898], [-72.697764, -38.831875], [-72.703719, -38.831505], [-72.708643, -38.833735], [-72.710612, -38.835954], [-72.710653, -38.838916], [-72.708185, -38.842238], [-72.706853, -38.842687], [-72.706874, -38.844253], [-72.709121, -38.844107], [-72.712303, -38.845591], [-72.714811, -38.8459], [-72.719925, -38.844417], [-72.721363, -38.843036], [-72.721885, -38.84155], [-72.720887, -38.838113], [-72.725097, -38.838153], [-72.728076, -38.837079], [-72.732909, -38.83802], [-72.736225, -38.83621], [-72.738569, -38.83568], [-72.755435, -38.836256], [-72.76589, -38.838258], [-72.771893, -38.8414], [-72.775079, -38.841922], [-72.778571, -38.841563], [-72.787305, -38.838299], [-72.789166, -38.833937], [-72.790196, -38.833118], [-72.793538, -38.83265], [-72.80373, -38.833369], [-72.813311, -38.826392]], [[-72.562685, -38.852201], [-72.564942, -38.854859], [-72.565232, -38.856118], [-72.567357, -38.856415], [-72.574258, -38.855156], [-72.577091, -38.857306], [-72.577618, -38.860502], [-72.585337, -38.861379], [-72.588934, -38.862593]], [[-72.452404, -38.820305], [-72.454051, -38.820597], [-72.454995, -38.821889], [-72.45941, -38.8241], [-72.461169, -38.823803], [-72.463181, -38.821968], [-72.468481, -38.822545], [-72.468851, -38.82308], [-72.466995, -38.825094], [-72.468658, -38.827995], [-72.473438, -38.832186], [-72.473829, -38.828981], [-72.475138, -38.828112], [-72.476324, -38.830477], [-72.480015, -38.832896], [-72.482069, -38.838538], [-72.484714, -38.841295], [-72.485889, -38.841329], [-72.49062, -38.839298], [-72.492267, -38.839419], [-72.494375, -38.835947], [-72.496816, -38.835111], [-72.499509, -38.835304], [-72.501719, -38.836365], [-72.502749, -38.837618], [-72.502706, -38.839373], [-72.501183, -38.841742], [-72.502803, -38.843543], [-72.503918, -38.843401], [-72.505372, -38.842056], [-72.515929, -38.842545], [-72.516541, -38.843894], [-72.514486, -38.84511], [-72.516756, -38.84628], [-72.52058, -38.847065], [-72.520961, -38.850428], [-72.524557, -38.850855], [-72.526226, -38.852337], [-72.527618, -38.85243], [-72.529782, -38.851252], [-72.53324, -38.851811], [-72.532366, -38.855354], [-72.533267, -38.85626], [-72.538009, -38.851899], [-72.543234, -38.851147], [-72.546024, -38.849259], [-72.547479, -38.850094], [-72.54659, -38.852318], [-72.547256, -38.854184], [-72.548767, -38.853973], [-72.555982, -38.849311], [-72.557676, -38.849086], [-72.559169, -38.849212], [-72.562685, -38.852201]], [[-72.425909, -38.800424], [-72.426837, -38.800291], [-72.42821, -38.802711], [-72.430764, -38.803171], [-72.431343, -38.80603], [-72.432556, -38.807761], [-72.433215, -38.811498], [-72.434428, -38.812568], [-72.435093, -38.812848], [-72.437201, -38.810482], [-72.438017, -38.810474], [-72.44359, -38.817028], [-72.445366, -38.817785], [-72.447614, -38.816255], [-72.452404, -38.820305]], [[-72.421092, -38.798589], [-72.423082, -38.803418], [-72.424294, -38.803037], [-72.425909, -38.800424]], [[-72.379489, -38.737687], [-72.379083, -38.739235], [-72.382162, -38.739331], [-72.382447, -38.740507], [-72.388498, -38.743147], [-72.393492, -38.747599], [-72.393465, -38.748502], [-72.39229, -38.748561], [-72.388327, -38.746673], [-72.38278, -38.745938], [-72.382284, -38.746983], [-72.384535, -38.748299], [-72.385405, -38.750869], [-72.390335, -38.752989], [-72.392639, -38.755811], [-72.394296, -38.756681], [-72.397714, -38.756551], [-72.402445, -38.754443], [-72.403647, -38.754728], [-72.403995, -38.758363], [-72.402547, -38.761257], [-72.405363, -38.763161], [-72.412257, -38.764436], [-72.415019, -38.767285], [-72.41547, -38.769079], [-72.414361, -38.771967], [-72.416798, -38.772925], [-72.417469, -38.773689], [-72.417348, -38.774617], [-72.413149, -38.776075], [-72.412798, -38.777097], [-72.41473, -38.778476], [-72.417308, -38.779149], [-72.419152, -38.780687], [-72.420137, -38.784436], [-72.419456, -38.786271], [-72.417809, -38.787129], [-72.41326, -38.786372], [-72.412938, -38.78909], [-72.414858, -38.793175], [-72.424074, -38.796432], [-72.421092, -38.798589]], [[-72.020879, -38.692976], [-72.022569, -38.693015], [-72.025723, -38.691756], [-72.028148, -38.692326], [-72.028966, -38.69133], [-72.030311, -38.692021], [-72.031859, -38.695295], [-72.033381, -38.694996], [-72.033266, -38.693212], [-72.033967, -38.692931], [-72.035339, -38.694687], [-72.037109, -38.695], [-72.03754, -38.694056], [-72.038968, -38.6948], [-72.039844, -38.693436], [-72.041569, -38.694052], [-72.042928, -38.69296], [-72.044183, -38.693163], [-72.04558, -38.692164], [-72.048573, -38.692073], [-72.049674, -38.690452], [-72.052872, -38.688705], [-72.058361, -38.689484], [-72.059037, -38.68922], [-72.059396, -38.687947], [-72.059922, -38.689241], [-72.062105, -38.689513], [-72.061617, -38.688282], [-72.064299, -38.687578], [-72.066101, -38.688717], [-72.069046, -38.689396], [-72.06954, -38.690752], [-72.073966, -38.694604], [-72.076938, -38.695513], [-72.077356, -38.697058], [-72.082849, -38.699586], [-72.083482, -38.701048], [-72.082162, -38.701127], [-72.080923, -38.702241], [-72.08198, -38.703564], [-72.083412, -38.703764], [-72.086196, -38.705904], [-72.085317, -38.70672], [-72.088192, -38.705765], [-72.089104, -38.706724], [-72.089093, -38.70806], [-72.09125, -38.708319], [-72.092623, -38.707917], [-72.092993, -38.706184], [-72.094227, -38.706427], [-72.096883, -38.709307], [-72.096019, -38.709809], [-72.095198, -38.712254], [-72.097607, -38.713146], [-72.099699, -38.713079], [-72.100761, -38.71145], [-72.10274, -38.710441], [-72.103819, -38.710291], [-72.104854, -38.710969], [-72.108738, -38.709014], [-72.11297, -38.707892], [-72.11422, -38.705464], [-72.115164, -38.705506], [-72.115862, -38.707051], [-72.117256, -38.707511], [-72.118378, -38.705874], [-72.120856, -38.70577], [-72.123951, -38.703806], [-72.125121, -38.703882], [-72.125823, -38.705016], [-72.129203, -38.704397], [-72.130249, -38.703245], [-72.132465, -38.702906], [-72.137967, -38.70362], [-72.137852, -38.705154], [-72.139238, -38.707426], [-72.143001, -38.708824], [-72.145992, -38.707743], [-72.148421, -38.707681], [-72.156736, -38.71017], [-72.159217, -38.711504], [-72.162419, -38.714735], [-72.163671, -38.712998], [-72.165861, -38.712291], [-72.166503, -38.710771], [-72.168346, -38.709063], [-72.172163, -38.709648], [-72.173744, -38.709255], [-72.175534, -38.707235], [-72.175375, -38.705381], [-72.17663, -38.704923], [-72.177777, -38.70609], [-72.180022, -38.702424], [-72.183171, -38.70353], [-72.184746, -38.70253], [-72.187362, -38.703552], [-72.187282, -38.704364], [-72.189978, -38.703844], [-72.193687, -38.701507], [-72.196677, -38.701174], [-72.199613, -38.699591], [-72.203484, -38.698737], [-72.209731, -38.694676], [-72.209571, -38.692613], [-72.212478, -38.693093], [-72.214747, -38.692051], [-72.219151, -38.69126], [-72.221446, -38.689593], [-72.223528, -38.689947], [-72.224222, -38.689801], [-72.224382, -38.68903], [-72.226966, -38.689169], [-72.22764, -38.688315], [-72.229114, -38.681845], [-72.230208, -38.680229], [-72.233167, -38.680425], [-72.237422, -38.677917], [-72.238387, -38.678918], [-72.240539, -38.678126], [-72.24496, -38.680334], [-72.247911, -38.677923], [-72.251001, -38.677133], [-72.24932, -38.674356], [-72.249819, -38.67332], [-72.252134, -38.674124], [-72.252662, -38.676669], [-72.25476, -38.676977], [-72.255784, -38.678461], [-72.256581, -38.678598], [-72.259844, -38.677698], [-72.26307, -38.675108], [-72.269655, -38.674303], [-72.272467, -38.672985], [-72.272818, -38.671557], [-72.273627, -38.671278], [-72.277531, -38.673329], [-72.281288, -38.67375], [-72.282444, -38.67503], [-72.283553, -38.679076], [-72.284632, -38.680426], [-72.285617, -38.680304], [-72.285876, -38.678335], [-72.286629, -38.678108], [-72.287696, -38.679175], [-72.288869, -38.679063], [-72.29207, -38.681851], [-72.298926, -38.685048], [-72.306949, -38.68617], [-72.307683, -38.687067], [-72.307108, -38.689011], [-72.311971, -38.688161], [-72.315367, -38.688347], [-72.318213, -38.686634], [-72.31944, -38.686957], [-72.319884, -38.687777], [-72.318124, -38.689225], [-72.317871, -38.690219], [-72.320703, -38.691154], [-72.323497, -38.690239], [-72.325312, -38.693078], [-72.328511, -38.694498], [-72.328739, -38.697115], [-72.330839, -38.698729], [-72.330828, -38.701665], [-72.333927, -38.70248], [-72.333, -38.706002], [-72.334421, -38.707652], [-72.336921, -38.708928], [-72.337288, -38.711866], [-72.342842, -38.712833], [-72.347984, -38.712078], [-72.348034, -38.713599], [-72.350049, -38.716814], [-72.353424, -38.718612], [-72.354544, -38.717496], [-72.35579, -38.717325], [-72.356103, -38.717822], [-72.354906, -38.719465], [-72.35814, -38.722144], [-72.362593, -38.723944], [-72.371321, -38.725635], [-72.373445, -38.726618], [-72.373601, -38.727635], [-72.370983, -38.728439], [-72.372791, -38.729744], [-72.373676, -38.732644], [-72.375226, -38.732711], [-72.378176, -38.730092], [-72.381406, -38.731925], [-72.381696, -38.733908], [-72.380886, -38.73436], [-72.377828, -38.732996], [-72.375183, -38.734243], [-72.375435, -38.735624], [-72.378981, -38.736293], [-72.379489, -38.737687]]]}}