{"type": "Feature", "properties": {"id": "rio-conaripe", "name": "Río Coñaripe", "type": "river", "region": "los-rios"}, "geometry": {"type": "MultiLineString", "coordinates": [[[-71.982374, -39.601652], [-71.985927, -39.601211], [-71.993096, -39.602344], [-71.995393, -39.601332], [-71.995188, -39.600298], [-71.997311, -39.599303], [-71.998124, -39.598299], [-71.998245, -39.596597], [-71.999547, -39.596378], [-72.000278, -39.595326], [-72.005414, -39.59585], [-72.006443, -39.594539], [-72.010235, -39.593145], [-72.0107, -39.59152], [-72.012262, -39.590504], [-72.012827, -39.588134], [-72.015276, -39.587471], [-72.017547, -39.58442], [-72.024463, -39.584207], [-72.025183, -39.582842], [-72.024672, -39.581006]], [[-71.857811, -39.499599], [-71.858299, -39.501044], [-71.857893, -39.505779], [-71.859202, -39.508428], [-71.861865, -39.511704], [-71.867047, -39.513699], [-71.870587, -39.516273], [-71.872247, -39.516705], [-71.874833, -39.51553], [-71.882847, -39.515405], [-71.885007, -39.514303], [-71.885465, -39.512682], [-71.887074, -39.511872], [-71.890733, -39.51082], [-71.8954, -39.510473], [-71.897664, -39.511416], [-71.898565, -39.51303], [-71.900588, -39.512836], [-71.901969, -39.513467], [-71.903873, -39.512461], [-71.910606, -39.517614], [-71.913889, -39.518621], [-71.914683, -39.520848], [-71.916818, -39.52218], [-71.917483, -39.525275], [-71.917043, -39.535205], [-71.917987, -39.54055], [-71.9223, -39.544996], [-71.922997, -39.546808], [-71.922955, -39.549141], [-71.924661, -39.549091], [-71.925905, -39.549984], [-71.92642, -39.553434], [-71.925835, -39.554586], [-71.924379, -39.555346]], [[-71.954886, -39.579103], [-71.956056, -39.578315], [-71.957629, -39.578818]], [[-71.983054, -39.592641], [-71.986807, -39.593851], [-71.987333, -39.595219], [-71.991296, -39.597993], [-71.994348, -39.601698]], [[-71.924379, -39.555346], [-71.922028, -39.557393], [-71.921995, -39.559121], [-71.920645, -39.562468], [-71.91926, -39.56425], [-71.919978, -39.567723], [-71.918476, -39.569493], [-71.91968, -39.572806], [-71.919483, -39.576794], [-71.921007, -39.580861], [-71.922049, -39.581503], [-71.92225, -39.583995], [-71.928273, -39.585447], [-71.932295, -39.584498], [-71.934636, -39.585155], [-71.943058, -39.583447], [-71.945555, -39.581383], [-71.953304, -39.580078], [-71.95519, -39.579014], [-71.96407, -39.578322], [-71.96753, -39.579241], [-71.96844, -39.581114], [-71.969912, -39.581654], [-71.970878, -39.581129], [-71.969878, -39.580093], [-71.970139, -39.579604], [-71.974635, -39.579323], [-71.977402, -39.581447], [-71.980751, -39.582319], [-71.980469, -39.584458], [-71.981037, -39.585171], [-71.981166, -39.587948], [-71.980747, -39.589745], [-71.981878, -39.592344], [-71.983054, -39.592641]], [[-71.877151, -39.438513], [-71.867387, -39.439623], [-71.861486, -39.443153], [-71.857882, -39.446517], [-71.857624, -39.451032], [-71.858182, -39.45413], [-71.85654, -39.456218], [-71.855832, -39.459225], [-71.858751, -39.462795], [-71.859738, -39.465363], [-71.857517, -39.468065], [-71.857018, -39.471831], [-71.856267, -39.472245], [-71.854674, -39.475682], [-71.854352, -39.479616], [-71.854953, -39.484717], [-71.855908, -39.486679], [-71.858826, -39.48865], [-71.858879, -39.489503], [-71.856948, -39.491978], [-71.857002, -39.493767], [-71.85535, -39.496342], [-71.854373, -39.496689], [-71.854148, -39.497782], [-71.857811, -39.499599]]]}}