{"type": "Feature", "properties": {"id": "rio-cachapoal", "name": "Río Cachapoal", "type": "river", "region": "ohiggins"}, "geometry": {"type": "MultiLineString", "coordinates": [[[-70.117447, -34.372055], [-70.133805, -34.365968], [-70.141187, -34.363701], [-70.148053, -34.362425], [-70.152517, -34.359874], [-70.168301, -34.35568], [-70.170704, -34.357239], [-70.171562, -34.36064], [-70.173116, -34.362567], [-70.175691, -34.364126], [-70.183587, -34.361858], [-70.184617, -34.359308], [-70.187527, -34.358514], [-70.194402, -34.358032], [-70.200753, -34.358882], [-70.209508, -34.357749], [-70.2138, -34.359591], [-70.224271, -34.359874], [-70.227361, -34.358741], [-70.231309, -34.359166], [-70.247102, -34.356615], [-70.25826, -34.356332], [-70.26032, -34.354773], [-70.278001, -34.353072], [-70.300239, -34.355776], [-70.30602, -34.358074], [-70.309619, -34.363639], [-70.312657, -34.364149], [-70.315965, -34.36339], [-70.319711, -34.36453], [-70.323252, -34.364246], [-70.328504, -34.366073], [-70.334478, -34.366251], [-70.335997, -34.364966]], [[-70.783185, -34.190897], [-70.785186, -34.189628], [-70.791865, -34.189328], [-70.79273, -34.189584], [-70.793728, -34.191387], [-70.795961, -34.191578], [-70.796987, -34.191502], [-70.798981, -34.189976], [-70.8022, -34.189805], [-70.804698, -34.190449], [-70.818631, -34.191256], [-70.824559, -34.189115], [-70.831403, -34.18916], [-70.839084, -34.191324], [-70.842823, -34.193916], [-70.845166, -34.193821], [-70.846752, -34.194664], [-70.849959, -34.198335], [-70.850502, -34.199861], [-70.849458, -34.20158], [-70.849033, -34.204879], [-70.849513, -34.20601], [-70.852239, -34.206933], [-70.854689, -34.208818], [-70.857029, -34.208696], [-70.859064, -34.209434], [-70.864323, -34.212345], [-70.867132, -34.211959], [-70.871213, -34.213092], [-70.875918, -34.215978], [-70.878256, -34.215408], [-70.887058, -34.217346], [-70.88946, -34.216528], [-70.890708, -34.217234], [-70.89358, -34.217408], [-70.897011, -34.21643], [-70.900613, -34.217053], [-70.90868, -34.21521], [-70.909839, -34.215387], [-70.911084, -34.217162], [-70.915161, -34.2167], [-70.918122, -34.217694], [-70.919667, -34.21851], [-70.923615, -34.223336], [-70.926919, -34.22472], [-70.928808, -34.226849], [-70.933743, -34.226281], [-70.939107, -34.228375], [-70.940051, -34.22951], [-70.94018, -34.231497], [-70.945287, -34.234229], [-70.947218, -34.237671], [-70.950694, -34.238558], [-70.954299, -34.240438], [-70.957561, -34.245084], [-70.963183, -34.248773], [-70.966316, -34.249873], [-70.967603, -34.25115], [-70.975199, -34.251682], [-70.976085, -34.25244], [-70.976744, -34.255548], [-70.979362, -34.257712], [-70.984555, -34.257677], [-70.988203, -34.260798], [-70.988246, -34.26509], [-70.988889, -34.266508], [-70.993606, -34.268686]], [[-71.074289, -34.312779], [-71.07622, -34.315969], [-71.085404, -34.315118], [-71.088152, -34.31333], [-71.093806, -34.312948], [-71.099903, -34.314681], [-71.100839, -34.315664], [-71.106407, -34.314805], [-71.108848, -34.316845], [-71.114041, -34.318686], [-71.116192, -34.320605], [-71.117705, -34.320901], [-71.118673, -34.323814], [-71.120588, -34.323985], [-71.122195, -34.325206], [-71.12297, -34.32828], [-71.125642, -34.331544], [-71.126339, -34.332006], [-71.129327, -34.331775], [-71.130289, -34.334677], [-71.132108, -34.336814], [-71.131078, -34.340889], [-71.140682, -34.346971], [-71.142641, -34.349212], [-71.142024, -34.351495], [-71.145551, -34.354889], [-71.148105, -34.355766], [-71.148271, -34.359123], [-71.149462, -34.361142], [-71.149204, -34.362577], [-71.150342, -34.36538], [-71.15003, -34.367129], [-71.151672, -34.368626], [-71.150637, -34.371243], [-71.152042, -34.372582], [-71.151995, -34.373947], [-71.147085, -34.379681], [-71.14648, -34.381179], [-71.146687, -34.383375], [-71.14229, -34.390645], [-71.139894, -34.393503], [-71.134936, -34.397304], [-71.130739, -34.403648], [-71.132948, -34.408856], [-71.135896, -34.412822], [-71.140681, -34.415477], [-71.144039, -34.418477], [-71.145905, -34.41892], [-71.153167, -34.418663], [-71.166138, -34.415893], [-71.171794, -34.413708], [-71.181284, -34.413283], [-71.18248, -34.41161], [-71.182614, -34.409008], [-71.183869, -34.405817], [-71.187383, -34.402603], [-71.191433, -34.401191], [-71.201266, -34.399288], [-71.205643, -34.400209], [-71.207741, -34.399399], [-71.209517, -34.397703], [-71.21332, -34.397725], [-71.21769, -34.395923], [-71.221708, -34.396042], [-71.224183, -34.398146], [-71.226168, -34.398226], [-71.22885, -34.393675], [-71.233013, -34.389815], [-71.234424, -34.385812], [-71.235863, -34.385621], [-71.238293, -34.386759], [-71.23985, -34.386325], [-71.24043, -34.383342], [-71.245415, -34.376272], [-71.245544, -34.371716], [-71.246799, -34.365013], [-71.252947, -34.361178], [-71.254395, -34.359787], [-71.255779, -34.356811], [-71.262946, -34.351399], [-71.263965, -34.349601], [-71.263794, -34.346722], [-71.270006, -34.343888], [-71.284286, -34.339839], [-71.285015, -34.338847], [-71.283964, -34.33556], [-71.28957, -34.33257], [-71.308629, -34.33059], [-71.317057, -34.322527], [-71.325967, -34.317215], [-71.327029, -34.314951], [-71.326429, -34.312315], [-71.327319, -34.309971], [-71.333478, -34.30577], [-71.338638, -34.304263], [-71.340365, -34.300639], [-71.345311, -34.295737], [-71.346749, -34.290033], [-71.350901, -34.286536], [-71.35364, -34.28329], [-71.357718, -34.280019], [-71.361911, -34.279745], [-71.366583, -34.275274], [-71.369094, -34.274743], [-71.373504, -34.275211], [-71.376075, -34.273945], [-71.378727, -34.271459], [-71.391042, -34.269444], [-71.39849, -34.269605], [-71.401898, -34.267802], [-71.407864, -34.270228], [-71.410182, -34.270512], [-71.415666, -34.274622], [-71.417018, -34.274032], [-71.417255, -34.27178], [-71.419773, -34.270042], [-71.422595, -34.269359], [-71.424988, -34.270902], [-71.426554, -34.274892], [-71.428077, -34.275885], [-71.430566, -34.276559], [-71.432648, -34.27608], [-71.435424, -34.274294]], [[-71.068331, -34.309447], [-71.070383, -34.310298], [-71.072443, -34.312708], [-71.074289, -34.312779]], [[-70.463444, -34.264567], [-70.466536, -34.262606], [-70.465885, -34.256931], [-70.467202, -34.255341], [-70.472625, -34.252432], [-70.469831, -34.248625], [-70.473272, -34.244423], [-70.474188, -34.242318], [-70.480966, -34.240638], [-70.4798, -34.237306], [-70.481278, -34.235231], [-70.48688, -34.233698], [-70.492489, -34.227769], [-70.49834, -34.227155], [-70.49919, -34.226194], [-70.499067, -34.223865], [-70.500806, -34.223724], [-70.50285, -34.220463], [-70.503613, -34.218431], [-70.503265, -34.215768], [-70.504194, -34.214217], [-70.508396, -34.214004], [-70.509708, -34.213254], [-70.509559, -34.212257], [-70.51106, -34.210691], [-70.514876, -34.207958], [-70.515811, -34.205451], [-70.520985, -34.203483], [-70.527732, -34.204543], [-70.529131, -34.205551], [-70.530221, -34.206992], [-70.529348, -34.209359], [-70.536404, -34.215956], [-70.540729, -34.224538], [-70.542654, -34.233164], [-70.546162, -34.235435], [-70.54678, -34.236947], [-70.548626, -34.237713], [-70.549566, -34.240881], [-70.552649, -34.242404], [-70.552638, -34.24483], [-70.555704, -34.246552], [-70.556704, -34.247949], [-70.563965, -34.24939], [-70.567771, -34.252791], [-70.572465, -34.254241], [-70.57239, -34.255221], [-70.570797, -34.256995], [-70.572546, -34.260418], [-70.577009, -34.263104], [-70.579916, -34.263862], [-70.583543, -34.269462], [-70.585871, -34.270707], [-70.589374, -34.270995], [-70.595339, -34.270512], [-70.603438, -34.268106], [-70.616119, -34.262201], [-70.620117, -34.260936], [-70.621689, -34.257615], [-70.626892, -34.256587], [-70.62885, -34.25488], [-70.63274, -34.254135], [-70.636243, -34.252574], [-70.637895, -34.250654], [-70.637755, -34.247142], [-70.642696, -34.24422], [-70.647781, -34.242619], [-70.655115, -34.241369], [-70.658897, -34.238863], [-70.662201, -34.237847], [-70.663714, -34.234251], [-70.670688, -34.228951], [-70.672608, -34.224542], [-70.676658, -34.222949], [-70.677296, -34.222049], [-70.685694, -34.219089], [-70.686413, -34.217582], [-70.689264, -34.215057], [-70.691239, -34.214409], [-70.693753, -34.212022], [-70.696433, -34.21071], [-70.70381, -34.213994], [-70.707799, -34.214726], [-70.711108, -34.216784], [-70.718136, -34.215533], [-70.718772, -34.215892], [-70.721483, -34.214327], [-70.727137, -34.212805], [-70.730957, -34.211014], [-70.733694, -34.206513], [-70.737201, -34.205637], [-70.738771, -34.203179], [-70.744005, -34.199623], [-70.746897, -34.199421], [-70.748204, -34.197888], [-70.754313, -34.195962], [-70.757195, -34.194043], [-70.767351, -34.193717], [-70.769609, -34.192936], [-70.77033, -34.191786], [-70.774216, -34.18992], [-70.779714, -34.192107], [-70.783185, -34.190897]], [[-70.335997, -34.364966], [-70.344002, -34.358847], [-70.346371, -34.354898], [-70.347958, -34.354154], [-70.349503, -34.352277], [-70.352507, -34.350788], [-70.354602, -34.350769], [-70.357314, -34.352525], [-70.359116, -34.351851], [-70.363451, -34.352489], [-70.367648, -34.349883], [-70.367648, -34.347934], [-70.369631, -34.347706], [-70.372291, -34.346359], [-70.379029, -34.347033], [-70.380188, -34.346643], [-70.383853, -34.344048], [-70.385761, -34.343777], [-70.388793, -34.341807], [-70.391389, -34.339131], [-70.395071, -34.337304], [-70.397569, -34.334808], [-70.399671, -34.330732], [-70.404383, -34.327346], [-70.407525, -34.326302], [-70.415636, -34.326302], [-70.418588, -34.324723], [-70.421764, -34.32047], [-70.426528, -34.320293], [-70.42833, -34.318946], [-70.429669, -34.316236], [-70.431248, -34.316394], [-70.434896, -34.314763], [-70.439111, -34.310848], [-70.442801, -34.3106], [-70.444338, -34.309907], [-70.446127, -34.307012], [-70.445196, -34.297499], [-70.443694, -34.296542], [-70.442754, -34.294918], [-70.441686, -34.291036], [-70.440059, -34.288506], [-70.442679, -34.283019], [-70.444063, -34.281483], [-70.446855, -34.280149], [-70.448908, -34.277894], [-70.45119, -34.277538], [-70.456356, -34.27384], [-70.457915, -34.272235], [-70.457942, -34.270553], [-70.458687, -34.269679], [-70.463939, -34.268541], [-70.463444, -34.264567]], [[-70.993606, -34.268686], [-70.998889, -34.273273], [-71.002541, -34.278606], [-71.010412, -34.281172], [-71.012684, -34.282615], [-71.015509, -34.282631], [-71.01912, -34.28361], [-71.02593, -34.287313], [-71.028768, -34.290503], [-71.031786, -34.290541], [-71.036375, -34.292475], [-71.036881, -34.294898], [-71.039743, -34.296539], [-71.04005, -34.298767], [-71.041716, -34.300213], [-71.042962, -34.300421], [-71.046264, -34.299187], [-71.048892, -34.300559], [-71.052212, -34.300769], [-71.053737, -34.301812], [-71.054579, -34.303413], [-71.056698, -34.303023], [-71.059516, -34.304477], [-71.061373, -34.303369], [-71.068331, -34.309447]], [[-71.042555, -34.300472], [-71.046399, -34.299796], [-71.050933, -34.302648], [-71.051412, -34.303973], [-71.055141, -34.304867], [-71.058787, -34.307113], [-71.061464, -34.307414], [-71.06332, -34.308655], [-71.067574, -34.308544]], [[-71.029272, -34.291445], [-71.036843, -34.294838]], [[-71.014282, -34.282589], [-71.017339, -34.283999], [-71.018638, -34.286816], [-71.020684, -34.286987], [-71.022542, -34.288861], [-71.023847, -34.288712], [-71.025875, -34.29084], [-71.029106, -34.29146], [-71.031563, -34.29049]], [[-71.111924, -34.318044], [-71.112383, -34.319685], [-71.113351, -34.32037], [-71.116192, -34.320605]], [[-70.117447, -34.372055], [-70.133805, -34.365968], [-70.141187, -34.363701], [-70.148053, -34.362425], [-70.152517, -34.359874], [-70.168301, -34.35568], [-70.170704, -34.357239], [-70.171562, -34.36064], [-70.173116, -34.362567], [-70.175691, -34.364126], [-70.183587, -34.361858], [-70.184617, -34.359308], [-70.187527, -34.358514], [-70.194402, -34.358032], [-70.200753, -34.358882], [-70.209508, -34.357749], [-70.2138, -34.359591], [-70.224271, -34.359874], [-70.227361, -34.358741], [-70.231309, -34.359166], [-70.247102, -34.356615], [-70.25826, -34.356332], [-70.26032, -34.354773], [-70.278001, -34.353072], [-70.300239, -34.355776], [-70.30602, -34.358074], [-70.309619, -34.363639], [-70.312657, -34.364149], [-70.315965, -34.36339], [-70.319711, -34.36453], [-70.323252, -34.364246], [-70.328504, -34.366073], [-70.334478, -34.366251], [-70.335997, -34.364966]], [[-70.028363, -34.403212], [-70.030337, -34.402787], [-70.034371, -34.403973], [-70.038212, -34.404079], [-70.040272, -34.402999], [-70.050807, -34.402185], [-70.054605, -34.400415], [-70.056944, -34.398502], [-70.059584, -34.398113], [-70.060678, -34.395882], [-70.064369, -34.395723], [-70.067244, -34.394076], [-70.070033, -34.391367], [-70.072072, -34.38802], [-70.072329, -34.385984], [-70.074196, -34.381893], [-70.079324, -34.377621], [-70.084539, -34.376594], [-70.093808, -34.376736], [-70.103078, -34.375744], [-70.10634, -34.373052], [-70.112691, -34.373902], [-70.117447, -34.372055]], [[-70.335997, -34.364966], [-70.344002, -34.358847], [-70.346371, -34.354898], [-70.347958, -34.354154], [-70.349503, -34.352277], [-70.352507, -34.350788], [-70.354602, -34.350769], [-70.357314, -34.352525], [-70.359116, -34.351851], [-70.363451, -34.352489], [-70.367648, -34.349883], [-70.367648, -34.347934], [-70.369631, -34.347706], [-70.372291, -34.346359], [-70.379029, -34.347033], [-70.380188, -34.346643], [-70.383853, -34.344048], [-70.385761, -34.343777], [-70.388793, -34.341807], [-70.391389, -34.339131], [-70.395071, -34.337304], [-70.397569, -34.334808], [-70.399671, -34.330732], [-70.404383, -34.327346], [-70.407525, -34.326302], [-70.415636, -34.326302], [-70.418588, -34.324723], [-70.421764, -34.32047], [-70.426528, -34.320293], [-70.42833, -34.318946], [-70.429669, -34.316236], [-70.431248, -34.316394], [-70.434896, -34.314763], [-70.439111, -34.310848], [-70.442801, -34.3106], [-70.444338, -34.309907], [-70.446127, -34.307012], [-70.445196, -34.297499], [-70.443694, -34.296542], [-70.442754, -34.294918], [-70.441686, -34.291036], [-70.440059, -34.288506], [-70.442679, -34.283019], [-70.444063, -34.281483], [-70.446855, -34.280149], [-70.448908, -34.277894], [-70.45119, -34.277538], [-70.456356, -34.27384], [-70.457915, -34.272235], [-70.457942, -34.270553], [-70.458687, -34.269679], [-70.463939, -34.268541], [-70.463444, -34.264567]], [[-70.463444, -34.264567], [-70.466536, -34.262606], [-70.465885, -34.256931], [-70.467202, -34.255341], [-70.472625, -34.252432], [-70.469831, -34.248625], [-70.473272, -34.244423], [-70.474188, -34.242318], [-70.480966, -34.240638], [-70.4798, -34.237306], [-70.481278, -34.235231], [-70.48688, -34.233698], [-70.492489, -34.227769], [-70.49834, -34.227155], [-70.49919, -34.226194], [-70.499067, -34.223865], [-70.500806, -34.223724], [-70.50285, -34.220463], [-70.503613, -34.218431], [-70.503265, -34.215768], [-70.504194, -34.214217], [-70.508396, -34.214004], [-70.509708, -34.213254], [-70.509559, -34.212257], [-70.51106, -34.210691], [-70.514876, -34.207958], [-70.515811, -34.205451], [-70.520985, -34.203483], [-70.527732, -34.204543], [-70.529131, -34.205551], [-70.530221, -34.206992], [-70.529348, -34.209359], [-70.536404, -34.215956], [-70.540729, -34.224538], [-70.542654, -34.233164], [-70.546162, -34.235435], [-70.54678, -34.236947], [-70.548626, -34.237713], [-70.549566, -34.240881], [-70.552649, -34.242404], [-70.552638, -34.24483], [-70.555704, -34.246552], [-70.556704, -34.247949], [-70.563965, -34.24939], [-70.567771, -34.252791], [-70.572465, -34.254241], [-70.57239, -34.255221], [-70.570797, -34.256995], [-70.572546, -34.260418], [-70.577009, -34.263104], [-70.579916, -34.263862], [-70.583543, -34.269462], [-70.585871, -34.270707], [-70.589374, -34.270995], [-70.595339, -34.270512], [-70.603438, -34.268106], [-70.616119, -34.262201], [-70.620117, -34.260936], [-70.621689, -34.257615], [-70.626892, -34.256587], [-70.62885, -34.25488], [-70.63274, -34.254135], [-70.636243, -34.252574], [-70.637895, -34.250654], [-70.637755, -34.247142], [-70.642696, -34.24422], [-70.647781, -34.242619], [-70.655115, -34.241369], [-70.658897, -34.238863], [-70.662201, -34.237847], [-70.663714, -34.234251], [-70.670688, -34.228951], [-70.672608, -34.224542], [-70.676658, -34.222949], [-70.677296, -34.222049], [-70.685694, -34.219089], [-70.686413, -34.217582], [-70.689264, -34.215057], [-70.691239, -34.214409], [-70.693753, -34.212022], [-70.696433, -34.21071], [-70.70381, -34.213994], [-70.707799, -34.214726], [-70.711108, -34.216784], [-70.718136, -34.215533], [-70.718772, -34.215892], [-70.721483, -34.214327], [-70.727137, -34.212805], [-70.730957, -34.211014], [-70.733694, -34.206513], [-70.737201, -34.205637], [-70.738771, -34.203179], [-70.744005, -34.199623], [-70.746897, -34.199421], [-70.748204, -34.197888], [-70.754313, -34.195962], [-70.757195, -34.194043], [-70.767351, -34.193717], [-70.769609, -34.192936], [-70.77033, -34.191786], [-70.774216, -34.18992], [-70.779714, -34.192107], [-70.783185, -34.190897]], [[-70.783185, -34.190897], [-70.785186, -34.189628], [-70.791865, -34.189328], [-70.79273, -34.189584], [-70.793728, -34.191387], [-70.795961, -34.191578], [-70.796987, -34.191502], [-70.798981, -34.189976], [-70.8022, -34.189805], [-70.804698, -34.190449], [-70.818631, -34.191256], [-70.824559, -34.189115], [-70.831403, -34.18916], [-70.839084, -34.191324], [-70.842823, -34.193916], [-70.845166, -34.193821], [-70.846752, -34.194664], [-70.849959, -34.198335], [-70.850502, -34.199861], [-70.849458, -34.20158], [-70.849033, -34.204879], [-70.849513, -34.20601], [-70.852239, -34.206933], [-70.854689, -34.208818], [-70.857029, -34.208696], [-70.859064, -34.209434], [-70.864323, -34.212345], [-70.867132, -34.211959], [-70.871213, -34.213092], [-70.875918, -34.215978], [-70.878256, -34.215408], [-70.887058, -34.217346], [-70.88946, -34.216528], [-70.890708, -34.217234], [-70.89358, -34.217408], [-70.897011, -34.21643], [-70.900613, -34.217053], [-70.90868, -34.21521], [-70.909839, -34.215387], [-70.911084, -34.217162], [-70.915161, -34.2167], [-70.918122, -34.217694], [-70.919667, -34.21851], [-70.923615, -34.223336], [-70.926919, -34.22472], [-70.928808, -34.226849], [-70.933743, -34.226281], [-70.939107, -34.228375], [-70.940051, -34.22951], [-70.94018, -34.231497], [-70.945287, -34.234229], [-70.947218, -34.237671], [-70.950694, -34.238558], [-70.954299, -34.240438], [-70.957561, -34.245084], [-70.963183, -34.248773], [-70.966316, -34.249873], [-70.967603, -34.25115], [-70.975199, -34.251682], [-70.976085, -34.25244], [-70.976744, -34.255548], [-70.979362, -34.257712], [-70.984555, -34.257677], [-70.988203, -34.260798], [-70.988246, -34.26509], [-70.988889, -34.266508], [-70.993606, -34.268686]], [[-70.993606, -34.268686], [-70.998889, -34.273273], [-71.002541, -34.278606], [-71.010412, -34.281172], [-71.012684, -34.282615], [-71.015509, -34.282631], [-71.01912, -34.28361], [-71.02593, -34.287313], [-71.028768, -34.290503], [-71.031786, -34.290541], [-71.036375, -34.292475], [-71.036881, -34.294898], [-71.039743, -34.296539], [-71.04005, -34.298767], [-71.041716, -34.300213], [-71.042962, -34.300421], [-71.046264, -34.299187], [-71.048892, -34.300559], [-71.052212, -34.300769], [-71.053737, -34.301812], [-71.054579, -34.303413], [-71.056698, -34.303023], [-71.059516, -34.304477], [-71.061373, -34.303369], [-71.068331, -34.309447]], [[-71.068331, -34.309447], [-71.070383, -34.310298], [-71.072443, -34.312708], [-71.074289, -34.312779]], [[-71.074289, -34.312779], [-71.07622, -34.315969], [-71.085404, -34.315118], [-71.088152, -34.31333], [-71.093806, -34.312948], [-71.099903, -34.314681], [-71.100839, -34.315664], [-71.106407, -34.314805], [-71.108848, -34.316845], [-71.114041, -34.318686], [-71.116192, -34.320605], [-71.117705, -34.320901], [-71.118673, -34.323814], [-71.120588, -34.323985], [-71.122195, -34.325206], [-71.12297, -34.32828], [-71.125642, -34.331544], [-71.126339, -34.332006], [-71.129327, -34.331775], [-71.130289, -34.334677], [-71.132108, -34.336814], [-71.131078, -34.340889], [-71.140682, -34.346971], [-71.142641, -34.349212], [-71.142024, -34.351495], [-71.145551, -34.354889], [-71.148105, -34.355766], [-71.148271, -34.359123], [-71.149462, -34.361142], [-71.149204, -34.362577], [-71.150342, -34.36538], [-71.15003, -34.367129], [-71.151672, -34.368626], [-71.150637, -34.371243], [-71.152042, -34.372582], [-71.151995, -34.373947], [-71.147085, -34.379681], [-71.14648, -34.381179], [-71.146687, -34.383375], [-71.14229, -34.390645], [-71.139894, -34.393503], [-71.134936, -34.397304], [-71.130739, -34.403648], [-71.132948, -34.408856], [-71.135896, -34.412822], [-71.140681, -34.415477], [-71.144039, -34.418477], [-71.145905, -34.41892], [-71.153167, -34.418663], [-71.166138, -34.415893], [-71.171794, -34.413708], [-71.181284, -34.413283], [-71.18248, -34.41161], [-71.182614, -34.409008], [-71.183869, -34.405817], [-71.187383, -34.402603], [-71.191433, -34.401191], [-71.201266, -34.399288], [-71.205643, -34.400209], [-71.207741, -34.399399], [-71.209517, -34.397703], [-71.21332, -34.397725], [-71.21769, -34.395923], [-71.221708, -34.396042], [-71.224183, -34.398146], [-71.226168, -34.398226], [-71.22885, -34.393675], [-71.233013, -34.389815], [-71.234424, -34.385812], [-71.235863, -34.385621], [-71.238293, -34.386759], [-71.23985, -34.386325], [-71.24043, -34.383342], [-71.245415, -34.376272], [-71.245544, -34.371716], [-71.246799, -34.365013], [-71.252947, -34.361178], [-71.254395, -34.359787], [-71.255779, -34.356811], [-71.262946, -34.351399], [-71.263965, -34.349601], [-71.263794, -34.346722], [-71.270006, -34.343888], [-71.284286, -34.339839], [-71.285015, -34.338847], [-71.283964, -34.33556], [-71.28957, -34.33257], [-71.308629, -34.33059], [-71.317057, -34.322527], [-71.325967, -34.317215], [-71.327029, -34.314951], [-71.326429, -34.312315], [-71.327319, -34.309971], [-71.333478, -34.30577], [-71.338638, -34.304263], [-71.340365, -34.300639], [-71.345311, -34.295737], [-71.346749, -34.290033], [-71.350901, -34.286536], [-71.35364, -34.28329], [-71.357718, -34.280019], [-71.361911, -34.279745], [-71.366583, -34.275274], [-71.369094, -34.274743], [-71.373504, -34.275211], [-71.376075, -34.273945], [-71.378727, -34.271459], [-71.391042, -34.269444], [-71.39849, -34.269605], [-71.401898, -34.267802], [-71.407864, -34.270228], [-71.410182, -34.270512], [-71.415666, -34.274622], [-71.417018, -34.274032], [-71.417255, -34.27178], [-71.419773, -34.270042], [-71.422595, -34.269359], [-71.424988, -34.270902], [-71.426554, -34.274892], [-71.428077, -34.275885], [-71.430566, -34.276559], [-71.432648, -34.27608], [-71.435424, -34.274294]], [[-71.014282, -34.282589], [-71.017339, -34.283999], [-71.018638, -34.286816], [-71.020684, -34.286987], [-71.022542, -34.288861], [-71.023847, -34.288712], [-71.025875, -34.29084], [-71.029106, -34.29146], [-71.031563, -34.29049]], [[-71.029272, -34.291445], [-71.036843, -34.294838]], [[-71.042555, -34.300472], [-71.046399, -34.299796], [-71.050933, -34.302648], [-71.051412, -34.303973], [-71.055141, -34.304867], [-71.058787, -34.307113], [-71.061464, -34.307414], [-71.06332, -34.308655], [-71.067574, -34.308544]], [[-71.111924, -34.318044], [-71.112383, -34.319685], [-71.113351, -34.32037], [-71.116192, -34.320605]]]}}