{"type": "Feature", "properties": {"id": "rio-espolon", "name": "Río Espolón", "type": "river", "region": "los-lagos"}, "geometry": {"type": "MultiLineString", "coordinates": [[[-71.943779, -43.214004], [-71.937955, -43.214613], [-71.92865, -43.21372], [-71.927672, -43.213386], [-71.927405, -43.210464], [-71.926629, -43.209241], [-71.924568, -43.207871], [-71.922586, -43.208514], [-71.921049, -43.210777], [-71.916568, -43.208841], [-71.914415, -43.206776], [-71.912663, -43.202474], [-71.911467, -43.201645], [-71.912094, -43.199287], [-71.911644, -43.197758], [-71.906623, -43.194973], [-71.905968, -43.193135], [-71.902755, -43.191813], [-71.899188, -43.18868], [-71.898034, -43.185239], [-71.893547, -43.181188], [-71.891047, -43.180692], [-71.888789, -43.179072], [-71.885229, -43.179809], [-71.878411, -43.182868], [-71.875348, -43.186283], [-71.872022, -43.188806], [-71.871604, -43.189795], [-71.873449, -43.19179], [-71.873953, -43.193061], [-71.873572, -43.193906], [-71.868431, -43.193217], [-71.86257, -43.196338], [-71.862967, -43.197672], [-71.865633, -43.198669], [-71.868723, -43.196807], [-71.870912, -43.199412], [-71.868997, -43.199963], [-71.861932, -43.204448], [-71.857141, -43.204366]], [[-71.868723, -43.196807], [-71.870633, -43.196866], [-71.871759, -43.197601], [-71.870912, -43.199412]], [[-72.151927, -42.950148], [-72.152702, -42.95144], [-72.152083, -42.952306], [-72.152347, -42.954791], [-72.151402, -42.95564], [-72.153337, -42.958507], [-72.152283, -42.960333], [-72.150541, -42.96103], [-72.150488, -42.96218], [-72.151515, -42.961853], [-72.151904, -42.962775], [-72.149688, -42.963703], [-72.149419, -42.966577], [-72.149958, -42.968394], [-72.149084, -42.969411], [-72.148781, -42.971289], [-72.14649, -42.972498], [-72.146922, -42.973269], [-72.145865, -42.973091], [-72.144347, -42.975249], [-72.141442, -42.975104], [-72.140876, -42.974356], [-72.141314, -42.973534], [-72.140445, -42.973232], [-72.13924, -42.976187], [-72.137421, -42.976583], [-72.136413, -42.977946], [-72.136263, -42.979804], [-72.134552, -42.980285], [-72.133988, -42.981052], [-72.132269, -42.981158], [-72.131459, -42.981911], [-72.131614, -42.983008], [-72.130086, -42.98237], [-72.128838, -42.983856], [-72.127245, -42.983903], [-72.124048, -42.987188], [-72.119982, -42.98748], [-72.118728, -42.989672], [-72.117441, -42.989484], [-72.115644, -42.990591], [-72.11356, -42.990863], [-72.108721, -42.990549], [-72.104904, -42.99502], [-72.09896, -42.996319], [-72.098684, -42.997108], [-72.099677, -42.998104], [-72.094413, -43.001507], [-72.091647, -43.002026], [-72.09179, -43.003914], [-72.093032, -43.005464], [-72.092406, -43.006841], [-72.090183, -43.006101], [-72.086874, -43.007242], [-72.083565, -43.007061], [-72.081766, -43.008288], [-72.079411, -43.008805], [-72.07705, -43.010994], [-72.076825, -43.01383], [-72.075387, -43.014042], [-72.07432, -43.015756], [-72.072147, -43.016501], [-72.071965, -43.017986], [-72.066659, -43.019541], [-72.065031, -43.022512], [-72.062873, -43.020089], [-72.060529, -43.020451], [-72.062199, -43.026208], [-72.056166, -43.027365], [-72.059015, -43.030249], [-72.056668, -43.030857], [-72.052194, -43.030686], [-72.051027, -43.033523], [-72.052216, -43.034538], [-72.051322, -43.035793], [-72.051765, -43.037298], [-72.050799, -43.037957], [-72.04767, -43.038063], [-72.049003, -43.039727], [-72.047826, -43.041134], [-72.044898, -43.041054], [-72.042647, -43.042268], [-72.04289, -43.042677], [-72.046642, -43.041971], [-72.048886, -43.042687], [-72.045895, -43.044786], [-72.044551, -43.047403], [-72.04143, -43.048756], [-72.038648, -43.048713], [-72.037945, -43.051438], [-72.036968, -43.051445], [-72.035283, -43.050166], [-72.034232, -43.050317], [-72.034299, -43.054065], [-72.035527, -43.055379], [-72.03379, -43.055597], [-72.033141, -43.056658], [-72.033839, -43.057957], [-72.033389, -43.061249], [-72.030207, -43.062997], [-72.030373, -43.064136], [-72.029628, -43.064709], [-72.027138, -43.065449], [-72.02599, -43.068443], [-72.026945, -43.069035], [-72.029906, -43.068671], [-72.027541, -43.070364], [-72.028007, -43.071884], [-72.027149, -43.072527], [-72.029606, -43.075195], [-72.030164, -43.07735], [-72.028937, -43.079484], [-72.029918, -43.080635], [-72.029983, -43.083225], [-72.026311, -43.088219], [-72.027228, -43.088894], [-72.029795, -43.088757], [-72.030412, -43.089259], [-72.030047, -43.093313], [-72.028452, -43.093933], [-72.027744, -43.095557], [-72.028491, -43.096652], [-72.030565, -43.096221], [-72.031524, -43.097009], [-72.030529, -43.100141], [-72.028586, -43.100521], [-72.02917, -43.102288], [-72.031549, -43.103167], [-72.02968, -43.105425], [-72.034872, -43.107537], [-72.035516, -43.108498], [-72.031973, -43.108379], [-72.031166, -43.109947], [-72.027036, -43.112141], [-72.026367, -43.113451], [-72.027974, -43.11536]], [[-72.027974, -43.11536], [-72.022634, -43.117353], [-72.021303, -43.118575], [-72.021571, -43.119992], [-72.02501, -43.123516]], [[-72.188555, -42.896073], [-72.185562, -42.89845], [-72.183773, -42.901197], [-72.181302, -42.902109], [-72.180643, -42.90361], [-72.176759, -42.905759], [-72.172837, -42.906592], [-72.171384, -42.908793], [-72.165595, -42.91214], [-72.162849, -42.912403], [-72.159045, -42.914266], [-72.158412, -42.915291], [-72.151015, -42.918344], [-72.144213, -42.924735], [-72.144181, -42.926243], [-72.142957, -42.927194], [-72.143086, -42.927826], [-72.141772, -42.928451], [-72.140399, -42.930415], [-72.139315, -42.93056], [-72.139637, -42.934063], [-72.138843, -42.9349], [-72.139953, -42.936707], [-72.140066, -42.938446], [-72.140887, -42.939039], [-72.141091, -42.940669], [-72.143741, -42.943359], [-72.148349, -42.945884], [-72.148252, -42.948311], [-72.150623, -42.949944], [-72.151927, -42.950148]], [[-71.943779, -43.214004], [-71.937955, -43.214613], [-71.92865, -43.21372], [-71.927672, -43.213386], [-71.927405, -43.210464], [-71.926629, -43.209241], [-71.924568, -43.207871], [-71.922586, -43.208514], [-71.921049, -43.210777], [-71.916568, -43.208841], [-71.914415, -43.206776], [-71.912663, -43.202474], [-71.911467, -43.201645], [-71.912094, -43.199287], [-71.911644, -43.197758], [-71.906623, -43.194973], [-71.905968, -43.193135], [-71.902755, -43.191813], [-71.899188, -43.18868], [-71.898034, -43.185239], [-71.893547, -43.181188], [-71.891047, -43.180692], [-71.888789, -43.179072], [-71.885229, -43.179809], [-71.878411, -43.182868], [-71.875348, -43.186283], [-71.872022, -43.188806], [-71.871604, -43.189795], [-71.873449, -43.19179], [-71.873953, -43.193061], [-71.873572, -43.193906], [-71.868431, -43.193217], [-71.86257, -43.196338], [-71.862967, -43.197672], [-71.865633, -43.198669], [-71.868723, -43.196807], [-71.870912, -43.199412], [-71.868997, -43.199963], [-71.861932, -43.204448], [-71.857141, -43.204366]], [[-72.02501, -43.123516], [-72.027408, -43.126711], [-72.027912, -43.129037], [-72.027462, -43.132967], [-72.024994, -43.13898], [-72.0192, -43.14875], [-71.995812, -43.180333], [-71.990018, -43.190644], [-71.9871, -43.198356], [-71.984396, -43.203017], [-71.978753, -43.20821], [-71.969097, -43.212433], [-71.951587, -43.214215], [-71.943779, -43.214004]], [[-72.027974, -43.11536], [-72.022634, -43.117353], [-72.021303, -43.118575], [-72.021571, -43.119992], [-72.02501, -43.123516]], [[-72.151927, -42.950148], [-72.152702, -42.95144], [-72.152083, -42.952306], [-72.152347, -42.954791], [-72.151402, -42.95564], [-72.153337, -42.958507], [-72.152283, -42.960333], [-72.150541, -42.96103], [-72.150488, -42.96218], [-72.151515, -42.961853], [-72.151904, -42.962775], [-72.149688, -42.963703], [-72.149419, -42.966577], [-72.149958, -42.968394], [-72.149084, -42.969411], [-72.148781, -42.971289], [-72.14649, -42.972498], [-72.146922, -42.973269], [-72.145865, -42.973091], [-72.144347, -42.975249], [-72.141442, -42.975104], [-72.140876, -42.974356], [-72.141314, -42.973534], [-72.140445, -42.973232], [-72.13924, -42.976187], [-72.137421, -42.976583], [-72.136413, -42.977946], [-72.136263, -42.979804], [-72.134552, -42.980285], [-72.133988, -42.981052], [-72.132269, -42.981158], [-72.131459, -42.981911], [-72.131614, -42.983008], [-72.130086, -42.98237], [-72.128838, -42.983856], [-72.127245, -42.983903], [-72.124048, -42.987188], [-72.119982, -42.98748], [-72.118728, -42.989672], [-72.117441, -42.989484], [-72.115644, -42.990591], [-72.11356, -42.990863], [-72.108721, -42.990549], [-72.104904, -42.99502], [-72.09896, -42.996319], [-72.098684, -42.997108], [-72.099677, -42.998104], [-72.094413, -43.001507], [-72.091647, -43.002026], [-72.09179, -43.003914], [-72.093032, -43.005464], [-72.092406, -43.006841], [-72.090183, -43.006101], [-72.086874, -43.007242], [-72.083565, -43.007061], [-72.081766, -43.008288], [-72.079411, -43.008805], [-72.07705, -43.010994], [-72.076825, -43.01383], [-72.075387, -43.014042], [-72.07432, -43.015756], [-72.072147, -43.016501], [-72.071965, -43.017986], [-72.066659, -43.019541], [-72.065031, -43.022512], [-72.062873, -43.020089], [-72.060529, -43.020451], [-72.062199, -43.026208], [-72.056166, -43.027365], [-72.059015, -43.030249], [-72.056668, -43.030857], [-72.052194, -43.030686], [-72.051027, -43.033523], [-72.052216, -43.034538], [-72.051322, -43.035793], [-72.051765, -43.037298], [-72.050799, -43.037957], [-72.04767, -43.038063], [-72.049003, -43.039727], [-72.047826, -43.041134], [-72.044898, -43.041054], [-72.042647, -43.042268], [-72.04289, -43.042677], [-72.046642, -43.041971], [-72.048886, -43.042687], [-72.045895, -43.044786], [-72.044551, -43.047403], [-72.04143, -43.048756], [-72.038648, -43.048713], [-72.037945, -43.051438], [-72.036968, -43.051445], [-72.035283, -43.050166], [-72.034232, -43.050317], [-72.034299, -43.054065], [-72.035527, -43.055379], [-72.03379, -43.055597], [-72.033141, -43.056658], [-72.033839, -43.057957], [-72.033389, -43.061249], [-72.030207, -43.062997], [-72.030373, -43.064136], [-72.029628, -43.064709], [-72.027138, -43.065449], [-72.02599, -43.068443], [-72.026945, -43.069035], [-72.029906, -43.068671], [-72.027541, -43.070364], [-72.028007, -43.071884], [-72.027149, -43.072527], [-72.029606, -43.075195], [-72.030164, -43.07735], [-72.028937, -43.079484], [-72.029918, -43.080635], [-72.029983, -43.083225], [-72.026311, -43.088219], [-72.027228, -43.088894], [-72.029795, -43.088757], [-72.030412, -43.089259], [-72.030047, -43.093313], [-72.028452, -43.093933], [-72.027744, -43.095557], [-72.028491, -43.096652], [-72.030565, -43.096221], [-72.031524, -43.097009], [-72.030529, -43.100141], [-72.028586, -43.100521], [-72.02917, -43.102288], [-72.031549, -43.103167], [-72.02968, -43.105425], [-72.034872, -43.107537], [-72.035516, -43.108498], [-72.031973, -43.108379], [-72.031166, -43.109947], [-72.027036, -43.112141], [-72.026367, -43.113451], [-72.027974, -43.11536]], [[-72.188555, -42.896073], [-72.185562, -42.89845], [-72.183773, -42.901197], [-72.181302, -42.902109], [-72.180643, -42.90361], [-72.176759, -42.905759], [-72.172837, -42.906592], [-72.171384, -42.908793], [-72.165595, -42.91214], [-72.162849, -42.912403], [-72.159045, -42.914266], [-72.158412, -42.915291], [-72.151015, -42.918344], [-72.144213, -42.924735], [-72.144181, -42.926243], [-72.142957, -42.927194], [-72.143086, -42.927826], [-72.141772, -42.928451], [-72.140399, -42.930415], [-72.139315, -42.93056], [-72.139637, -42.934063], [-72.138843, -42.9349], [-72.139953, -42.936707], [-72.140066, -42.938446], [-72.140887, -42.939039], [-72.141091, -42.940669], [-72.143741, -42.943359], [-72.148349, -42.945884], [-72.148252, -42.948311], [-72.150623, -42.949944], [-72.151927, -42.950148]]]}}