{"type": "Feature", "properties": {"id": "rio-queuco", "name": "Río Queuco", "type": "river", "region": "biobio"}, "geometry": {"type": "MultiLineString", "coordinates": [[[-71.272409, -37.712488], [-71.273356, -37.711303], [-71.273699, -37.709068], [-71.27693, -37.707], [-71.280147, -37.702446], [-71.282901, -37.69979], [-71.285378, -37.699314], [-71.289151, -37.696695], [-71.291437, -37.696213], [-71.29514, -37.692732], [-71.303277, -37.691088], [-71.307178, -37.691049], [-71.309027, -37.692663], [-71.312097, -37.693286], [-71.313563, -37.694878], [-71.317376, -37.695175], [-71.318905, -37.698014], [-71.322177, -37.699999], [-71.326217, -37.70105], [-71.328908, -37.70374], [-71.336272, -37.707861], [-71.34469, -37.710541], [-71.346108, -37.712601], [-71.34849, -37.713056], [-71.350309, -37.714748], [-71.355233, -37.715164], [-71.356252, -37.716087], [-71.360225, -37.716499], [-71.36361, -37.71483], [-71.369902, -37.715462], [-71.375062, -37.717703], [-71.377573, -37.71649], [-71.386263, -37.717313], [-71.392208, -37.716567], [-71.396801, -37.713997], [-71.402052, -37.713908], [-71.407138, -37.71252], [-71.408572, -37.71145], [-71.414674, -37.711799], [-71.422038, -37.710865], [-71.425832, -37.712792], [-71.42873, -37.711521], [-71.430686, -37.711527], [-71.433084, -37.71015], [-71.440457, -37.708363], [-71.442826, -37.706466], [-71.444608, -37.7062], [-71.443019, -37.703118], [-71.443968, -37.70104], [-71.448324, -37.699257], [-71.450587, -37.697493], [-71.458628, -37.699593], [-71.465069, -37.700015], [-71.466243, -37.700547], [-71.467342, -37.702274], [-71.471755, -37.704577], [-71.481726, -37.707712], [-71.484149, -37.710988], [-71.486759, -37.712694], [-71.489067, -37.71664], [-71.49361, -37.716545], [-71.495989, -37.71804], [-71.499885, -37.718529], [-71.502112, -37.719525], [-71.505359, -37.718064], [-71.507183, -37.718591], [-71.50809, -37.71974], [-71.50855, -37.722221], [-71.506071, -37.723034], [-71.504806, -37.724725], [-71.506335, -37.72606], [-71.510345, -37.727652], [-71.510958, -37.728667], [-71.510522, -37.729348], [-71.50747, -37.729317], [-71.507169, -37.729765], [-71.510218, -37.733905], [-71.511856, -37.734557], [-71.512532, -37.737548], [-71.515273, -37.740204], [-71.521339, -37.743957], [-71.521472, -37.746974], [-71.525471, -37.748891], [-71.528817, -37.749514], [-71.527726, -37.75488], [-71.527846, -37.758039], [-71.533205, -37.765513], [-71.532947, -37.766342]], [[-71.194254, -37.794261], [-71.195395, -37.793882], [-71.196102, -37.792745], [-71.198318, -37.792024], [-71.201564, -37.787207], [-71.204167, -37.787233], [-71.208842, -37.785784], [-71.211297, -37.78316], [-71.211466, -37.78167], [-71.21232, -37.781269], [-71.214591, -37.777312], [-71.216764, -37.775898], [-71.216787, -37.77418], [-71.218265, -37.772858], [-71.218069, -37.770774], [-71.218969, -37.7705], [-71.218797, -37.769426], [-71.220652, -37.767086], [-71.219549, -37.765262], [-71.219253, -37.75942], [-71.220622, -37.756888], [-71.220867, -37.75535], [-71.220309, -37.754211], [-71.222402, -37.750473], [-71.221818, -37.748586], [-71.222391, -37.745379], [-71.223696, -37.745111], [-71.224599, -37.743916], [-71.224305, -37.742339], [-71.224805, -37.7412], [-71.223414, -37.737643], [-71.224571, -37.734784], [-71.224614, -37.732699], [-71.226293, -37.730042], [-71.228802, -37.728012], [-71.231468, -37.72795], [-71.234295, -37.726412], [-71.236451, -37.726416], [-71.23726, -37.725543], [-71.243366, -37.72308], [-71.244723, -37.721442], [-71.249042, -37.720627], [-71.251863, -37.718879], [-71.256573, -37.718777], [-71.260189, -37.719906], [-71.265741, -37.719617], [-71.271138, -37.715807], [-71.272409, -37.712488]], [[-71.532947, -37.766342], [-71.531634, -37.76661], [-71.531655, -37.767911], [-71.53661, -37.777782], [-71.5352, -37.780601], [-71.53741, -37.7846], [-71.5363, -37.790321], [-71.539453, -37.79492], [-71.542173, -37.797299], [-71.542446, -37.798161], [-71.5415, -37.800008], [-71.541794, -37.801256], [-71.546831, -37.803443], [-71.54931, -37.808517], [-71.554186, -37.813812], [-71.556367, -37.8183], [-71.563805, -37.81953], [-71.565462, -37.820534], [-71.565949, -37.823837], [-71.564947, -37.828976], [-71.566502, -37.830548], [-71.571338, -37.830726], [-71.578233, -37.835151], [-71.583171, -37.835936], [-71.589703, -37.839054], [-71.593475, -37.839627], [-71.594953, -37.846285], [-71.598781, -37.849582], [-71.598203, -37.851868], [-71.598622, -37.856947], [-71.599336, -37.857425], [-71.602981, -37.857348], [-71.604458, -37.858779], [-71.608323, -37.858384], [-71.607688, -37.861112], [-71.611754, -37.862184], [-71.614873, -37.864698], [-71.61464, -37.866009], [-71.613133, -37.867392], [-71.613814, -37.868113], [-71.617054, -37.868939], [-71.620375, -37.867745], [-71.621957, -37.867913], [-71.626265, -37.869855], [-71.628391, -37.872477], [-71.630253, -37.872601], [-71.631008, -37.86973], [-71.634678, -37.868048], [-71.635118, -37.867094], [-71.634749, -37.866039], [-71.631832, -37.864022], [-71.629443, -37.860638], [-71.634929, -37.857308], [-71.64231, -37.856389], [-71.642661, -37.855081], [-71.641553, -37.85196], [-71.644049, -37.848973], [-71.646469, -37.847965], [-71.648859, -37.844704], [-71.650988, -37.843306], [-71.656528, -37.841338], [-71.658705, -37.839621], [-71.664076, -37.839479], [-71.664569, -37.83506], [-71.670368, -37.833514], [-71.670261, -37.829514], [-71.671559, -37.829124], [-71.675121, -37.830264], [-71.677596, -37.828394]], [[-71.356252, -37.716087], [-71.356909, -37.71663], [-71.358191, -37.716169]]]}}