{"type": "Feature", "properties": {"id": "rio-liucura", "name": "Río Liucura", "type": "river", "region": "araucania"}, "geometry": {"type": "MultiLineString", "coordinates": [[[-71.579586, -39.172865], [-71.581186, -39.173578], [-71.584753, -39.178143], [-71.583883, -39.180905], [-71.585545, -39.185677], [-71.584756, -39.18848], [-71.585067, -39.189632], [-71.586162, -39.190846], [-71.58636, -39.192268], [-71.589884, -39.194741], [-71.590834, -39.197257], [-71.595565, -39.199522], [-71.598167, -39.201671], [-71.599637, -39.201626], [-71.600485, -39.203796], [-71.602834, -39.204907], [-71.602797, -39.206109], [-71.603721, -39.207325], [-71.610568, -39.211554], [-71.611402, -39.214052], [-71.613297, -39.21274], [-71.617714, -39.216303], [-71.620331, -39.216544], [-71.621056, -39.218385], [-71.622995, -39.219379], [-71.62489, -39.21917], [-71.624831, -39.218198], [-71.626238, -39.217535], [-71.632327, -39.217937], [-71.633274, -39.218497], [-71.633633, -39.219741], [-71.635971, -39.219075], [-71.641496, -39.221487], [-71.644351, -39.221556], [-71.646826, -39.225085], [-71.652649, -39.226735], [-71.655021, -39.226489], [-71.657186, -39.227378], [-71.660252, -39.227091], [-71.662047, -39.229642], [-71.666715, -39.226465], [-71.669352, -39.226622], [-71.670682, -39.224977], [-71.673378, -39.224934], [-71.67673, -39.226242], [-71.679978, -39.224481], [-71.682558, -39.225765], [-71.684708, -39.222212], [-71.690407, -39.222662], [-71.690845, -39.220415], [-71.694025, -39.219511], [-71.695007, -39.218418], [-71.696872, -39.218632], [-71.697293, -39.217408], [-71.699138, -39.217203], [-71.700009, -39.218015], [-71.701839, -39.218271], [-71.705841, -39.217803], [-71.707172, -39.217018], [-71.707195, -39.215855], [-71.712162, -39.214046], [-71.719469, -39.213023], [-71.720538, -39.212301], [-71.722544, -39.212589], [-71.728669, -39.211769], [-71.72964, -39.212284], [-71.728435, -39.213143], [-71.729861, -39.214878], [-71.733223, -39.2151], [-71.735408, -39.216673], [-71.738508, -39.217503], [-71.74158, -39.217439], [-71.743003, -39.218288], [-71.744068, -39.219595], [-71.743931, -39.224353], [-71.7449, -39.227161], [-71.746035, -39.226444], [-71.747082, -39.224485], [-71.748441, -39.2242], [-71.750443, -39.224426], [-71.750605, -39.225348], [-71.751649, -39.2258], [-71.756244, -39.225326], [-71.755462, -39.233662], [-71.758621, -39.23285], [-71.758503, -39.234334], [-71.761197, -39.236818], [-71.762093, -39.239328], [-71.767413, -39.242498], [-71.768304, -39.244201], [-71.774287, -39.247327], [-71.776533, -39.250977], [-71.778853, -39.252235], [-71.781759, -39.25203], [-71.783687, -39.255332], [-71.785021, -39.255968], [-71.784221, -39.258503], [-71.786617, -39.257822], [-71.7886, -39.258933], [-71.789981, -39.258064], [-71.791083, -39.259847], [-71.794286, -39.25983], [-71.795431, -39.261366], [-71.798267, -39.262361], [-71.798904, -39.263412], [-71.803239, -39.260844], [-71.80821, -39.261721], [-71.812438, -39.261144], [-71.812294, -39.257381], [-71.814435, -39.25862], [-71.816533, -39.257312], [-71.819249, -39.257985], [-71.82034, -39.25734], [-71.82188, -39.257469], [-71.822928, -39.258877], [-71.829101, -39.261546], [-71.831201, -39.261556], [-71.834292, -39.260211], [-71.836244, -39.260114], [-71.835351, -39.255185], [-71.837142, -39.252437], [-71.840981, -39.251086], [-71.842489, -39.24846]], [[-71.882483, -39.265263], [-71.884425, -39.266068], [-71.885181, -39.264731]]]}}