{"type": "Feature", "properties": {"id": "rio-paredones", "name": "Río Paredones", "type": "river", "region": "ohiggins"}, "geometry": {"type": "MultiLineString", "coordinates": [[[-70.245467, -34.228304], [-70.247827, -34.227842], [-70.250323, -34.228325], [-70.254099, -34.227225], [-70.260109, -34.227905], [-70.266883, -34.226069], [-70.27131, -34.226486], [-70.274651, -34.227736], [-70.277226, -34.230149], [-70.282639, -34.229928], [-70.284264, -34.23061], [-70.284571, -34.232163], [-70.286924, -34.234975], [-70.28972, -34.236101], [-70.300614, -34.236039], [-70.307273, -34.238372], [-70.310577, -34.239081], [-70.312116, -34.2387], [-70.317944, -34.240803], [-70.321772, -34.243418]], [[-70.072351, -34.265937], [-70.074668, -34.261681], [-70.076299, -34.25597], [-70.080247, -34.253274], [-70.082457, -34.249283], [-70.08471, -34.247474], [-70.085526, -34.244707], [-70.092199, -34.241195], [-70.092948, -34.236908], [-70.095094, -34.236145], [-70.096381, -34.233874], [-70.0993, -34.231745], [-70.105393, -34.231107], [-70.114406, -34.227204], [-70.118268, -34.228055], [-70.124534, -34.22692], [-70.127624, -34.225713], [-70.138314, -34.225451], [-70.140412, -34.225997], [-70.141099, -34.22692], [-70.146554, -34.227651], [-70.152514, -34.229758], [-70.155604, -34.230113], [-70.157836, -34.231603], [-70.164617, -34.233448], [-70.171998, -34.234726], [-70.177882, -34.234108], [-70.182469, -34.234868], [-70.188992, -34.232952], [-70.190452, -34.231958], [-70.190709, -34.230255], [-70.191653, -34.229687], [-70.193885, -34.230397], [-70.194142, -34.22912], [-70.197108, -34.228005], [-70.206073, -34.227416], [-70.211566, -34.225429], [-70.216973, -34.225926], [-70.21848, -34.225025], [-70.220321, -34.225429], [-70.221436, -34.225003], [-70.229075, -34.226068], [-70.23474, -34.228126], [-70.237792, -34.227863], [-70.242637, -34.228694], [-70.245467, -34.228304]], [[-70.321772, -34.243418], [-70.333198, -34.249586], [-70.333927, -34.252175], [-70.333573, -34.253881], [-70.337275, -34.256928], [-70.339885, -34.256105], [-70.341724, -34.257184], [-70.348838, -34.258083], [-70.353199, -34.257462], [-70.354111, -34.256194]]]}}