{"type": "Feature", "properties": {"id": "rio-yeso", "name": "Río Yeso", "type": "river", "region": "metropolitana"}, "geometry": {"type": "MultiLineString", "coordinates": [[[-70.084701, -33.667695], [-70.084079, -33.672184], [-70.084562, -33.674201], [-70.086973, -33.675347], [-70.089433, -33.675175], [-70.091157, -33.676133], [-70.094776, -33.676217], [-70.096599, -33.677154], [-70.097087, -33.678566], [-70.099512, -33.678464], [-70.102408, -33.680048], [-70.103363, -33.681454], [-70.103488, -33.683355], [-70.104816, -33.683981], [-70.107414, -33.687832], [-70.110567, -33.690361], [-70.110471, -33.691405], [-70.121013, -33.700332], [-70.12406, -33.704117], [-70.127364, -33.705973], [-70.133458, -33.712899], [-70.133715, -33.714398], [-70.13569, -33.717111], [-70.136076, -33.719181], [-70.138436, -33.722001], [-70.140361, -33.730581], [-70.141344, -33.731473], [-70.148393, -33.732995], [-70.149594, -33.733851], [-70.149937, -33.736849], [-70.154057, -33.743986], [-70.157147, -33.747412], [-70.15895, -33.753407], [-70.16264, -33.757189], [-70.166549, -33.758331], [-70.167962, -33.759829], [-70.171309, -33.76882], [-70.172518, -33.775353], [-70.175258, -33.78052], [-70.17706, -33.782304], [-70.184699, -33.785371], [-70.19517, -33.787226], [-70.202809, -33.791435], [-70.207839, -33.792469], [-70.215624, -33.791506], [-70.219117, -33.789816], [-70.221185, -33.790179], [-70.226383, -33.788511], [-70.228549, -33.786565], [-70.233351, -33.78549]], [[-69.932132, -33.543299], [-69.93372, -33.545516], [-69.933162, -33.549647], [-69.930673, -33.552115], [-69.926896, -33.559965], [-69.925373, -33.561056], [-69.924257, -33.564525], [-69.924579, -33.568565], [-69.920867, -33.574644], [-69.919944, -33.578148], [-69.917854, -33.580588], [-69.915451, -33.585021], [-69.916048, -33.591904], [-69.915447, -33.593674], [-69.915512, -33.597302], [-69.913967, -33.60118], [-69.914246, -33.603754], [-69.912937, -33.605309], [-69.912593, -33.606864], [-69.908581, -33.61008], [-69.906449, -33.614723], [-69.906214, -33.616353], [-69.907005, -33.617615], [-69.90862, -33.617606], [-69.910369, -33.618518], [-69.913906, -33.62491], [-69.923228, -33.63058], [-69.925393, -33.630866], [-69.92708, -33.634012], [-69.931058, -33.637058], [-69.934499, -33.637614], [-69.937495, -33.636871], [-69.944066, -33.637201], [-69.946397, -33.636344], [-69.948508, -33.634262], [-69.953223, -33.632228], [-69.955139, -33.630513], [-69.95744, -33.626939], [-69.963947, -33.623357], [-69.968528, -33.61822], [-69.973233, -33.615968], [-69.975883, -33.613239], [-69.978662, -33.611961], [-69.986585, -33.611541], [-69.992979, -33.613878], [-70.004652, -33.621954], [-70.009775, -33.622633], [-70.016754, -33.625997], [-70.019056, -33.625702], [-70.023283, -33.629392], [-70.027188, -33.630289], [-70.028878, -33.631623], [-70.032719, -33.633005], [-70.037949, -33.636525], [-70.044, -33.638472], [-70.043721, -33.6397], [-70.045207, -33.639271], [-70.046403, -33.639834]], [[-69.932132, -33.543299], [-69.93372, -33.545516], [-69.933162, -33.549647], [-69.930673, -33.552115], [-69.926896, -33.559965], [-69.925373, -33.561056], [-69.924257, -33.564525], [-69.924579, -33.568565], [-69.920867, -33.574644], [-69.919944, -33.578148], [-69.917854, -33.580588], [-69.915451, -33.585021], [-69.916048, -33.591904], [-69.915447, -33.593674], [-69.915512, -33.597302], [-69.913967, -33.60118], [-69.914246, -33.603754], [-69.912937, -33.605309], [-69.912593, -33.606864], [-69.908581, -33.61008], [-69.906449, -33.614723], [-69.906214, -33.616353], [-69.907005, -33.617615], [-69.90862, -33.617606], [-69.910369, -33.618518], [-69.913906, -33.62491], [-69.923228, -33.63058], [-69.925393, -33.630866], [-69.92708, -33.634012], [-69.931058, -33.637058], [-69.934499, -33.637614], [-69.937495, -33.636871], [-69.944066, -33.637201], [-69.946397, -33.636344], [-69.948508, -33.634262], [-69.953223, -33.632228], [-69.955139, -33.630513], [-69.95744, -33.626939], [-69.963947, -33.623357], [-69.968528, -33.61822], [-69.973233, -33.615968], [-69.975883, -33.613239], [-69.978662, -33.611961], [-69.986585, -33.611541], [-69.992979, -33.613878], [-70.004652, -33.621954], [-70.009775, -33.622633], [-70.016754, -33.625997], [-70.019056, -33.625702], [-70.023283, -33.629392], [-70.027188, -33.630289], [-70.028878, -33.631623], [-70.032719, -33.633005], [-70.037949, -33.636525], [-70.044, -33.638472], [-70.043721, -33.6397], [-70.045207, -33.639271], [-70.046403, -33.639834]], [[-70.087273, -33.665098], [-70.085787, -33.666884]], [[-70.085787, -33.666884], [-70.08481, -33.668064]], [[-70.083783, -33.664937], [-70.08426, -33.667201]], [[-70.084701, -33.667695], [-70.084079, -33.672184], [-70.084562, -33.674201], [-70.086973, -33.675347], [-70.089433, -33.675175], [-70.091157, -33.676133], [-70.094776, -33.676217], [-70.096599, -33.677154], [-70.097087, -33.678566], [-70.099512, -33.678464], [-70.102408, -33.680048], [-70.103363, -33.681454], [-70.103488, -33.683355], [-70.104816, -33.683981], [-70.107414, -33.687832], [-70.110567, -33.690361], [-70.110471, -33.691405], [-70.121013, -33.700332], [-70.12406, -33.704117], [-70.127364, -33.705973], [-70.133458, -33.712899], [-70.133715, -33.714398], [-70.13569, -33.717111], [-70.136076, -33.719181], [-70.138436, -33.722001], [-70.140361, -33.730581], [-70.141344, -33.731473], [-70.148393, -33.732995], [-70.149594, -33.733851], [-70.149937, -33.736849], [-70.154057, -33.743986], [-70.157147, -33.747412], [-70.15895, -33.753407], [-70.16264, -33.757189], [-70.166549, -33.758331], [-70.167962, -33.759829], [-70.171309, -33.76882], [-70.172518, -33.775353], [-70.175258, -33.78052], [-70.17706, -33.782304], [-70.184699, -33.785371], [-70.19517, -33.787226], [-70.202809, -33.791435], [-70.207839, -33.792469], [-70.215624, -33.791506], [-70.219117, -33.789816], [-70.221185, -33.790179], [-70.226383, -33.788511], [-70.228549, -33.786565], [-70.233351, -33.78549]]]}}