{"type": "Feature", "properties": {"id": "rio-clarillo", "name": "Río Clarillo", "type": "river", "region": "metropolitana"}, "geometry": {"type": "MultiLineString", "coordinates": [[[-70.443518, -33.761454], [-70.442349, -33.75793], [-70.439973, -33.756343], [-70.442049, -33.752123], [-70.440777, -33.749179], [-70.443245, -33.748038], [-70.445031, -33.744135], [-70.447536, -33.742654], [-70.447563, -33.741204], [-70.450154, -33.739192], [-70.451098, -33.735976], [-70.453909, -33.731916], [-70.456093, -33.732157], [-70.456425, -33.730569], [-70.462401, -33.728565], [-70.464343, -33.728815], [-70.466545, -33.730487], [-70.467865, -33.729613], [-70.470096, -33.730211], [-70.471137, -33.729568], [-70.470568, -33.728132], [-70.471459, -33.726356], [-70.475193, -33.726561], [-70.476866, -33.727587], [-70.478379, -33.727498], [-70.478824, -33.726739], [-70.481039, -33.726842], [-70.483645, -33.724532], [-70.487688, -33.724758], [-70.489535, -33.724067], [-70.490811, -33.721554], [-70.49237, -33.721086], [-70.495759, -33.722617], [-70.49969, -33.722106], [-70.503454, -33.719512], [-70.503648, -33.717015], [-70.505593, -33.716659], [-70.508815, -33.712842], [-70.511708, -33.712514], [-70.513682, -33.709715], [-70.516875, -33.709894], [-70.519021, -33.710715], [-70.523235, -33.709258], [-70.526668, -33.70713], [-70.528488, -33.704303], [-70.535629, -33.702025], [-70.537843, -33.699597], [-70.54089, -33.698419], [-70.556499, -33.693705], [-70.568839, -33.687272], [-70.57348, -33.683708], [-70.576115, -33.683351], [-70.580244, -33.681151], [-70.58328, -33.678624], [-70.586507, -33.679565], [-70.592191, -33.678451], [-70.59608, -33.679736], [-70.597599, -33.679165], [-70.599556, -33.679579], [-70.60287, -33.678096], [-70.604937, -33.678487], [-70.60777, -33.678029], [-70.610451, -33.676632], [-70.612028, -33.676945], [-70.612092, -33.676061], [-70.613177, -33.675487], [-70.613993, -33.673639], [-70.616139, -33.671496], [-70.617092, -33.668811], [-70.619946, -33.668204], [-70.619173, -33.665239], [-70.617939, -33.664962], [-70.618763, -33.662225], [-70.620707, -33.661506], [-70.622607, -33.658077], [-70.627413, -33.654309], [-70.627519, -33.652786], [-70.624305, -33.651132], [-70.623804, -33.649456], [-70.626261, -33.647395], [-70.629755, -33.647496], [-70.631251, -33.644874]], [[-70.44955, -33.856838], [-70.455773, -33.854843], [-70.458584, -33.851011], [-70.458863, -33.849265], [-70.459421, -33.84898], [-70.458584, -33.847679], [-70.459163, -33.84538], [-70.461373, -33.839534], [-70.462553, -33.838804], [-70.462017, -33.838144], [-70.462339, -33.836397], [-70.464442, -33.835524], [-70.464099, -33.834134], [-70.465493, -33.83244], [-70.465965, -33.830355], [-70.46339, -33.82745], [-70.463562, -33.825382], [-70.466706, -33.823581], [-70.465643, -33.821344], [-70.465858, -33.818528], [-70.463884, -33.815595], [-70.464549, -33.814169], [-70.463777, -33.813295], [-70.464635, -33.812011], [-70.463734, -33.810024], [-70.46243, -33.809819], [-70.462001, -33.808856], [-70.463208, -33.807946], [-70.462836, -33.805924], [-70.463581, -33.8041], [-70.466564, -33.802656], [-70.466843, -33.801257], [-70.463324, -33.79827], [-70.46342, -33.797494], [-70.461725, -33.795684], [-70.459698, -33.794516], [-70.460406, -33.792269], [-70.459065, -33.791681], [-70.458045, -33.788961], [-70.456779, -33.788694], [-70.456479, -33.787936], [-70.457402, -33.786696], [-70.456554, -33.785083], [-70.457638, -33.782969], [-70.459108, -33.781533], [-70.46062, -33.781542], [-70.459429, -33.778858], [-70.460631, -33.777084], [-70.459891, -33.776308], [-70.46062, -33.77555], [-70.460856, -33.771982], [-70.459869, -33.769842], [-70.456919, -33.768995], [-70.45576, -33.769378], [-70.454194, -33.767229]], [[-70.454194, -33.767229], [-70.450932, -33.763973], [-70.446404, -33.763795], [-70.443518, -33.761454]], [[-70.443518, -33.761454], [-70.442349, -33.75793], [-70.439973, -33.756343], [-70.442049, -33.752123], [-70.440777, -33.749179], [-70.443245, -33.748038], [-70.445031, -33.744135], [-70.447536, -33.742654], [-70.447563, -33.741204], [-70.450154, -33.739192], [-70.451098, -33.735976], [-70.453909, -33.731916], [-70.456093, -33.732157], [-70.456425, -33.730569], [-70.462401, -33.728565], [-70.464343, -33.728815], [-70.466545, -33.730487], [-70.467865, -33.729613], [-70.470096, -33.730211], [-70.471137, -33.729568], [-70.470568, -33.728132], [-70.471459, -33.726356], [-70.475193, -33.726561], [-70.476866, -33.727587], [-70.478379, -33.727498], [-70.478824, -33.726739], [-70.481039, -33.726842], [-70.483645, -33.724532], [-70.487688, -33.724758], [-70.489535, -33.724067], [-70.490811, -33.721554], [-70.49237, -33.721086], [-70.495759, -33.722617], [-70.49969, -33.722106], [-70.503454, -33.719512], [-70.503648, -33.717015], [-70.505593, -33.716659], [-70.508815, -33.712842], [-70.511708, -33.712514], [-70.513682, -33.709715], [-70.516875, -33.709894], [-70.519021, -33.710715], [-70.523235, -33.709258], [-70.526668, -33.70713], [-70.528488, -33.704303], [-70.535629, -33.702025], [-70.537843, -33.699597], [-70.54089, -33.698419], [-70.556499, -33.693705], [-70.568839, -33.687272], [-70.57348, -33.683708], [-70.576115, -33.683351], [-70.580244, -33.681151], [-70.58328, -33.678624], [-70.586507, -33.679565], [-70.592191, -33.678451], [-70.59608, -33.679736], [-70.597599, -33.679165], [-70.599556, -33.679579], [-70.60287, -33.678096], [-70.604937, -33.678487], [-70.60777, -33.678029], [-70.610451, -33.676632], [-70.612028, -33.676945], [-70.612092, -33.676061], [-70.613177, -33.675487], [-70.613993, -33.673639], [-70.616139, -33.671496], [-70.617092, -33.668811], [-70.619946, -33.668204], [-70.619173, -33.665239], [-70.617939, -33.664962], [-70.618763, -33.662225], [-70.620707, -33.661506], [-70.622607, -33.658077], [-70.627413, -33.654309], [-70.627519, -33.652786], [-70.624305, -33.651132], [-70.623804, -33.649456], [-70.626261, -33.647395], [-70.629755, -33.647496], [-70.631251, -33.644874]], [[-70.44955, -33.856838], [-70.455773, -33.854843], [-70.458584, -33.851011], [-70.458863, -33.849265], [-70.459421, -33.84898], [-70.458584, -33.847679], [-70.459163, -33.84538], [-70.461373, -33.839534], [-70.462553, -33.838804], [-70.462017, -33.838144], [-70.462339, -33.836397], [-70.464442, -33.835524], [-70.464099, -33.834134], [-70.465493, -33.83244], [-70.465965, -33.830355], [-70.46339, -33.82745], [-70.463562, -33.825382], [-70.466706, -33.823581], [-70.465643, -33.821344], [-70.465858, -33.818528], [-70.463884, -33.815595], [-70.464549, -33.814169], [-70.463777, -33.813295], [-70.464635, -33.812011], [-70.463734, -33.810024], [-70.46243, -33.809819], [-70.462001, -33.808856], [-70.463208, -33.807946], [-70.462836, -33.805924], [-70.463581, -33.8041], [-70.466564, -33.802656], [-70.466843, -33.801257], [-70.463324, -33.79827], [-70.46342, -33.797494], [-70.461725, -33.795684], [-70.459698, -33.794516], [-70.460406, -33.792269], [-70.459065, -33.791681], [-70.458045, -33.788961], [-70.456779, -33.788694], [-70.456479, -33.787936], [-70.457402, -33.786696], [-70.456554, -33.785083], [-70.457638, -33.782969], [-70.459108, -33.781533], [-70.46062, -33.781542], [-70.459429, -33.778858], [-70.460631, -33.777084], [-70.459891, -33.776308], [-70.46062, -33.77555], [-70.460856, -33.771982], [-70.459869, -33.769842], [-70.456919, -33.768995], [-70.45576, -33.769378], [-70.454194, -33.767229]], [[-70.454194, -33.767229], [-70.450932, -33.763973], [-70.446404, -33.763795], [-70.443518, -33.761454]]]}}