{"type": "Feature", "properties": {"id": "rio-riesco", "name": "Río Riesco", "type": "river", "region": "aysen"}, "geometry": {"type": "MultiLineString", "coordinates": [[[-72.676111, -45.499271], [-72.674858, -45.499479], [-72.673259, -45.496842], [-72.671178, -45.496346], [-72.661141, -45.491228], [-72.657258, -45.487937]], [[-72.657179, -45.487834], [-72.655018, -45.486888], [-72.65122, -45.486708], [-72.646306, -45.483939], [-72.643345, -45.483022], [-72.643689, -45.481006], [-72.640408, -45.480955], [-72.636897, -45.47998], [-72.634451, -45.477278], [-72.630396, -45.476093], [-72.628862, -45.474378], [-72.62618, -45.473422], [-72.624688, -45.471014], [-72.620172, -45.47039], [-72.618285, -45.469327]]]}}