{"type": "Feature", "properties": {"id": "rio-claro-la-junta", "name": "Río Claro (La Junta)", "type": "river", "region": "aysen"}, "geometry": {"type": "MultiLineString", "coordinates": [[[-71.859255, -43.974248], [-71.854738, -43.977182], [-71.854298, -43.977885], [-71.854781, -43.978387], [-71.853472, -43.978657], [-71.851369, -43.981575], [-71.84962, -43.982177], [-71.84932, -43.983281], [-71.848204, -43.984146], [-71.848, -43.986855], [-71.845168, -43.994814], [-71.843183, -43.996828], [-71.843591, -43.997993], [-71.84225, -43.998703], [-71.843365, -43.999722], [-71.842496, -44.000247], [-71.843322, -44.002439], [-71.842389, -44.003303], [-71.844385, -44.004144], [-71.844524, -44.006143], [-71.843902, -44.007247], [-71.845372, -44.007671], [-71.845769, -44.009268], [-71.84431, -44.010881], [-71.845125, -44.012278], [-71.844277, -44.012586], [-71.842572, -44.015117], [-71.842765, -44.01612], [-71.84417, -44.016352], [-71.844374, -44.016977], [-71.842024, -44.018589], [-71.842743, -44.020279], [-71.841681, -44.022146], [-71.840479, -44.022755], [-71.841155, -44.024746], [-71.838881, -44.02672], [-71.839085, -44.028001], [-71.8346, -44.03445], [-71.836413, -44.035907], [-71.835491, -44.036517], [-71.836188, -44.037558], [-71.835029, -44.039062], [-71.836735, -44.039594], [-71.837132, -44.04035], [-71.838226, -44.040273], [-71.83916, -44.041414], [-71.841048, -44.041707], [-71.840812, -44.042856], [-71.842014, -44.043836], [-71.840512, -44.045494], [-71.840672, -44.04618], [-71.842067, -44.046103], [-71.84476, -44.047175], [-71.845232, -44.04955], [-71.844782, -44.052395], [-71.848129, -44.057885], [-71.849942, -44.059057], [-71.849964, -44.061293], [-71.851852, -44.062696], [-71.855156, -44.06339], [-71.855114, -44.064138], [-71.856369, -44.06487], [-71.85536, -44.066512], [-71.85801, -44.068139], [-71.860296, -44.06854], [-71.860306, -44.069696], [-71.861272, -44.070952], [-71.862624, -44.071099], [-71.862999, -44.071808], [-71.865885, -44.071847], [-71.866872, -44.07271], [-71.869994, -44.073057], [-71.872054, -44.072147], [-71.87493, -44.07207], [-71.876099, -44.070598], [-71.878502, -44.071076], [-71.883341, -44.069657], [-71.883427, -44.068301], [-71.885648, -44.066466], [-71.885498, -44.064446], [-71.887997, -44.063498], [-71.887879, -44.06248], [-71.889607, -44.06191], [-71.889757, -44.060645], [-71.891527, -44.060645], [-71.894864, -44.058093], [-71.898158, -44.058348], [-71.90055, -44.057083], [-71.900883, -44.055888], [-71.904241, -44.056282], [-71.907256, -44.055025], [-71.910989, -44.051339], [-71.914347, -44.051316], [-71.916933, -44.048393], [-71.917781, -44.048578], [-71.918006, -44.049519], [-71.922222, -44.047352], [-71.923284, -44.045486], [-71.926707, -44.04581], [-71.93029, -44.044144], [-71.930033, -44.042609], [-71.933284, -44.040496], [-71.938273, -44.038044], [-71.943147, -44.036853], [-71.943458, -44.035492], [-71.945566, -44.034389], [-71.946972, -44.030235], [-71.950711, -44.027381], [-71.957196, -44.027312], [-71.95718, -44.026455], [-71.959755, -44.025854], [-71.961198, -44.024673], [-71.965667, -44.025595], [-71.968242, -44.023632], [-71.970806, -44.023084], [-71.972415, -44.023404], [-71.973649, -44.02563], [-71.9786, -44.023829], [-71.979276, -44.0231], [-71.978981, -44.021564], [-71.98117, -44.020739], [-71.98492, -44.020191], [-71.987425, -44.02131], [-71.991271, -44.01989], [-71.993235, -44.020704], [-71.994501, -44.020168], [-71.997483, -44.020523], [-72.002579, -44.018513], [-72.005938, -44.017919], [-72.009773, -44.018019], [-72.01378, -44.019701], [-72.015803, -44.019215], [-72.01664, -44.019551], [-72.016854, -44.021298], [-72.017653, -44.022236], [-72.018244, -44.021518], [-72.020958, -44.021892], [-72.02504, -44.020735], [-72.035753, -44.020373], [-72.037684, -44.019261], [-72.040989, -44.014092], [-72.043644, -44.012503], [-72.046873, -44.011608], [-72.052383, -44.011465], [-72.054121, -44.009667], [-72.059072, -44.009786], [-72.064109, -44.008617], [-72.066706, -44.006943], [-72.068524, -44.003903], [-72.071271, -44.003964], [-72.074073, -44.005533], [-72.074919, -44.006866], [-72.076598, -44.006951], [-72.077392, -44.005006], [-72.081871, -44.000241], [-72.084639, -44.00014], [-72.087563, -44.000889], [-72.089172, -44.000495], [-72.090889, -44.001888], [-72.097008, -43.9992], [-72.099899, -43.998767], [-72.103386, -43.999408], [-72.105945, -43.99771], [-72.111849, -43.999074], [-72.115594, -43.997422], [-72.116007, -43.995593], [-72.118744, -43.997116], [-72.120665, -43.997016], [-72.121105, -43.993666], [-72.12546, -43.994121], [-72.129934, -43.99267], [-72.130589, -43.991103], [-72.132713, -43.989787], [-72.139648, -43.989005], [-72.14099, -43.98954], [-72.142047, -43.989065], [-72.142551, -43.987765], [-72.15021, -43.987612], [-72.1555, -43.988677], [-72.16096, -43.987434], [-72.165268, -43.984655], [-72.16721, -43.984165], [-72.169946, -43.984489], [-72.172934, -43.986531], [-72.174425, -43.986593], [-72.176957, -43.985273], [-72.178298, -43.980054], [-72.179116, -43.978999], [-72.181187, -43.978999], [-72.182842, -43.980807], [-72.187042, -43.980386], [-72.190712, -43.981266], [-72.193286, -43.979661], [-72.192294, -43.977464], [-72.192809, -43.976661], [-72.197675, -43.976688], [-72.200174, -43.974611], [-72.203189, -43.976171], [-72.206327, -43.976449], [-72.208318, -43.978495], [-72.212931, -43.974187], [-72.214363, -43.971326], [-72.215608, -43.965755], [-72.217845, -43.964002], [-72.224808, -43.962712], [-72.228037, -43.961415], [-72.228284, -43.95814], [-72.230837, -43.956178], [-72.234877, -43.956059], [-72.237666, -43.958059]], [[-72.237666, -43.958059], [-72.235649, -43.962036], [-72.235848, -43.963029], [-72.236711, -43.963453], [-72.242473, -43.962774], [-72.247419, -43.960889], [-72.252874, -43.960411], [-72.255246, -43.959051], [-72.258421, -43.955402], [-72.260862, -43.95415], [-72.273366, -43.951293], [-72.275389, -43.950069], [-72.278189, -43.946585], [-72.279342, -43.945979], [-72.28599, -43.944489], [-72.286284, -43.946622], [-72.286788, -43.946865], [-72.295873, -43.945286], [-72.30742, -43.935805], [-72.311083, -43.937859], [-72.315828, -43.938154], [-72.317575, -43.939238], [-72.320522, -43.939764], [-72.321969, -43.939519], [-72.32799, -43.942213], [-72.339891, -43.942729], [-72.345198, -43.946248], [-72.346956, -43.949375], [-72.353626, -43.952722], [-72.355136, -43.952674], [-72.35666, -43.950462], [-72.35792, -43.950262], [-72.357577, -43.953487], [-72.359546, -43.955483], [-72.360222, -43.95787]], [[-72.242393, -43.940495], [-72.244842, -43.941234], [-72.244673, -43.942694], [-72.243524, -43.944386], [-72.242336, -43.944787], [-72.240052, -43.942852], [-72.23568, -43.945682], [-72.237053, -43.946793], [-72.241812, -43.94685], [-72.242778, -43.94739], [-72.240676, -43.949152], [-72.239998, -43.954982], [-72.239011, -43.957338], [-72.237666, -43.958059]], [[-72.237666, -43.958059], [-72.235649, -43.962036], [-72.235848, -43.963029], [-72.236711, -43.963453], [-72.242473, -43.962774], [-72.247419, -43.960889], [-72.252874, -43.960411], [-72.255246, -43.959051], [-72.258421, -43.955402], [-72.260862, -43.95415], [-72.273366, -43.951293], [-72.275389, -43.950069], [-72.278189, -43.946585], [-72.279342, -43.945979], [-72.28599, -43.944489], [-72.286284, -43.946622], [-72.286788, -43.946865], [-72.295873, -43.945286], [-72.30742, -43.935805], [-72.311083, -43.937859], [-72.315828, -43.938154], [-72.317575, -43.939238], [-72.320522, -43.939764], [-72.321969, -43.939519], [-72.32799, -43.942213], [-72.339891, -43.942729], [-72.345198, -43.946248], [-72.346956, -43.949375], [-72.353626, -43.952722], [-72.355136, -43.952674], [-72.35666, -43.950462], [-72.35792, -43.950262], [-72.357577, -43.953487], [-72.359546, -43.955483], [-72.360222, -43.95787]]]}}