{"type": "Feature", "properties": {"id": "rio-pescado", "name": "Río Pescado", "type": "river", "region": "los-lagos"}, "geometry": {"type": "MultiLineString", "coordinates": [[[-72.712229, -41.269259], [-72.717242, -41.267118], [-72.720417, -41.267492], [-72.724846, -41.272395], [-72.726404, -41.271131], [-72.725465, -41.270709], [-72.725598, -41.270118], [-72.728517, -41.272099], [-72.727895, -41.272851], [-72.728078, -41.274109], [-72.730165, -41.277851], [-72.734136, -41.278125], [-72.734561, -41.278897], [-72.735543, -41.27827], [-72.742188, -41.279172], [-72.746359, -41.278552], [-72.749725, -41.278979], [-72.751002, -41.278327], [-72.754127, -41.278894], [-72.760661, -41.277921], [-72.764856, -41.278527], [-72.766078, -41.277388], [-72.767397, -41.27786], [-72.769747, -41.276823], [-72.770267, -41.275726], [-72.771469, -41.275584], [-72.770694, -41.274963], [-72.770627, -41.272018], [-72.776699, -41.269728], [-72.778351, -41.267631], [-72.777901, -41.266567], [-72.778287, -41.264518], [-72.7826, -41.264728], [-72.78348, -41.262583], [-72.785647, -41.260873], [-72.789381, -41.260631], [-72.790861, -41.261115], [-72.792363, -41.259443], [-72.793425, -41.260602], [-72.794935, -41.260384], [-72.795877, -41.259118], [-72.795037, -41.252875], [-72.795359, -41.251268]]]}}