{"type": "Feature", "properties": {"id": "rio-sur", "name": "Río Sur", "type": "river", "region": "los-lagos"}, "geometry": {"type": "MultiLineString", "coordinates": [[[-72.675838, -41.316368], [-72.68132, -41.316143], [-72.684979, -41.317521], [-72.686191, -41.316602], [-72.688508, -41.316207], [-72.690365, -41.317102], [-72.692585, -41.315538], [-72.6931, -41.314048], [-72.695976, -41.312516], [-72.704559, -41.309809], [-72.709279, -41.309897], [-72.712133, -41.309011], [-72.719429, -41.302233], [-72.725888, -41.299444], [-72.730576, -41.295107], [-72.733462, -41.293729], [-72.735629, -41.291206], [-72.741809, -41.286724], [-72.75065, -41.282983], [-72.755649, -41.281839], [-72.756701, -41.280855], [-72.761207, -41.279597], [-72.76243, -41.280371], [-72.763632, -41.280242], [-72.764856, -41.278527]]]}}