{"type": "Feature", "properties": {"id": "rio-fuy", "name": "Río Fuy", "type": "river", "region": "los-rios"}, "geometry": {"type": "MultiLineString", "coordinates": [[[-71.920502, -39.856394], [-71.921541, -39.855012], [-71.920774, -39.853484], [-71.922973, -39.852533], [-71.925012, -39.852348], [-71.931421, -39.853441], [-71.934792, -39.851857], [-71.937662, -39.851335], [-71.943369, -39.852076], [-71.945689, -39.851724], [-71.953142, -39.853349], [-71.961994, -39.852657], [-71.962399, -39.85415], [-71.966137, -39.853697], [-71.967283, -39.851966], [-71.970885, -39.849261], [-71.969678, -39.847266], [-71.969225, -39.844963], [-71.97225, -39.843362], [-71.974971, -39.840756], [-71.974523, -39.839075], [-71.975458, -39.837518], [-71.976907, -39.837076], [-71.978324, -39.837995], [-71.979951, -39.83733], [-71.980588, -39.831866], [-71.983623, -39.829912], [-71.984894, -39.826957], [-71.987051, -39.825835], [-71.989661, -39.826502], [-71.99247, -39.825497], [-71.994689, -39.825565], [-71.999101, -39.822373], [-72.000787, -39.82208], [-72.004075, -39.822354], [-72.008715, -39.821415], [-72.012644, -39.822226]], [[-71.919624, -39.861773], [-71.918808, -39.860686], [-71.918982, -39.859797]], [[-71.919836, -39.876611], [-71.919248, -39.875518], [-71.919627, -39.873855]], [[-71.889986, -39.874549], [-71.89298, -39.874916], [-71.897553, -39.874455], [-71.900992, -39.875984], [-71.901307, -39.877086], [-71.904204, -39.879942], [-71.908955, -39.881357], [-71.912246, -39.881757], [-71.917946, -39.880817], [-71.920321, -39.878244], [-71.918521, -39.869252], [-71.919799, -39.860754], [-71.918875, -39.858636], [-71.920502, -39.856394]], [[-71.928904, -39.852978], [-71.934411, -39.851997]]]}}