{"type": "Feature", "properties": {"id": "rio-diguillin", "name": "Río Diguillín", "type": "river", "region": "nuble"}, "geometry": {"type": "MultiLineString", "coordinates": [[[-71.371296, -36.898276], [-71.369724, -36.900783], [-71.369905, -36.903158], [-71.370444, -36.903393], [-71.370976, -36.906438], [-71.372487, -36.907812], [-71.372448, -36.908906], [-71.378907, -36.911487], [-71.383841, -36.911976], [-71.384548, -36.914307], [-71.382474, -36.91721], [-71.386622, -36.920943], [-71.390273, -36.921926], [-71.394016, -36.926014], [-71.393753, -36.927796], [-71.394427, -36.930056], [-71.395279, -36.931615], [-71.396354, -36.931937], [-71.395785, -36.933329]], [[-71.371296, -36.898276], [-71.369724, -36.900783], [-71.369905, -36.903158], [-71.370444, -36.903393], [-71.370976, -36.906438], [-71.372487, -36.907812], [-71.372448, -36.908906], [-71.378907, -36.911487], [-71.383841, -36.911976], [-71.384548, -36.914307], [-71.382474, -36.91721], [-71.386622, -36.920943], [-71.390273, -36.921926], [-71.394016, -36.926014], [-71.393753, -36.927796], [-71.394427, -36.930056], [-71.395279, -36.931615], [-71.396354, -36.931937], [-71.395785, -36.933329]], [[-71.395785, -36.933329], [-71.397201, -36.93351], [-71.400335, -36.935752], [-71.405259, -36.935773], [-71.405962, -36.934763], [-71.408071, -36.934919], [-71.408901, -36.935832], [-71.411057, -36.936081], [-71.417506, -36.939658], [-71.424495, -36.941887], [-71.424286, -36.948002], [-71.427923, -36.949789], [-71.42868, -36.951126], [-71.435021, -36.95303], [-71.436402, -36.954659], [-71.437687, -36.954123], [-71.438993, -36.954897], [-71.442137, -36.954001], [-71.445503, -36.954639], [-71.4473, -36.954299], [-71.452267, -36.95524], [-71.453638, -36.956189], [-71.455832, -36.955696], [-71.467661, -36.957217], [-71.471795, -36.959042], [-71.473969, -36.959156], [-71.474753, -36.960318], [-71.478869, -36.961435], [-71.48126, -36.962991], [-71.480968, -36.96336], [-71.481924, -36.96475], [-71.487414, -36.968485], [-71.488997, -36.970375], [-71.494235, -36.972801], [-71.496035, -36.974565], [-71.497603, -36.974722], [-71.498795, -36.975593], [-71.507524, -36.976077]], [[-71.395785, -36.933329], [-71.397201, -36.93351], [-71.400335, -36.935752], [-71.405259, -36.935773], [-71.405962, -36.934763], [-71.408071, -36.934919], [-71.408901, -36.935832], [-71.411057, -36.936081], [-71.417506, -36.939658], [-71.424495, -36.941887], [-71.424286, -36.948002], [-71.427923, -36.949789], [-71.42868, -36.951126], [-71.435021, -36.95303], [-71.436402, -36.954659], [-71.437687, -36.954123], [-71.438993, -36.954897], [-71.442137, -36.954001], [-71.445503, -36.954639], [-71.4473, -36.954299], [-71.452267, -36.95524], [-71.453638, -36.956189], [-71.455832, -36.955696], [-71.467661, -36.957217], [-71.471795, -36.959042], [-71.473969, -36.959156], [-71.474753, -36.960318], [-71.478869, -36.961435], [-71.48126, -36.962991], [-71.480968, -36.96336], [-71.481924, -36.96475], [-71.487414, -36.968485], [-71.488997, -36.970375], [-71.494235, -36.972801], [-71.496035, -36.974565], [-71.497603, -36.974722], [-71.498795, -36.975593], [-71.507524, -36.976077]], [[-71.507524, -36.976077], [-71.508801, -36.975307], [-71.511807, -36.975442], [-71.513068, -36.972888], [-71.5187, -36.972571], [-71.519988, -36.971234], [-71.520159, -36.969704], [-71.521951, -36.969738], [-71.524617, -36.968212], [-71.525921, -36.965679], [-71.527339, -36.965126], [-71.528333, -36.963769], [-71.531575, -36.963206], [-71.533907, -36.960701], [-71.537721, -36.959873], [-71.541566, -36.956826], [-71.548178, -36.955023], [-71.55028, -36.95222], [-71.549937, -36.94924], [-71.552753, -36.94747], [-71.551713, -36.943753], [-71.552614, -36.939143], [-71.553982, -36.937874], [-71.554422, -36.933951], [-71.558064, -36.933968], [-71.55874, -36.932982], [-71.560425, -36.932587], [-71.563053, -36.932954], [-71.56522, -36.930794], [-71.570172, -36.930526], [-71.572017, -36.928398], [-71.574061, -36.927669], [-71.574088, -36.926387], [-71.57648, -36.924285], [-71.580332, -36.922699], [-71.58082, -36.920537], [-71.583288, -36.919332], [-71.587638, -36.918719], [-71.588218, -36.915631], [-71.590776, -36.914138], [-71.593311, -36.910805], [-71.596213, -36.911372], [-71.597284, -36.910344]], [[-71.507524, -36.976077], [-71.508801, -36.975307], [-71.511807, -36.975442], [-71.513068, -36.972888], [-71.5187, -36.972571], [-71.519988, -36.971234], [-71.520159, -36.969704], [-71.521951, -36.969738], [-71.524617, -36.968212], [-71.525921, -36.965679], [-71.527339, -36.965126], [-71.528333, -36.963769], [-71.531575, -36.963206], [-71.533907, -36.960701], [-71.537721, -36.959873], [-71.541566, -36.956826], [-71.548178, -36.955023], [-71.55028, -36.95222], [-71.549937, -36.94924], [-71.552753, -36.94747], [-71.551713, -36.943753], [-71.552614, -36.939143], [-71.553982, -36.937874], [-71.554422, -36.933951], [-71.558064, -36.933968], [-71.55874, -36.932982], [-71.560425, -36.932587], [-71.563053, -36.932954], [-71.56522, -36.930794], [-71.570172, -36.930526], [-71.572017, -36.928398], [-71.574061, -36.927669], [-71.574088, -36.926387], [-71.57648, -36.924285], [-71.580332, -36.922699], [-71.58082, -36.920537], [-71.583288, -36.919332], [-71.587638, -36.918719], [-71.588218, -36.915631], [-71.590776, -36.914138], [-71.593311, -36.910805], [-71.596213, -36.911372], [-71.597284, -36.910344]], [[-71.597284, -36.910344], [-71.601543, -36.907631], [-71.603705, -36.907267], [-71.604866, -36.905176], [-71.604136, -36.903097], [-71.604758, -36.901924], [-71.606831, -36.902381], [-71.609336, -36.901851], [-71.611177, -36.900438], [-71.614938, -36.895307], [-71.618473, -36.895303], [-71.620935, -36.892844], [-71.627206, -36.891763], [-71.629111, -36.888914], [-71.628574, -36.887151], [-71.631694, -36.8838], [-71.633121, -36.882925], [-71.636998, -36.883611], [-71.638714, -36.883008], [-71.642385, -36.878391], [-71.648535, -36.873096], [-71.653739, -36.874074], [-71.654366, -36.873394], [-71.65383, -36.871356], [-71.654227, -36.871055], [-71.658073, -36.872737], [-71.660061, -36.870933], [-71.661273, -36.872083], [-71.662823, -36.87218], [-71.665707, -36.870495], [-71.666433, -36.868045], [-71.667549, -36.867223], [-71.672704, -36.867268], [-71.674644, -36.864015], [-71.678396, -36.864867], [-71.680301, -36.863418], [-71.692261, -36.860077], [-71.694036, -36.858961], [-71.695487, -36.856587], [-71.698309, -36.855795], [-71.698835, -36.853606], [-71.709641, -36.851477], [-71.70815, -36.845813], [-71.708778, -36.843254], [-71.714721, -36.840013], [-71.72177, -36.839299], [-71.725868, -36.835102], [-71.726726, -36.834803], [-71.728411, -36.836063], [-71.733631, -36.829511], [-71.741763, -36.829606], [-71.742863, -36.82915], [-71.742461, -36.826892], [-71.743185, -36.826415], [-71.744633, -36.826965], [-71.746597, -36.82894], [-71.750073, -36.829631], [-71.751983, -36.831667], [-71.753644, -36.832129], [-71.762915, -36.828146], [-71.765394, -36.830035], [-71.768693, -36.830065], [-71.771469, -36.831171], [-71.773681, -36.833546]], [[-71.597284, -36.910344], [-71.601543, -36.907631], [-71.603705, -36.907267], [-71.604866, -36.905176], [-71.604136, -36.903097], [-71.604758, -36.901924], [-71.606831, -36.902381], [-71.609336, -36.901851], [-71.611177, -36.900438], [-71.614938, -36.895307], [-71.618473, -36.895303], [-71.620935, -36.892844], [-71.627206, -36.891763], [-71.629111, -36.888914], [-71.628574, -36.887151], [-71.631694, -36.8838], [-71.633121, -36.882925], [-71.636998, -36.883611], [-71.638714, -36.883008], [-71.642385, -36.878391], [-71.648535, -36.873096], [-71.653739, -36.874074], [-71.654366, -36.873394], [-71.65383, -36.871356], [-71.654227, -36.871055], [-71.658073, -36.872737], [-71.660061, -36.870933], [-71.661273, -36.872083], [-71.662823, -36.87218], [-71.665707, -36.870495], [-71.666433, -36.868045], [-71.667549, -36.867223], [-71.672704, -36.867268], [-71.674644, -36.864015], [-71.678396, -36.864867], [-71.680301, -36.863418], [-71.692261, -36.860077], [-71.694036, -36.858961], [-71.695487, -36.856587], [-71.698309, -36.855795], [-71.698835, -36.853606], [-71.709641, -36.851477], [-71.70815, -36.845813], [-71.708778, -36.843254], [-71.714721, -36.840013], [-71.72177, -36.839299], [-71.725868, -36.835102], [-71.726726, -36.834803], [-71.728411, -36.836063], [-71.733631, -36.829511], [-71.741763, -36.829606], [-71.742863, -36.82915], [-71.742461, -36.826892], [-71.743185, -36.826415], [-71.744633, -36.826965], [-71.746597, -36.82894], [-71.750073, -36.829631], [-71.751983, -36.831667], [-71.753644, -36.832129], [-71.762915, -36.828146], [-71.765394, -36.830035], [-71.768693, -36.830065], [-71.771469, -36.831171], [-71.773681, -36.833546]], [[-72.196618, -36.884246], [-72.197868, -36.885962], [-72.197943, -36.888061], [-72.198683, -36.88897], [-72.200507, -36.888858], [-72.202524, -36.890382], [-72.205238, -36.889719], [-72.208151, -36.890607], [-72.210555, -36.890317], [-72.212335, -36.89127], [-72.212614, -36.892063], [-72.210495, -36.893492], [-72.210286, -36.894612], [-72.211703, -36.896379], [-72.212046, -36.899071], [-72.213379, -36.901903], [-72.214414, -36.901849]], [[-72.196618, -36.884246], [-72.197868, -36.885962], [-72.197943, -36.888061], [-72.198683, -36.88897], [-72.200507, -36.888858], [-72.202524, -36.890382], [-72.205238, -36.889719], [-72.208151, -36.890607], [-72.210555, -36.890317], [-72.212335, -36.89127], [-72.212614, -36.892063], [-72.210495, -36.893492], [-72.210286, -36.894612], [-72.211703, -36.896379], [-72.212046, -36.899071], [-72.213379, -36.901903], [-72.214414, -36.901849]], [[-72.262895, -36.892257], [-72.270317, -36.890914], [-72.274053, -36.891581], [-72.280799, -36.887662], [-72.28343, -36.887621], [-72.285233, -36.885958], [-72.290323, -36.884602], [-72.295183, -36.882077], [-72.302608, -36.880672], [-72.307602, -36.876201], [-72.308434, -36.873737], [-72.308224, -36.871283], [-72.311001, -36.869879], [-72.313744, -36.869832], [-72.31545, -36.870433], [-72.316958, -36.872004], [-72.320002, -36.872276], [-72.323905, -36.867937], [-72.32546, -36.867043], [-72.330921, -36.867571], [-72.337766, -36.86503], [-72.34098, -36.864592], [-72.347248, -36.867358], [-72.355005, -36.867133], [-72.356906, -36.866526], [-72.360348, -36.864098], [-72.362477, -36.863526], [-72.364079, -36.863554], [-72.364894, -36.864395], [-72.363655, -36.86588], [-72.363867, -36.866955], [-72.369556, -36.868487], [-72.372445, -36.867427], [-72.380282, -36.866579]], [[-72.262895, -36.892257], [-72.270317, -36.890914], [-72.274053, -36.891581], [-72.280799, -36.887662], [-72.28343, -36.887621], [-72.285233, -36.885958], [-72.290323, -36.884602], [-72.295183, -36.882077], [-72.302608, -36.880672], [-72.307602, -36.876201], [-72.308434, -36.873737], [-72.308224, -36.871283], [-72.311001, -36.869879], [-72.313744, -36.869832], [-72.31545, -36.870433], [-72.316958, -36.872004], [-72.320002, -36.872276], [-72.323905, -36.867937], [-72.32546, -36.867043], [-72.330921, -36.867571], [-72.337766, -36.86503], [-72.34098, -36.864592], [-72.347248, -36.867358], [-72.355005, -36.867133], [-72.356906, -36.866526], [-72.360348, -36.864098], [-72.362477, -36.863526], [-72.364079, -36.863554], [-72.364894, -36.864395], [-72.363655, -36.86588], [-72.363867, -36.866955], [-72.369556, -36.868487], [-72.372445, -36.867427], [-72.380282, -36.866579]], [[-72.076495, -36.893419], [-72.077892, -36.893278], [-72.081106, -36.894393], [-72.083455, -36.89408], [-72.085016, -36.893063], [-72.086551, -36.893209], [-72.087184, -36.895307], [-72.09162, -36.896521], [-72.095622, -36.903196], [-72.09835, -36.902636], [-72.104143, -36.903299], [-72.106506, -36.902533], [-72.108703, -36.902698], [-72.110281, -36.902044], [-72.11068, -36.900088], [-72.112584, -36.89873], [-72.117975, -36.899397], [-72.121165, -36.898209], [-72.122127, -36.898381], [-72.125524, -36.90235], [-72.12791, -36.902462], [-72.129713, -36.901527], [-72.132293, -36.901815], [-72.137674, -36.900386], [-72.141858, -36.900004], [-72.144867, -36.901043], [-72.148188, -36.900944], [-72.152608, -36.899052], [-72.157034, -36.895496], [-72.161596, -36.895122], [-72.165952, -36.892306], [-72.169447, -36.892415], [-72.176667, -36.889127], [-72.192691, -36.883607], [-72.196618, -36.884246]], [[-72.076495, -36.893419], [-72.077892, -36.893278], [-72.081106, -36.894393], [-72.083455, -36.89408], [-72.085016, -36.893063], [-72.086551, -36.893209], [-72.087184, -36.895307], [-72.09162, -36.896521], [-72.095622, -36.903196], [-72.09835, -36.902636], [-72.104143, -36.903299], [-72.106506, -36.902533], [-72.108703, -36.902698], [-72.110281, -36.902044], [-72.11068, -36.900088], [-72.112584, -36.89873], [-72.117975, -36.899397], [-72.121165, -36.898209], [-72.122127, -36.898381], [-72.125524, -36.90235], [-72.12791, -36.902462], [-72.129713, -36.901527], [-72.132293, -36.901815], [-72.137674, -36.900386], [-72.141858, -36.900004], [-72.144867, -36.901043], [-72.148188, -36.900944], [-72.152608, -36.899052], [-72.157034, -36.895496], [-72.161596, -36.895122], [-72.165952, -36.892306], [-72.169447, -36.892415], [-72.176667, -36.889127], [-72.192691, -36.883607], [-72.196618, -36.884246]], [[-72.067215, -36.893018], [-72.068717, -36.894468], [-72.073288, -36.895], [-72.076495, -36.893419]], [[-72.067215, -36.893018], [-72.068717, -36.894468], [-72.073288, -36.895], [-72.076495, -36.893419]], [[-72.044477, -36.890618], [-72.047659, -36.892555], [-72.048015, -36.894485]], [[-72.044477, -36.890618], [-72.047659, -36.892555], [-72.048015, -36.894485]], [[-71.773681, -36.833546], [-71.774669, -36.83461], [-71.776887, -36.833588], [-71.779725, -36.834569], [-71.78784, -36.840754], [-71.790668, -36.84078], [-71.791948, -36.838625], [-71.797207, -36.839944], [-71.800777, -36.841574], [-71.800818, -36.839874], [-71.801338, -36.83965], [-71.809827, -36.84304], [-71.827902, -36.845927], [-71.836716, -36.849404], [-71.838945, -36.849777], [-71.843392, -36.847891], [-71.844626, -36.848133], [-71.846651, -36.850537], [-71.849199, -36.851256], [-71.852772, -36.850147], [-71.859156, -36.84982], [-71.870403, -36.852677], [-71.871396, -36.853919], [-71.876497, -36.854874], [-71.878777, -36.856471], [-71.889811, -36.856712], [-71.892735, -36.858287], [-71.895208, -36.858351], [-71.898737, -36.856334], [-71.902449, -36.856609], [-71.906118, -36.855613], [-71.911151, -36.857329], [-71.914252, -36.85563], [-71.918983, -36.855183], [-71.923168, -36.853793], [-71.926461, -36.854982], [-71.931718, -36.854814], [-71.934839, -36.853003], [-71.937055, -36.853626], [-71.938675, -36.855424], [-71.941143, -36.854952], [-71.950117, -36.857128], [-71.952494, -36.858622], [-71.953856, -36.860566], [-71.966983, -36.861674], [-71.973946, -36.860545], [-71.974901, -36.861305], [-71.974912, -36.862665], [-71.982803, -36.867892], [-71.985002, -36.868043], [-71.987706, -36.866983], [-71.990098, -36.867206], [-71.994106, -36.866335], [-71.999068, -36.866609], [-72.002479, -36.865365], [-72.006742, -36.864753], [-72.008903, -36.863489], [-72.011505, -36.865041], [-72.020987, -36.866727], [-72.023057, -36.867908], [-72.024203, -36.868995], [-72.023983, -36.869987], [-72.024897, -36.872369], [-72.029484, -36.876252], [-72.0295, -36.879425], [-72.033051, -36.880642], [-72.034084, -36.883156], [-72.038298, -36.886314], [-72.041793, -36.887258], [-72.043179, -36.889762], [-72.044477, -36.890618]], [[-71.773681, -36.833546], [-71.774669, -36.83461], [-71.776887, -36.833588], [-71.779725, -36.834569], [-71.78784, -36.840754], [-71.790668, -36.84078], [-71.791948, -36.838625], [-71.797207, -36.839944], [-71.800777, -36.841574], [-71.800818, -36.839874], [-71.801338, -36.83965], [-71.809827, -36.84304], [-71.827902, -36.845927], [-71.836716, -36.849404], [-71.838945, -36.849777], [-71.843392, -36.847891], [-71.844626, -36.848133], [-71.846651, -36.850537], [-71.849199, -36.851256], [-71.852772, -36.850147], [-71.859156, -36.84982], [-71.870403, -36.852677], [-71.871396, -36.853919], [-71.876497, -36.854874], [-71.878777, -36.856471], [-71.889811, -36.856712], [-71.892735, -36.858287], [-71.895208, -36.858351], [-71.898737, -36.856334], [-71.902449, -36.856609], [-71.906118, -36.855613], [-71.911151, -36.857329], [-71.914252, -36.85563], [-71.918983, -36.855183], [-71.923168, -36.853793], [-71.926461, -36.854982], [-71.931718, -36.854814], [-71.934839, -36.853003], [-71.937055, -36.853626], [-71.938675, -36.855424], [-71.941143, -36.854952], [-71.950117, -36.857128], [-71.952494, -36.858622], [-71.953856, -36.860566], [-71.966983, -36.861674], [-71.973946, -36.860545], [-71.974901, -36.861305], [-71.974912, -36.862665], [-71.982803, -36.867892], [-71.985002, -36.868043], [-71.987706, -36.866983], [-71.990098, -36.867206], [-71.994106, -36.866335], [-71.999068, -36.866609], [-72.002479, -36.865365], [-72.006742, -36.864753], [-72.008903, -36.863489], [-72.011505, -36.865041], [-72.020987, -36.866727], [-72.023057, -36.867908], [-72.024203, -36.868995], [-72.023983, -36.869987], [-72.024897, -36.872369], [-72.029484, -36.876252], [-72.0295, -36.879425], [-72.033051, -36.880642], [-72.034084, -36.883156], [-72.038298, -36.886314], [-72.041793, -36.887258], [-72.043179, -36.889762], [-72.044477, -36.890618]], [[-72.048015, -36.894485], [-72.050963, -36.894786], [-72.054267, -36.893318], [-72.05858, -36.89373], [-72.062509, -36.891036], [-72.067215, -36.893018]], [[-72.048015, -36.894485], [-72.050963, -36.894786], [-72.054267, -36.893318], [-72.05858, -36.89373], [-72.062509, -36.891036], [-72.067215, -36.893018]], [[-72.214414, -36.901849], [-72.21896, -36.900592], [-72.224623, -36.896828], [-72.226779, -36.897083], [-72.229679, -36.89858], [-72.231006, -36.898503], [-72.235888, -36.897825], [-72.240424, -36.896281], [-72.242194, -36.895112], [-72.242269, -36.893951], [-72.243039, -36.893423], [-72.245423, -36.89326], [-72.24821, -36.894464], [-72.250122, -36.893484], [-72.254076, -36.893552], [-72.258807, -36.891531], [-72.262895, -36.892257]], [[-72.214414, -36.901849], [-72.21896, -36.900592], [-72.224623, -36.896828], [-72.226779, -36.897083], [-72.229679, -36.89858], [-72.231006, -36.898503], [-72.235888, -36.897825], [-72.240424, -36.896281], [-72.242194, -36.895112], [-72.242269, -36.893951], [-72.243039, -36.893423], [-72.245423, -36.89326], [-72.24821, -36.894464], [-72.250122, -36.893484], [-72.254076, -36.893552], [-72.258807, -36.891531], [-72.262895, -36.892257]], [[-72.262895, -36.892257], [-72.270317, -36.890914], [-72.274053, -36.891581], [-72.280799, -36.887662], [-72.28343, -36.887621], [-72.285233, -36.885958], [-72.290323, -36.884602], [-72.295183, -36.882077], [-72.302608, -36.880672], [-72.307602, -36.876201], [-72.308434, -36.873737], [-72.308224, -36.871283], [-72.311001, -36.869879], [-72.313744, -36.869832], [-72.31545, -36.870433], [-72.316958, -36.872004], [-72.320002, -36.872276], [-72.323905, -36.867937], [-72.32546, -36.867043], [-72.330921, -36.867571], [-72.337766, -36.86503], [-72.34098, -36.864592], [-72.347248, -36.867358], [-72.355005, -36.867133], [-72.356906, -36.866526], [-72.360348, -36.864098], [-72.362477, -36.863526], [-72.364079, -36.863554], [-72.364894, -36.864395], [-72.363655, -36.86588], [-72.363867, -36.866955], [-72.369556, -36.868487], [-72.372445, -36.867427], [-72.380282, -36.866579]], [[-72.214414, -36.901849], [-72.21896, -36.900592], [-72.224623, -36.896828], [-72.226779, -36.897083], [-72.229679, -36.89858], [-72.231006, -36.898503], [-72.235888, -36.897825], [-72.240424, -36.896281], [-72.242194, -36.895112], [-72.242269, -36.893951], [-72.243039, -36.893423], [-72.245423, -36.89326], [-72.24821, -36.894464], [-72.250122, -36.893484], [-72.254076, -36.893552], [-72.258807, -36.891531], [-72.262895, -36.892257]], [[-72.196618, -36.884246], [-72.197868, -36.885962], [-72.197943, -36.888061], [-72.198683, -36.88897], [-72.200507, -36.888858], [-72.202524, -36.890382], [-72.205238, -36.889719], [-72.208151, -36.890607], [-72.210555, -36.890317], [-72.212335, -36.89127], [-72.212614, -36.892063], [-72.210495, -36.893492], [-72.210286, -36.894612], [-72.211703, -36.896379], [-72.212046, -36.899071], [-72.213379, -36.901903], [-72.214414, -36.901849]], [[-72.076495, -36.893419], [-72.077892, -36.893278], [-72.081106, -36.894393], [-72.083455, -36.89408], [-72.085016, -36.893063], [-72.086551, -36.893209], [-72.087184, -36.895307], [-72.09162, -36.896521], [-72.095622, -36.903196], [-72.09835, -36.902636], [-72.104143, -36.903299], [-72.106506, -36.902533], [-72.108703, -36.902698], [-72.110281, -36.902044], [-72.11068, -36.900088], [-72.112584, -36.89873], [-72.117975, -36.899397], [-72.121165, -36.898209], [-72.122127, -36.898381], [-72.125524, -36.90235], [-72.12791, -36.902462], [-72.129713, -36.901527], [-72.132293, -36.901815], [-72.137674, -36.900386], [-72.141858, -36.900004], [-72.144867, -36.901043], [-72.148188, -36.900944], [-72.152608, -36.899052], [-72.157034, -36.895496], [-72.161596, -36.895122], [-72.165952, -36.892306], [-72.169447, -36.892415], [-72.176667, -36.889127], [-72.192691, -36.883607], [-72.196618, -36.884246]], [[-72.067215, -36.893018], [-72.072579, -36.893996], [-72.076495, -36.893419]], [[-72.048015, -36.894485], [-72.050963, -36.894786], [-72.054267, -36.893318], [-72.05858, -36.89373], [-72.062509, -36.891036], [-72.067215, -36.893018]], [[-72.044477, -36.890618], [-72.047659, -36.892555], [-72.048015, -36.894485]], [[-71.773681, -36.833546], [-71.774669, -36.83461], [-71.776887, -36.833588], [-71.779725, -36.834569], [-71.78784, -36.840754], [-71.790668, -36.84078], [-71.791948, -36.838625], [-71.797207, -36.839944], [-71.800777, -36.841574], [-71.800818, -36.839874], [-71.801338, -36.83965], [-71.809827, -36.84304], [-71.827902, -36.845927], [-71.836716, -36.849404], [-71.838945, -36.849777], [-71.843392, -36.847891], [-71.844626, -36.848133], [-71.846651, -36.850537], [-71.849199, -36.851256], [-71.852772, -36.850147], [-71.859156, -36.84982], [-71.870403, -36.852677], [-71.871396, -36.853919], [-71.876497, -36.854874], [-71.878777, -36.856471], [-71.889811, -36.856712], [-71.892735, -36.858287], [-71.895208, -36.858351], [-71.898737, -36.856334], [-71.902449, -36.856609], [-71.906118, -36.855613], [-71.911151, -36.857329], [-71.914252, -36.85563], [-71.918983, -36.855183], [-71.923168, -36.853793], [-71.926461, -36.854982], [-71.931718, -36.854814], [-71.934839, -36.853003], [-71.937055, -36.853626], [-71.938675, -36.855424], [-71.941143, -36.854952], [-71.950117, -36.857128], [-71.952494, -36.858622], [-71.953856, -36.860566], [-71.966983, -36.861674], [-71.973946, -36.860545], [-71.974901, -36.861305], [-71.974912, -36.862665], [-71.982803, -36.867892], [-71.985002, -36.868043], [-71.987706, -36.866983], [-71.990098, -36.867206], [-71.994106, -36.866335], [-71.999068, -36.866609], [-72.002479, -36.865365], [-72.006742, -36.864753], [-72.008903, -36.863489], [-72.011505, -36.865041], [-72.020987, -36.866727], [-72.023057, -36.867908], [-72.024203, -36.868995], [-72.023983, -36.869987], [-72.024897, -36.872369], [-72.029484, -36.876252], [-72.0295, -36.879425], [-72.033051, -36.880642], [-72.034084, -36.883156], [-72.038298, -36.886314], [-72.041793, -36.887258], [-72.043179, -36.889762], [-72.044477, -36.890618]], [[-71.597284, -36.910344], [-71.601543, -36.907631], [-71.603705, -36.907267], [-71.604866, -36.905176], [-71.604136, -36.903097], [-71.604758, -36.901924], [-71.606831, -36.902381], [-71.609336, -36.901851], [-71.611177, -36.900438], [-71.614938, -36.895307], [-71.618473, -36.895303], [-71.620935, -36.892844], [-71.627206, -36.891763], [-71.629111, -36.888914], [-71.628574, -36.887151], [-71.631694, -36.8838], [-71.633121, -36.882925], [-71.636998, -36.883611], [-71.638714, -36.883008], [-71.642385, -36.878391], [-71.648535, -36.873096], [-71.653739, -36.874074], [-71.654366, -36.873394], [-71.65383, -36.871356], [-71.654227, -36.871055], [-71.658073, -36.872737], [-71.660061, -36.870933], [-71.661273, -36.872083], [-71.662823, -36.87218], [-71.665707, -36.870495], [-71.666433, -36.868045], [-71.667549, -36.867223], [-71.672704, -36.867268], [-71.674644, -36.864015], [-71.678396, -36.864867], [-71.680301, -36.863418], [-71.692261, -36.860077], [-71.694036, -36.858961], [-71.695487, -36.856587], [-71.698309, -36.855795], [-71.698835, -36.853606], [-71.709641, -36.851477], [-71.70815, -36.845813], [-71.708778, -36.843254], [-71.714721, -36.840013], [-71.72177, -36.839299], [-71.725868, -36.835102], [-71.726726, -36.834803], [-71.728411, -36.836063], [-71.733631, -36.829511], [-71.741763, -36.829606], [-71.742863, -36.82915], [-71.742461, -36.826892], [-71.743185, -36.826415], [-71.744633, -36.826965], [-71.746597, -36.82894], [-71.750073, -36.829631], [-71.751983, -36.831667], [-71.753644, -36.832129], [-71.762915, -36.828146], [-71.765394, -36.830035], [-71.768693, -36.830065], [-71.771469, -36.831171], [-71.773681, -36.833546]], [[-71.507524, -36.976077], [-71.508801, -36.975307], [-71.511807, -36.975442], [-71.513068, -36.972888], [-71.5187, -36.972571], [-71.519988, -36.971234], [-71.520159, -36.969704], [-71.521951, -36.969738], [-71.524617, -36.968212], [-71.525921, -36.965679], [-71.527339, -36.965126], [-71.528333, -36.963769], [-71.531575, -36.963206], [-71.533907, -36.960701], [-71.537721, -36.959873], [-71.541566, -36.956826], [-71.548178, -36.955023], [-71.55028, -36.95222], [-71.549937, -36.94924], [-71.552753, -36.94747], [-71.551713, -36.943753], [-71.552614, -36.939143], [-71.553982, -36.937874], [-71.554422, -36.933951], [-71.558064, -36.933968], [-71.55874, -36.932982], [-71.560425, -36.932587], [-71.563053, -36.932954], [-71.56522, -36.930794], [-71.570172, -36.930526], [-71.572017, -36.928398], [-71.574061, -36.927669], [-71.574088, -36.926387], [-71.57648, -36.924285], [-71.580332, -36.922699], [-71.58082, -36.920537], [-71.583288, -36.919332], [-71.587638, -36.918719], [-71.588218, -36.915631], [-71.590776, -36.914138], [-71.593311, -36.910805], [-71.596213, -36.911372], [-71.597284, -36.910344]], [[-71.395785, -36.933329], [-71.397201, -36.93351], [-71.400335, -36.935752], [-71.405259, -36.935773], [-71.405962, -36.934763], [-71.408071, -36.934919], [-71.408901, -36.935832], [-71.411057, -36.936081], [-71.417506, -36.939658], [-71.424495, -36.941887], [-71.424286, -36.948002], [-71.427923, -36.949789], [-71.42868, -36.951126], [-71.435021, -36.95303], [-71.436402, -36.954659], [-71.437687, -36.954123], [-71.438993, -36.954897], [-71.442137, -36.954001], [-71.445503, -36.954639], [-71.4473, -36.954299], [-71.452267, -36.95524], [-71.453638, -36.956189], [-71.455832, -36.955696], [-71.467661, -36.957217], [-71.471795, -36.959042], [-71.473969, -36.959156], [-71.474753, -36.960318], [-71.478869, -36.961435], [-71.48126, -36.962991], [-71.480968, -36.96336], [-71.481924, -36.96475], [-71.487414, -36.968485], [-71.488997, -36.970375], [-71.494235, -36.972801], [-71.496035, -36.974565], [-71.497603, -36.974722], [-71.498795, -36.975593], [-71.507524, -36.976077]], [[-71.371296, -36.898276], [-71.369724, -36.900783], [-71.369905, -36.903158], [-71.370444, -36.903393], [-71.370976, -36.906438], [-71.372487, -36.907812], [-71.372448, -36.908906], [-71.378907, -36.911487], [-71.383841, -36.911976], [-71.384548, -36.914307], [-71.382474, -36.91721], [-71.386622, -36.920943], [-71.390273, -36.921926], [-71.394016, -36.926014], [-71.393753, -36.927796], [-71.394427, -36.930056], [-71.395279, -36.931615], [-71.396354, -36.931937], [-71.395785, -36.933329]], [[-72.067215, -36.893018], [-72.068717, -36.894468], [-72.073288, -36.895], [-72.076495, -36.893419]], [[-72.262895, -36.892257], [-72.270317, -36.890914], [-72.274053, -36.891581], [-72.280799, -36.887662], [-72.28343, -36.887621], [-72.285233, -36.885958], [-72.290323, -36.884602], [-72.295183, -36.882077], [-72.302608, -36.880672], [-72.307602, -36.876201], [-72.308434, -36.873737], [-72.308224, -36.871283], [-72.311001, -36.869879], [-72.313744, -36.869832], [-72.31545, -36.870433], [-72.316958, -36.872004], [-72.320002, -36.872276], [-72.323905, -36.867937], [-72.32546, -36.867043], [-72.330921, -36.867571], [-72.337766, -36.86503], [-72.34098, -36.864592], [-72.347248, -36.867358], [-72.355005, -36.867133], [-72.356906, -36.866526], [-72.360348, -36.864098], [-72.362477, -36.863526], [-72.364079, -36.863554], [-72.364894, -36.864395], [-72.363655, -36.86588], [-72.363867, -36.866955], [-72.369556, -36.868487], [-72.372445, -36.867427], [-72.380282, -36.866579]], [[-72.214414, -36.901849], [-72.21896, -36.900592], [-72.224623, -36.896828], [-72.226779, -36.897083], [-72.229679, -36.89858], [-72.231006, -36.898503], [-72.235888, -36.897825], [-72.240424, -36.896281], [-72.242194, -36.895112], [-72.242269, -36.893951], [-72.243039, -36.893423], [-72.245423, -36.89326], [-72.24821, -36.894464], [-72.250122, -36.893484], [-72.254076, -36.893552], [-72.258807, -36.891531], [-72.262895, -36.892257]], [[-72.196618, -36.884246], [-72.197868, -36.885962], [-72.197943, -36.888061], [-72.198683, -36.88897], [-72.200507, -36.888858], [-72.202524, -36.890382], [-72.205238, -36.889719], [-72.208151, -36.890607], [-72.210555, -36.890317], [-72.212335, -36.89127], [-72.212614, -36.892063], [-72.210495, -36.893492], [-72.210286, -36.894612], [-72.211703, -36.896379], [-72.212046, -36.899071], [-72.213379, -36.901903], [-72.214414, -36.901849]], [[-72.076495, -36.893419], [-72.077892, -36.893278], [-72.081106, -36.894393], [-72.083455, -36.89408], [-72.085016, -36.893063], [-72.086551, -36.893209], [-72.087184, -36.895307], [-72.09162, -36.896521], [-72.095622, -36.903196], [-72.09835, -36.902636], [-72.104143, -36.903299], [-72.106506, -36.902533], [-72.108703, -36.902698], [-72.110281, -36.902044], [-72.11068, -36.900088], [-72.112584, -36.89873], [-72.117975, -36.899397], [-72.121165, -36.898209], [-72.122127, -36.898381], [-72.125524, -36.90235], [-72.12791, -36.902462], [-72.129713, -36.901527], [-72.132293, -36.901815], [-72.137674, -36.900386], [-72.141858, -36.900004], [-72.144867, -36.901043], [-72.148188, -36.900944], [-72.152608, -36.899052], [-72.157034, -36.895496], [-72.161596, -36.895122], [-72.165952, -36.892306], [-72.169447, -36.892415], [-72.176667, -36.889127], [-72.192691, -36.883607], [-72.196618, -36.884246]], [[-72.067215, -36.893018], [-72.072579, -36.893996], [-72.076495, -36.893419]], [[-72.048015, -36.894485], [-72.050963, -36.894786], [-72.054267, -36.893318], [-72.05858, -36.89373], [-72.062509, -36.891036], [-72.067215, -36.893018]], [[-72.044477, -36.890618], [-72.047659, -36.892555], [-72.048015, -36.894485]], [[-71.773681, -36.833546], [-71.774669, -36.83461], [-71.776887, -36.833588], [-71.779725, -36.834569], [-71.78784, -36.840754], [-71.790668, -36.84078], [-71.791948, -36.838625], [-71.797207, -36.839944], [-71.800777, -36.841574], [-71.800818, -36.839874], [-71.801338, -36.83965], [-71.809827, -36.84304], [-71.827902, -36.845927], [-71.836716, -36.849404], [-71.838945, -36.849777], [-71.843392, -36.847891], [-71.844626, -36.848133], [-71.846651, -36.850537], [-71.849199, -36.851256], [-71.852772, -36.850147], [-71.859156, -36.84982], [-71.870403, -36.852677], [-71.871396, -36.853919], [-71.876497, -36.854874], [-71.878777, -36.856471], [-71.889811, -36.856712], [-71.892735, -36.858287], [-71.895208, -36.858351], [-71.898737, -36.856334], [-71.902449, -36.856609], [-71.906118, -36.855613], [-71.911151, -36.857329], [-71.914252, -36.85563], [-71.918983, -36.855183], [-71.923168, -36.853793], [-71.926461, -36.854982], [-71.931718, -36.854814], [-71.934839, -36.853003], [-71.937055, -36.853626], [-71.938675, -36.855424], [-71.941143, -36.854952], [-71.950117, -36.857128], [-71.952494, -36.858622], [-71.953856, -36.860566], [-71.966983, -36.861674], [-71.973946, -36.860545], [-71.974901, -36.861305], [-71.974912, -36.862665], [-71.982803, -36.867892], [-71.985002, -36.868043], [-71.987706, -36.866983], [-71.990098, -36.867206], [-71.994106, -36.866335], [-71.999068, -36.866609], [-72.002479, -36.865365], [-72.006742, -36.864753], [-72.008903, -36.863489], [-72.011505, -36.865041], [-72.020987, -36.866727], [-72.023057, -36.867908], [-72.024203, -36.868995], [-72.023983, -36.869987], [-72.024897, -36.872369], [-72.029484, -36.876252], [-72.0295, -36.879425], [-72.033051, -36.880642], [-72.034084, -36.883156], [-72.038298, -36.886314], [-72.041793, -36.887258], [-72.043179, -36.889762], [-72.044477, -36.890618]], [[-71.597284, -36.910344], [-71.601543, -36.907631], [-71.603705, -36.907267], [-71.604866, -36.905176], [-71.604136, -36.903097], [-71.604758, -36.901924], [-71.606831, -36.902381], [-71.609336, -36.901851], [-71.611177, -36.900438], [-71.614938, -36.895307], [-71.618473, -36.895303], [-71.620935, -36.892844], [-71.627206, -36.891763], [-71.629111, -36.888914], [-71.628574, -36.887151], [-71.631694, -36.8838], [-71.633121, -36.882925], [-71.636998, -36.883611], [-71.638714, -36.883008], [-71.642385, -36.878391], [-71.648535, -36.873096], [-71.653739, -36.874074], [-71.654366, -36.873394], [-71.65383, -36.871356], [-71.654227, -36.871055], [-71.658073, -36.872737], [-71.660061, -36.870933], [-71.661273, -36.872083], [-71.662823, -36.87218], [-71.665707, -36.870495], [-71.666433, -36.868045], [-71.667549, -36.867223], [-71.672704, -36.867268], [-71.674644, -36.864015], [-71.678396, -36.864867], [-71.680301, -36.863418], [-71.692261, -36.860077], [-71.694036, -36.858961], [-71.695487, -36.856587], [-71.698309, -36.855795], [-71.698835, -36.853606], [-71.709641, -36.851477], [-71.70815, -36.845813], [-71.708778, -36.843254], [-71.714721, -36.840013], [-71.72177, -36.839299], [-71.725868, -36.835102], [-71.726726, -36.834803], [-71.728411, -36.836063], [-71.733631, -36.829511], [-71.741763, -36.829606], [-71.742863, -36.82915], [-71.742461, -36.826892], [-71.743185, -36.826415], [-71.744633, -36.826965], [-71.746597, -36.82894], [-71.750073, -36.829631], [-71.751983, -36.831667], [-71.753644, -36.832129], [-71.762915, -36.828146], [-71.765394, -36.830035], [-71.768693, -36.830065], [-71.771469, -36.831171], [-71.773681, -36.833546]], [[-71.507524, -36.976077], [-71.508801, -36.975307], [-71.511807, -36.975442], [-71.513068, -36.972888], [-71.5187, -36.972571], [-71.519988, -36.971234], [-71.520159, -36.969704], [-71.521951, -36.969738], [-71.524617, -36.968212], [-71.525921, -36.965679], [-71.527339, -36.965126], [-71.528333, -36.963769], [-71.531575, -36.963206], [-71.533907, -36.960701], [-71.537721, -36.959873], [-71.541566, -36.956826], [-71.548178, -36.955023], [-71.55028, -36.95222], [-71.549937, -36.94924], [-71.552753, -36.94747], [-71.551713, -36.943753], [-71.552614, -36.939143], [-71.553982, -36.937874], [-71.554422, -36.933951], [-71.558064, -36.933968], [-71.55874, -36.932982], [-71.560425, -36.932587], [-71.563053, -36.932954], [-71.56522, -36.930794], [-71.570172, -36.930526], [-71.572017, -36.928398], [-71.574061, -36.927669], [-71.574088, -36.926387], [-71.57648, -36.924285], [-71.580332, -36.922699], [-71.58082, -36.920537], [-71.583288, -36.919332], [-71.587638, -36.918719], [-71.588218, -36.915631], [-71.590776, -36.914138], [-71.593311, -36.910805], [-71.596213, -36.911372], [-71.597284, -36.910344]], [[-71.395785, -36.933329], [-71.397201, -36.93351], [-71.400335, -36.935752], [-71.405259, -36.935773], [-71.405962, -36.934763], [-71.408071, -36.934919], [-71.408901, -36.935832], [-71.411057, -36.936081], [-71.417506, -36.939658], [-71.424495, -36.941887], [-71.424286, -36.948002], [-71.427923, -36.949789], [-71.42868, -36.951126], [-71.435021, -36.95303], [-71.436402, -36.954659], [-71.437687, -36.954123], [-71.438993, -36.954897], [-71.442137, -36.954001], [-71.445503, -36.954639], [-71.4473, -36.954299], [-71.452267, -36.95524], [-71.453638, -36.956189], [-71.455832, -36.955696], [-71.467661, -36.957217], [-71.471795, -36.959042], [-71.473969, -36.959156], [-71.474753, -36.960318], [-71.478869, -36.961435], [-71.48126, -36.962991], [-71.480968, -36.96336], [-71.481924, -36.96475], [-71.487414, -36.968485], [-71.488997, -36.970375], [-71.494235, -36.972801], [-71.496035, -36.974565], [-71.497603, -36.974722], [-71.498795, -36.975593], [-71.507524, -36.976077]], [[-71.371296, -36.898276], [-71.369724, -36.900783], [-71.369905, -36.903158], [-71.370444, -36.903393], [-71.370976, -36.906438], [-71.372487, -36.907812], [-71.372448, -36.908906], [-71.378907, -36.911487], [-71.383841, -36.911976], [-71.384548, -36.914307], [-71.382474, -36.91721], [-71.386622, -36.920943], [-71.390273, -36.921926], [-71.394016, -36.926014], [-71.393753, -36.927796], [-71.394427, -36.930056], [-71.395279, -36.931615], [-71.396354, -36.931937], [-71.395785, -36.933329]], [[-72.067215, -36.893018], [-72.068717, -36.894468], [-72.073288, -36.895], [-72.076495, -36.893419]]]}}