{"type": "Feature", "properties": {"id": "rio-cholchol-ranco", "name": "Río Cholchol (Lago Ranco)", "type": "river", "region": "los-rios"}, "geometry": {"type": "MultiLineString", "coordinates": [[[-71.903809, -40.484262], [-71.904761, -40.482791], [-71.904219, -40.481297], [-71.905823, -40.477017], [-71.905791, -40.47505], [-71.907271, -40.473214], [-71.908741, -40.472839], [-71.911337, -40.473385], [-71.914556, -40.472618], [-71.917528, -40.47301], [-71.923869, -40.471165], [-71.925757, -40.468513], [-71.927763, -40.467084], [-71.928439, -40.465623], [-71.927785, -40.463387], [-71.926433, -40.462122], [-71.928203, -40.461109], [-71.927366, -40.460358], [-71.929834, -40.460007], [-71.930177, -40.460726], [-71.93154, -40.46066], [-71.934083, -40.461795], [-71.93522, -40.461101], [-71.938385, -40.460995], [-71.942076, -40.459101], [-71.947547, -40.461297], [-71.949028, -40.460856], [-71.95613, -40.462485]], [[-71.95613, -40.462485], [-71.957128, -40.462211], [-71.958147, -40.460595], [-71.960572, -40.46093], [-71.964381, -40.460187], [-71.964327, -40.458309], [-71.965605, -40.457911]]]}}