{"type": "Feature", "properties": {"id": "rio-pilmaiquen", "name": "Río Pilmaiquén", "type": "river", "region": "los-lagos"}, "geometry": {"type": "MultiLineString", "coordinates": [[[-72.857793, -40.536984], [-72.859016, -40.535011], [-72.86091, -40.534232], [-72.862873, -40.532336], [-72.864134, -40.529323], [-72.863501, -40.528504], [-72.861076, -40.52896], [-72.85827, -40.529915], [-72.857364, -40.531619], [-72.856157, -40.531521], [-72.854907, -40.530302], [-72.855964, -40.529209], [-72.8565, -40.526579], [-72.864343, -40.5247], [-72.864279, -40.521698], [-72.868828, -40.521001], [-72.871794, -40.519133], [-72.879444, -40.517955], [-72.879755, -40.516678], [-72.877261, -40.51353], [-72.877336, -40.512608], [-72.878602, -40.512694], [-72.879792, -40.51417], [-72.882534, -40.513958], [-72.886466, -40.511625], [-72.888445, -40.507506], [-72.891465, -40.507029], [-72.892404, -40.506327], [-72.892066, -40.504431], [-72.889405, -40.501865], [-72.890242, -40.500217], [-72.888365, -40.498088], [-72.889588, -40.495249], [-72.892764, -40.49196], [-72.890478, -40.489659], [-72.892173, -40.488705], [-72.891852, -40.487481], [-72.892377, -40.486265], [-72.900971, -40.479076], [-72.904855, -40.476578], [-72.906078, -40.474252], [-72.905509, -40.471665], [-72.90368, -40.469666], [-72.905129, -40.467817], [-72.902945, -40.467078], [-72.903707, -40.464785], [-72.90235, -40.464062], [-72.901921, -40.462891], [-72.9025, -40.46065], [-72.905123, -40.459177], [-72.904683, -40.457577], [-72.905831, -40.45427], [-72.90566, -40.449062], [-72.904855, -40.447559], [-72.902752, -40.446302], [-72.902698, -40.44493], [-72.90611, -40.443787], [-72.906518, -40.441027], [-72.907923, -40.439999], [-72.916067, -40.440023], [-72.91965, -40.441264], [-72.922547, -40.440782], [-72.924296, -40.438341], [-72.923105, -40.436389], [-72.92406, -40.434258], [-72.930465, -40.433082], [-72.937696, -40.428958], [-72.940603, -40.426189], [-72.941612, -40.422318], [-72.941151, -40.416698], [-72.942857, -40.414076], [-72.945828, -40.412132], [-72.951686, -40.410433], [-72.961246, -40.406438], [-72.96308, -40.404216], [-72.964303, -40.399632], [-72.969303, -40.396585], [-72.97441, -40.392442], [-72.975794, -40.388855], [-72.977564, -40.387204], [-72.983358, -40.384646], [-72.989763, -40.385921], [-72.992917, -40.384768], [-72.998947, -40.383763], [-73.010468, -40.385671], [-73.016162, -40.383551], [-73.021433, -40.383014], [-73.03103, -40.38386], [-73.033311, -40.382104], [-73.035496, -40.378895], [-73.040616, -40.376638], [-73.047724, -40.370836], [-73.050241, -40.370417], [-73.056733, -40.372449], [-73.059792, -40.371102], [-73.063699, -40.366057], [-73.068562, -40.364598], [-73.071584, -40.360365], [-73.072539, -40.35766], [-73.072162, -40.355431], [-73.073586, -40.352599], [-73.079624, -40.348101], [-73.077059, -40.345919], [-73.07762, -40.345078], [-73.084212, -40.34619], [-73.092071, -40.349256], [-73.095513, -40.348883], [-73.100752, -40.347086], [-73.101413, -40.348667], [-73.100246, -40.350088], [-73.101597, -40.350988], [-73.107273, -40.34941], [-73.111035, -40.350578], [-73.113666, -40.349699], [-73.120358, -40.349021], [-73.123947, -40.350147], [-73.125623, -40.348529], [-73.129046, -40.350001], [-73.130121, -40.348645]], [[-72.857793, -40.536984], [-72.859016, -40.535011], [-72.86091, -40.534232], [-72.862873, -40.532336], [-72.864134, -40.529323], [-72.863501, -40.528504], [-72.861076, -40.52896], [-72.85827, -40.529915], [-72.857364, -40.531619], [-72.856157, -40.531521], [-72.854907, -40.530302], [-72.855964, -40.529209], [-72.8565, -40.526579], [-72.864343, -40.5247], [-72.864279, -40.521698], [-72.868828, -40.521001], [-72.871794, -40.519133], [-72.879444, -40.517955], [-72.879755, -40.516678], [-72.877261, -40.51353], [-72.877336, -40.512608], [-72.878602, -40.512694], [-72.879792, -40.51417], [-72.882534, -40.513958], [-72.886466, -40.511625], [-72.888445, -40.507506], [-72.891465, -40.507029], [-72.892404, -40.506327], [-72.892066, -40.504431], [-72.889405, -40.501865], [-72.890242, -40.500217], [-72.888365, -40.498088], [-72.889588, -40.495249], [-72.892764, -40.49196], [-72.890478, -40.489659], [-72.892173, -40.488705], [-72.891852, -40.487481], [-72.892377, -40.486265], [-72.900971, -40.479076], [-72.904855, -40.476578], [-72.906078, -40.474252], [-72.905509, -40.471665], [-72.90368, -40.469666], [-72.905129, -40.467817], [-72.902945, -40.467078], [-72.903707, -40.464785], [-72.90235, -40.464062], [-72.901921, -40.462891], [-72.9025, -40.46065], [-72.905123, -40.459177], [-72.904683, -40.457577], [-72.905831, -40.45427], [-72.90566, -40.449062], [-72.904855, -40.447559], [-72.902752, -40.446302], [-72.902698, -40.44493], [-72.90611, -40.443787], [-72.906518, -40.441027], [-72.907923, -40.439999], [-72.916067, -40.440023], [-72.91965, -40.441264], [-72.922547, -40.440782], [-72.924296, -40.438341], [-72.923105, -40.436389], [-72.92406, -40.434258], [-72.930465, -40.433082], [-72.937696, -40.428958], [-72.940603, -40.426189], [-72.941612, -40.422318], [-72.941151, -40.416698], [-72.942857, -40.414076], [-72.945828, -40.412132], [-72.951686, -40.410433], [-72.961246, -40.406438], [-72.96308, -40.404216], [-72.964303, -40.399632], [-72.969303, -40.396585], [-72.97441, -40.392442], [-72.975794, -40.388855], [-72.977564, -40.387204], [-72.983358, -40.384646], [-72.989763, -40.385921], [-72.992917, -40.384768], [-72.998947, -40.383763], [-73.010468, -40.385671], [-73.016162, -40.383551], [-73.021433, -40.383014], [-73.03103, -40.38386], [-73.033311, -40.382104], [-73.035496, -40.378895], [-73.040616, -40.376638], [-73.047724, -40.370836], [-73.050241, -40.370417], [-73.056733, -40.372449], [-73.059792, -40.371102], [-73.063699, -40.366057], [-73.068562, -40.364598], [-73.071584, -40.360365], [-73.072539, -40.35766], [-73.072162, -40.355431], [-73.073586, -40.352599], [-73.079624, -40.348101], [-73.077059, -40.345919], [-73.07762, -40.345078], [-73.084212, -40.34619], [-73.092071, -40.349256], [-73.095513, -40.348883], [-73.100752, -40.347086], [-73.101413, -40.348667], [-73.100246, -40.350088], [-73.101597, -40.350988], [-73.107273, -40.34941], [-73.111035, -40.350578], [-73.113666, -40.349699], [-73.120358, -40.349021], [-73.123947, -40.350147], [-73.125623, -40.348529], [-73.129046, -40.350001], [-73.130121, -40.348645]], [[-72.605638, -40.680646], [-72.607272, -40.680799], [-72.609656, -40.678657], [-72.613326, -40.674605], [-72.615037, -40.671594], [-72.622381, -40.670744], [-72.625417, -40.669551], [-72.627246, -40.666634], [-72.627659, -40.661011], [-72.631323, -40.658386], [-72.642331, -40.656754], [-72.644927, -40.65585], [-72.645882, -40.654039], [-72.648398, -40.643241], [-72.652797, -40.642773], [-72.654409, -40.64167], [-72.653798, -40.640562], [-72.650523, -40.638789], [-72.649683, -40.636883], [-72.650716, -40.634844], [-72.654439, -40.633777], [-72.654567, -40.633048], [-72.65373, -40.632401], [-72.654433, -40.629657], [-72.653661, -40.627862], [-72.654364, -40.626408], [-72.656332, -40.624865], [-72.658532, -40.623855], [-72.664947, -40.624018], [-72.671417, -40.621999], [-72.675837, -40.621942], [-72.679303, -40.622532], [-72.683948, -40.624735], [-72.692349, -40.625842], [-72.695085, -40.624458], [-72.697375, -40.621156], [-72.699988, -40.620517], [-72.701986, -40.621003], [-72.704899, -40.620086], [-72.705269, -40.617592], [-72.706324, -40.617524], [-72.7085, -40.614972], [-72.709581, -40.614583], [-72.711404, -40.615439], [-72.713826, -40.615357], [-72.717198, -40.613929], [-72.720866, -40.610842], [-72.722561, -40.610174], [-72.726743, -40.611103], [-72.729341, -40.613368], [-72.731851, -40.614184], [-72.73286, -40.613856], [-72.733742, -40.612725], [-72.734105, -40.610451], [-72.731108, -40.610301], [-72.732087, -40.606216], [-72.748418, -40.603303], [-72.752146, -40.604142], [-72.757527, -40.604329], [-72.760445, -40.60325], [-72.772, -40.601083], [-72.773952, -40.599482], [-72.776388, -40.595234], [-72.77775, -40.595417], [-72.779537, -40.596729], [-72.78068, -40.596403], [-72.780111, -40.592806], [-72.78046, -40.591173], [-72.78466, -40.587979], [-72.787423, -40.587677], [-72.789885, -40.588859], [-72.791221, -40.586781], [-72.795153, -40.585164], [-72.794252, -40.583632], [-72.795153, -40.581383], [-72.794316, -40.575092], [-72.796515, -40.571433], [-72.796569, -40.566519], [-72.797374, -40.565068], [-72.807781, -40.562933], [-72.80939, -40.562167], [-72.811503, -40.559958], [-72.813992, -40.559509], [-72.815656, -40.557887], [-72.817919, -40.557521], [-72.819207, -40.556485], [-72.820011, -40.553469], [-72.817522, -40.553241], [-72.813091, -40.548977], [-72.813188, -40.54751], [-72.814647, -40.545301], [-72.816149, -40.544934], [-72.817426, -40.546915], [-72.819711, -40.547706], [-72.818193, -40.549703], [-72.818638, -40.550131], [-72.824389, -40.550282], [-72.827956, -40.548594], [-72.831985, -40.549181], [-72.832763, -40.546226], [-72.836979, -40.545782], [-72.838621, -40.544212], [-72.841657, -40.543454], [-72.851452, -40.535248], [-72.854472, -40.534946], [-72.855411, -40.536719], [-72.857793, -40.536984]], [[-72.605638, -40.680646], [-72.607272, -40.680799], [-72.609656, -40.678657], [-72.613326, -40.674605], [-72.615037, -40.671594], [-72.622381, -40.670744], [-72.625417, -40.669551], [-72.627246, -40.666634], [-72.627659, -40.661011], [-72.631323, -40.658386], [-72.642331, -40.656754], [-72.644927, -40.65585], [-72.645882, -40.654039], [-72.648398, -40.643241], [-72.652797, -40.642773], [-72.654409, -40.64167], [-72.653798, -40.640562], [-72.650523, -40.638789], [-72.649683, -40.636883], [-72.650716, -40.634844], [-72.654439, -40.633777], [-72.654567, -40.633048], [-72.65373, -40.632401], [-72.654433, -40.629657], [-72.653661, -40.627862], [-72.654364, -40.626408], [-72.656332, -40.624865], [-72.658532, -40.623855], [-72.664947, -40.624018], [-72.671417, -40.621999], [-72.675837, -40.621942], [-72.679303, -40.622532], [-72.683948, -40.624735], [-72.692349, -40.625842], [-72.695085, -40.624458], [-72.697375, -40.621156], [-72.699988, -40.620517], [-72.701986, -40.621003], [-72.704899, -40.620086], [-72.705269, -40.617592], [-72.706324, -40.617524], [-72.7085, -40.614972], [-72.709581, -40.614583], [-72.711404, -40.615439], [-72.713826, -40.615357], [-72.717198, -40.613929], [-72.720866, -40.610842], [-72.722561, -40.610174], [-72.726743, -40.611103], [-72.729341, -40.613368], [-72.731851, -40.614184], [-72.73286, -40.613856], [-72.733742, -40.612725], [-72.734105, -40.610451], [-72.731108, -40.610301], [-72.732087, -40.606216], [-72.748418, -40.603303], [-72.752146, -40.604142], [-72.757527, -40.604329], [-72.760445, -40.60325], [-72.772, -40.601083], [-72.773952, -40.599482], [-72.776388, -40.595234], [-72.77775, -40.595417], [-72.779537, -40.596729], [-72.78068, -40.596403], [-72.780111, -40.592806], [-72.78046, -40.591173], [-72.78466, -40.587979], [-72.787423, -40.587677], [-72.789885, -40.588859], [-72.791221, -40.586781], [-72.795153, -40.585164], [-72.794252, -40.583632], [-72.795153, -40.581383], [-72.794316, -40.575092], [-72.796515, -40.571433], [-72.796569, -40.566519], [-72.797374, -40.565068], [-72.807781, -40.562933], [-72.80939, -40.562167], [-72.811503, -40.559958], [-72.813992, -40.559509], [-72.815656, -40.557887], [-72.817919, -40.557521], [-72.819207, -40.556485], [-72.820011, -40.553469], [-72.817522, -40.553241], [-72.813091, -40.548977], [-72.813188, -40.54751], [-72.814647, -40.545301], [-72.816149, -40.544934], [-72.817426, -40.546915], [-72.819711, -40.547706], [-72.818193, -40.549703], [-72.818638, -40.550131], [-72.824389, -40.550282], [-72.827956, -40.548594], [-72.831985, -40.549181], [-72.832763, -40.546226], [-72.836979, -40.545782], [-72.838621, -40.544212], [-72.841657, -40.543454], [-72.851452, -40.535248], [-72.854472, -40.534946], [-72.855411, -40.536719], [-72.857793, -40.536984]], [[-72.649117, -40.642904], [-72.648828, -40.639612], [-72.649086, -40.638244], [-72.649984, -40.637945]], [[-72.649117, -40.642904], [-72.648828, -40.639612], [-72.649086, -40.638244], [-72.649984, -40.637945]]]}}