{"type": "Feature", "properties": {"id": "rio-duqueco", "name": "Río Duqueco", "type": "river", "region": "biobio"}, "geometry": {"type": "MultiLineString", "coordinates": [[[-72.331665, -37.538846], [-72.33407, -37.537767], [-72.341253, -37.537086], [-72.347288, -37.534021], [-72.349058, -37.533795], [-72.352116, -37.534415], [-72.362302, -37.533057], [-72.372672, -37.533588], [-72.3766, -37.533127], [-72.382425, -37.535896], [-72.386901, -37.535353], [-72.388777, -37.53579], [-72.393801, -37.538629], [-72.40435, -37.538161], [-72.405714, -37.53932], [-72.404963, -37.542289], [-72.406285, -37.544375], [-72.410609, -37.544758], [-72.418739, -37.547124], [-72.425128, -37.546046], [-72.427578, -37.544061], [-72.430057, -37.540234], [-72.431736, -37.540894], [-72.432026, -37.543029], [-72.433454, -37.544391], [-72.436199, -37.543646], [-72.437956, -37.54131], [-72.441125, -37.540785], [-72.443681, -37.54177], [-72.448553, -37.542198], [-72.451379, -37.543682], [-72.455518, -37.54394], [-72.456475, -37.545368], [-72.45625, -37.547095], [-72.458524, -37.548941], [-72.460198, -37.548788], [-72.461786, -37.547061], [-72.463996, -37.547053], [-72.464758, -37.548771], [-72.464597, -37.552301], [-72.466689, -37.554976], [-72.467891, -37.555554], [-72.470761, -37.555265], [-72.486065, -37.561844], [-72.488034, -37.563447], [-72.490164, -37.566873], [-72.491832, -37.567776]], [[-72.151687, -37.586029], [-72.15652, -37.587045], [-72.159186, -37.586365], [-72.160788, -37.587635]], [[-72.151687, -37.586029], [-72.158242, -37.584872], [-72.159995, -37.585978], [-72.160788, -37.587635]], [[-72.160788, -37.587635], [-72.162153, -37.589386], [-72.163484, -37.589743], [-72.169275, -37.588599], [-72.175133, -37.585589], [-72.183121, -37.585037], [-72.189079, -37.58532], [-72.192122, -37.587706], [-72.195083, -37.587966], [-72.198774, -37.584178], [-72.200577, -37.58363], [-72.202143, -37.584824], [-72.203597, -37.587885], [-72.204916, -37.588106], [-72.208258, -37.586767], [-72.210072, -37.586967], [-72.211037, -37.587855], [-72.21167, -37.590597], [-72.215619, -37.588416], [-72.220693, -37.587507], [-72.228343, -37.58808], [-72.229239, -37.587158], [-72.234995, -37.585589], [-72.236904, -37.584344], [-72.236753, -37.582424], [-72.233737, -37.581392], [-72.233512, -37.579656], [-72.234144, -37.578965], [-72.238782, -37.578257], [-72.240391, -37.577115], [-72.241357, -37.574111], [-72.240193, -37.570633], [-72.240584, -37.567202], [-72.242703, -37.565212], [-72.243814, -37.565042], [-72.244967, -37.566419], [-72.246416, -37.566976], [-72.24825, -37.567027], [-72.249945, -37.566054], [-72.250589, -37.56266], [-72.252, -37.561342], [-72.258314, -37.560347], [-72.266355, -37.560228], [-72.27003, -37.556524], [-72.280008, -37.55541], [-72.283205, -37.553449], [-72.284296, -37.551093], [-72.287201, -37.550081], [-72.289744, -37.550778], [-72.292751, -37.553922], [-72.295965, -37.552381], [-72.300414, -37.551791], [-72.303016, -37.550417], [-72.305998, -37.543654], [-72.307565, -37.54237], [-72.310268, -37.541961], [-72.314318, -37.542566], [-72.319576, -37.542332], [-72.331665, -37.538846]], [[-72.14831, -37.585057], [-72.151687, -37.586029]], [[-71.597261, -37.540185], [-71.60136, -37.54117], [-71.60798, -37.54086], [-71.61092, -37.541813], [-71.620549, -37.536883], [-71.62962, -37.539005], [-71.632978, -37.536555], [-71.636524, -37.536219], [-71.637484, -37.537857], [-71.643026, -37.538533], [-71.643922, -37.540086], [-71.648417, -37.541375], [-71.649646, -37.544012], [-71.652596, -37.543489], [-71.655584, -37.545585], [-71.656963, -37.543884], [-71.659988, -37.54371], [-71.665959, -37.545823], [-71.671806, -37.54422], [-71.676779, -37.545534], [-71.684337, -37.541919], [-71.688068, -37.542368], [-71.697448, -37.539622], [-71.704483, -37.540494], [-71.705073, -37.539845], [-71.70417, -37.538199], [-71.70425, -37.536091], [-71.710041, -37.533767], [-71.710655, -37.532699], [-71.710854, -37.529425], [-71.720113, -37.525418], [-71.721183, -37.523075], [-71.724547, -37.522016], [-71.726011, -37.519286], [-71.73076, -37.516601], [-71.731909, -37.514036], [-71.733749, -37.512845], [-71.734425, -37.511268], [-71.73719, -37.509605], [-71.741385, -37.509966], [-71.744574, -37.509109], [-71.747383, -37.509481], [-71.750108, -37.507943], [-71.755797, -37.509636], [-71.762583, -37.508905], [-71.772217, -37.509594], [-71.773633, -37.509241], [-71.776122, -37.506709], [-71.779422, -37.505083], [-71.784239, -37.504521], [-71.787511, -37.505598], [-71.792023, -37.503458], [-71.794769, -37.50447], [-71.802821, -37.504841], [-71.809596, -37.507858], [-71.813502, -37.506849], [-71.816103, -37.508013], [-71.818059, -37.507632], [-71.818598, -37.509285], [-71.82105, -37.509434], [-71.822839, -37.508617], [-71.823624, -37.509468], [-71.828109, -37.510279], [-71.833253, -37.510315], [-71.843009, -37.507561], [-71.845905, -37.508084], [-71.847358, -37.510295], [-71.849354, -37.509691], [-71.856459, -37.512395], [-71.856875, -37.512722], [-71.856494, -37.514326], [-71.857137, -37.515067], [-71.859539, -37.515133], [-71.863159, -37.51806], [-71.864892, -37.518287], [-71.868364, -37.52147], [-71.869989, -37.524852], [-71.872323, -37.525724], [-71.875997, -37.53], [-71.876974, -37.534028], [-71.876666, -37.539005], [-71.87781, -37.539499], [-71.880026, -37.539243], [-71.890894, -37.543927], [-71.89209, -37.545041], [-71.89076, -37.545955], [-71.892428, -37.547984], [-71.894976, -37.547236], [-71.898304, -37.549577], [-71.899634, -37.549444], [-71.900758, -37.5482], [-71.902154, -37.548218], [-71.906105, -37.55101], [-71.909357, -37.549648], [-71.91583, -37.548577], [-71.922892, -37.545782], [-71.926053, -37.542345], [-71.929232, -37.541785], [-71.933305, -37.539658], [-71.944501, -37.535632], [-71.949795, -37.532488], [-71.951877, -37.532424], [-71.954607, -37.533531], [-71.958132, -37.530702], [-71.962096, -37.533207], [-71.964709, -37.531697], [-71.966935, -37.53271], [-71.969145, -37.532833], [-71.972334, -37.531431], [-71.97919, -37.534681], [-71.980512, -37.538397], [-71.983251, -37.538903], [-71.986464, -37.53738], [-71.989396, -37.538208], [-71.990004, -37.538948], [-71.990552, -37.542706], [-71.994358, -37.544911], [-72.005403, -37.546547], [-72.007873, -37.545069], [-72.009407, -37.544956], [-72.012023, -37.546551], [-72.018948, -37.548307], [-72.027642, -37.547721], [-72.029377, -37.549188], [-72.032424, -37.554478], [-72.041017, -37.5572], [-72.043877, -37.559135], [-72.044316, -37.560619], [-72.049295, -37.561729], [-72.055378, -37.559969], [-72.060056, -37.562558], [-72.066874, -37.562282], [-72.068124, -37.562873], [-72.069084, -37.565556], [-72.072576, -37.566776], [-72.07639, -37.566679], [-72.079893, -37.568737], [-72.081213, -37.569897], [-72.081535, -37.571658], [-72.082425, -37.572516], [-72.086875, -37.573518], [-72.091481, -37.573431], [-72.099087, -37.57585], [-72.104302, -37.576394], [-72.107048, -37.577482], [-72.107906, -37.579272], [-72.109569, -37.580369], [-72.117519, -37.581334], [-72.118753, -37.580862], [-72.119939, -37.579072], [-72.122111, -37.578813], [-72.128248, -37.580178], [-72.129262, -37.581938], [-72.133006, -37.583915], [-72.138478, -37.582988], [-72.141777, -37.584123], [-72.147651, -37.584284], [-72.14831, -37.585057]], [[-71.483816, -37.56974], [-71.489698, -37.570925]], [[-71.468028, -37.483329], [-71.469049, -37.484964]], [[-71.461816, -37.480839], [-71.463345, -37.482557], [-71.465072, -37.482795], [-71.469049, -37.484964]], [[-71.465499, -37.483106], [-71.468028, -37.483329]], [[-71.46368, -37.532206], [-71.464466, -37.53325]], [[-71.469049, -37.484964], [-71.473067, -37.489187], [-71.475207, -37.490413], [-71.476107, -37.492307], [-71.474843, -37.495009], [-71.475497, -37.49552], [-71.474809, -37.500249], [-71.475706, -37.502257], [-71.475329, -37.506968], [-71.474401, -37.509045], [-71.475082, -37.510675], [-71.473618, -37.514143], [-71.471705, -37.515747], [-71.471345, -37.518755], [-71.472137, -37.519572], [-71.472067, -37.52101], [-71.470632, -37.523559], [-71.463159, -37.529187], [-71.463931, -37.530514], [-71.463393, -37.531944], [-71.464632, -37.532595], [-71.463345, -37.535045], [-71.464768, -37.536802], [-71.464026, -37.537742], [-71.465458, -37.53998], [-71.465857, -37.547197], [-71.465096, -37.549673], [-71.465383, -37.550902], [-71.463967, -37.552807], [-71.464965, -37.55413], [-71.462499, -37.557149], [-71.464949, -37.560492], [-71.471372, -37.564714], [-71.471801, -37.566419], [-71.473303, -37.566547], [-71.475189, -37.568133], [-71.478989, -37.567818], [-71.480946, -37.5688], [-71.482877, -37.568494], [-71.483816, -37.56974]], [[-71.463036, -37.482099], [-71.463959, -37.482606]], [[-71.489698, -37.570925], [-71.49, -37.570824]], [[-71.597143, -37.540191], [-71.597261, -37.540185]], [[-71.49, -37.570824], [-71.493442, -37.56986], [-71.495277, -37.570796], [-71.500354, -37.570971], [-71.505202, -37.568469], [-71.50993, -37.567779], [-71.512319, -37.566305], [-71.515136, -37.565796], [-71.516637, -37.564428], [-71.522382, -37.563477], [-71.524262, -37.562029], [-71.526959, -37.561504], [-71.528873, -37.559078], [-71.535362, -37.55793], [-71.537575, -37.55565], [-71.540035, -37.554648], [-71.541065, -37.552097], [-71.543437, -37.552107], [-71.544495, -37.551314], [-71.545096, -37.549546], [-71.546584, -37.548752], [-71.546697, -37.544099], [-71.548089, -37.542261], [-71.549815, -37.541349], [-71.555034, -37.541375], [-71.55705, -37.542217], [-71.558746, -37.544254], [-71.56124, -37.54559], [-71.566202, -37.546117], [-71.573052, -37.543233], [-71.574919, -37.541808], [-71.586571, -37.541704], [-71.590626, -37.539222], [-71.594228, -37.538182]], [[-72.331665, -37.538846], [-72.33407, -37.537767], [-72.341253, -37.537086], [-72.347288, -37.534021], [-72.349058, -37.533795], [-72.352116, -37.534415], [-72.362302, -37.533057], [-72.372672, -37.533588], [-72.3766, -37.533127], [-72.382425, -37.535896], [-72.386901, -37.535353], [-72.388777, -37.53579], [-72.393801, -37.538629], [-72.40435, -37.538161], [-72.405714, -37.53932], [-72.404963, -37.542289], [-72.406285, -37.544375], [-72.410609, -37.544758], [-72.418739, -37.547124], [-72.425128, -37.546046], [-72.427578, -37.544061], [-72.430057, -37.540234], [-72.431736, -37.540894], [-72.432026, -37.543029], [-72.433454, -37.544391], [-72.436199, -37.543646], [-72.437956, -37.54131], [-72.441125, -37.540785], [-72.443681, -37.54177], [-72.448553, -37.542198], [-72.451379, -37.543682], [-72.455518, -37.54394], [-72.456475, -37.545368], [-72.45625, -37.547095], [-72.458524, -37.548941], [-72.460198, -37.548788], [-72.461786, -37.547061], [-72.463996, -37.547053], [-72.464758, -37.548771], [-72.464597, -37.552301], [-72.466689, -37.554976], [-72.467891, -37.555554], [-72.470761, -37.555265], [-72.486065, -37.561844], [-72.488034, -37.563447], [-72.490164, -37.566873], [-72.491832, -37.567776]], [[-72.160788, -37.587635], [-72.162153, -37.589386], [-72.163484, -37.589743], [-72.169275, -37.588599], [-72.175133, -37.585589], [-72.183121, -37.585037], [-72.189079, -37.58532], [-72.192122, -37.587706], [-72.195083, -37.587966], [-72.198774, -37.584178], [-72.200577, -37.58363], [-72.202143, -37.584824], [-72.203597, -37.587885], [-72.204916, -37.588106], [-72.208258, -37.586767], [-72.210072, -37.586967], [-72.211037, -37.587855], [-72.21167, -37.590597], [-72.215619, -37.588416], [-72.220693, -37.587507], [-72.228343, -37.58808], [-72.229239, -37.587158], [-72.234995, -37.585589], [-72.236904, -37.584344], [-72.236753, -37.582424], [-72.233737, -37.581392], [-72.233512, -37.579656], [-72.234144, -37.578965], [-72.238782, -37.578257], [-72.240391, -37.577115], [-72.241357, -37.574111], [-72.240193, -37.570633], [-72.240584, -37.567202], [-72.242703, -37.565212], [-72.243814, -37.565042], [-72.244967, -37.566419], [-72.246416, -37.566976], [-72.24825, -37.567027], [-72.249945, -37.566054], [-72.250589, -37.56266], [-72.252, -37.561342], [-72.258314, -37.560347], [-72.266355, -37.560228], [-72.27003, -37.556524], [-72.280008, -37.55541], [-72.283205, -37.553449], [-72.284296, -37.551093], [-72.287201, -37.550081], [-72.289744, -37.550778], [-72.292751, -37.553922], [-72.295965, -37.552381], [-72.300414, -37.551791], [-72.303016, -37.550417], [-72.305998, -37.543654], [-72.307565, -37.54237], [-72.310268, -37.541961], [-72.314318, -37.542566], [-72.319576, -37.542332], [-72.331665, -37.538846]], [[-71.49, -37.570824], [-71.493442, -37.56986], [-71.495277, -37.570796], [-71.500354, -37.570971], [-71.505202, -37.568469], [-71.50993, -37.567779], [-71.512319, -37.566305], [-71.515136, -37.565796], [-71.516637, -37.564428], [-71.522382, -37.563477], [-71.524262, -37.562029], [-71.526959, -37.561504], [-71.528873, -37.559078], [-71.535362, -37.55793], [-71.537575, -37.55565], [-71.540035, -37.554648], [-71.541065, -37.552097], [-71.543437, -37.552107], [-71.544495, -37.551314], [-71.545096, -37.549546], [-71.546584, -37.548752], [-71.546697, -37.544099], [-71.548089, -37.542261], [-71.549815, -37.541349], [-71.555034, -37.541375], [-71.55705, -37.542217], [-71.558746, -37.544254], [-71.56124, -37.54559], [-71.566202, -37.546117], [-71.573052, -37.543233], [-71.574919, -37.541808], [-71.586571, -37.541704], [-71.590626, -37.539222], [-71.594228, -37.538182]], [[-71.594228, -37.538182], [-71.595626, -37.538408], [-71.597143, -37.540191]], [[-71.597143, -37.540191], [-71.597261, -37.540185]], [[-71.597261, -37.540185], [-71.60136, -37.54117], [-71.60798, -37.54086], [-71.61092, -37.541813], [-71.620549, -37.536883], [-71.62962, -37.539005], [-71.632978, -37.536555], [-71.636524, -37.536219], [-71.637484, -37.537857], [-71.643026, -37.538533], [-71.643922, -37.540086], [-71.648417, -37.541375], [-71.649646, -37.544012], [-71.652596, -37.543489], [-71.655584, -37.545585], [-71.656963, -37.543884], [-71.659988, -37.54371], [-71.665959, -37.545823], [-71.671806, -37.54422], [-71.676779, -37.545534], [-71.684337, -37.541919], [-71.688068, -37.542368], [-71.697448, -37.539622], [-71.704483, -37.540494], [-71.705073, -37.539845], [-71.70417, -37.538199], [-71.70425, -37.536091], [-71.710041, -37.533767], [-71.710655, -37.532699], [-71.710854, -37.529425], [-71.720113, -37.525418], [-71.721183, -37.523075], [-71.724547, -37.522016], [-71.726011, -37.519286], [-71.73076, -37.516601], [-71.731909, -37.514036], [-71.733749, -37.512845], [-71.734425, -37.511268], [-71.73719, -37.509605], [-71.741385, -37.509966], [-71.744574, -37.509109], [-71.747383, -37.509481], [-71.750108, -37.507943], [-71.755797, -37.509636], [-71.762583, -37.508905], [-71.772217, -37.509594], [-71.773633, -37.509241], [-71.776122, -37.506709], [-71.779422, -37.505083], [-71.784239, -37.504521], [-71.787511, -37.505598], [-71.792023, -37.503458], [-71.794769, -37.50447], [-71.802821, -37.504841], [-71.809596, -37.507858], [-71.813502, -37.506849], [-71.816103, -37.508013], [-71.818059, -37.507632], [-71.818598, -37.509285], [-71.82105, -37.509434], [-71.822839, -37.508617], [-71.823624, -37.509468], [-71.828109, -37.510279], [-71.833253, -37.510315], [-71.843009, -37.507561], [-71.845905, -37.508084], [-71.847358, -37.510295], [-71.849354, -37.509691], [-71.856459, -37.512395], [-71.856875, -37.512722], [-71.856494, -37.514326], [-71.857137, -37.515067], [-71.859539, -37.515133], [-71.863159, -37.51806], [-71.864892, -37.518287], [-71.868364, -37.52147], [-71.869989, -37.524852], [-71.872323, -37.525724], [-71.875997, -37.53], [-71.876974, -37.534028], [-71.876666, -37.539005], [-71.87781, -37.539499], [-71.880026, -37.539243], [-71.890894, -37.543927], [-71.89209, -37.545041], [-71.89076, -37.545955], [-71.892428, -37.547984], [-71.894976, -37.547236], [-71.898304, -37.549577], [-71.899634, -37.549444], [-71.900758, -37.5482], [-71.902154, -37.548218], [-71.906105, -37.55101], [-71.909357, -37.549648], [-71.91583, -37.548577], [-71.922892, -37.545782], [-71.926053, -37.542345], [-71.929232, -37.541785], [-71.933305, -37.539658], [-71.944501, -37.535632], [-71.949795, -37.532488], [-71.951877, -37.532424], [-71.954607, -37.533531], [-71.958132, -37.530702], [-71.962096, -37.533207], [-71.964709, -37.531697], [-71.966935, -37.53271], [-71.969145, -37.532833], [-71.972334, -37.531431], [-71.97919, -37.534681], [-71.980512, -37.538397], [-71.983251, -37.538903], [-71.986464, -37.53738], [-71.989396, -37.538208], [-71.990004, -37.538948], [-71.990552, -37.542706], [-71.994358, -37.544911], [-72.005403, -37.546547], [-72.007873, -37.545069], [-72.009407, -37.544956], [-72.012023, -37.546551], [-72.018948, -37.548307], [-72.027642, -37.547721], [-72.029377, -37.549188], [-72.032424, -37.554478], [-72.041017, -37.5572], [-72.043877, -37.559135], [-72.044316, -37.560619], [-72.049295, -37.561729], [-72.055378, -37.559969], [-72.060056, -37.562558], [-72.066874, -37.562282], [-72.068124, -37.562873], [-72.069084, -37.565556], [-72.072576, -37.566776], [-72.07639, -37.566679], [-72.079893, -37.568737], [-72.081213, -37.569897], [-72.081535, -37.571658], [-72.082425, -37.572516], [-72.086875, -37.573518], [-72.091481, -37.573431], [-72.099087, -37.57585], [-72.104302, -37.576394], [-72.107048, -37.577482], [-72.107906, -37.579272], [-72.109569, -37.580369], [-72.117519, -37.581334], [-72.118753, -37.580862], [-72.119939, -37.579072], [-72.122111, -37.578813], [-72.128248, -37.580178], [-72.129262, -37.581938], [-72.133006, -37.583915], [-72.138478, -37.582988], [-72.141777, -37.584123], [-72.147651, -37.584284], [-72.14831, -37.585057]], [[-71.469049, -37.484964], [-71.473067, -37.489187], [-71.475207, -37.490413], [-71.476107, -37.492307], [-71.474843, -37.495009], [-71.475497, -37.49552], [-71.474809, -37.500249], [-71.475706, -37.502257], [-71.475329, -37.506968], [-71.474401, -37.509045], [-71.475082, -37.510675], [-71.473618, -37.514143], [-71.471705, -37.515747], [-71.471345, -37.518755], [-71.472137, -37.519572], [-71.472067, -37.52101], [-71.470632, -37.523559], [-71.463159, -37.529187], [-71.463931, -37.530514], [-71.463393, -37.531944], [-71.464632, -37.532595], [-71.463345, -37.535045], [-71.464768, -37.536802], [-71.464026, -37.537742], [-71.465458, -37.53998], [-71.465857, -37.547197], [-71.465096, -37.549673], [-71.465383, -37.550902], [-71.463967, -37.552807], [-71.464965, -37.55413], [-71.462499, -37.557149], [-71.464949, -37.560492], [-71.471372, -37.564714], [-71.471801, -37.566419], [-71.473303, -37.566547], [-71.475189, -37.568133], [-71.478989, -37.567818], [-71.480946, -37.5688], [-71.482877, -37.568494], [-71.483816, -37.56974]]]}}