{"type": "Feature", "properties": {"id": "rio-frio-palena", "name": "Río Frío (Villa Santa Lucía)", "type": "river", "region": "los-lagos"}, "geometry": {"type": "MultiLineString", "coordinates": [[[-72.452506, -43.485209], [-72.44845, -43.479324], [-72.446337, -43.477576], [-72.444695, -43.473637], [-72.442324, -43.472858], [-72.442603, -43.47106], [-72.440393, -43.47086], [-72.44029, -43.468784], [-72.438075, -43.466096], [-72.438269, -43.463697], [-72.436455, -43.46154], [-72.436649, -43.459566], [-72.4349, -43.457086], [-72.435431, -43.451875], [-72.433253, -43.451279], [-72.433575, -43.450586], [-72.432287, -43.449722], [-72.428344, -43.451334], [-72.426108, -43.450267], [-72.423238, -43.447634], [-72.422733, -43.446283], [-72.424074, -43.444752], [-72.42291, -43.443389], [-72.423452, -43.442361], [-72.423055, -43.440402], [-72.421907, -43.438914], [-72.420014, -43.438146], [-72.418807, -43.435864]], [[-72.380542, -43.432478], [-72.376766, -43.433495], [-72.373252, -43.435649], [-72.370623, -43.435965], [-72.367711, -43.438528], [-72.364165, -43.437817], [-72.362952, -43.439463], [-72.362416, -43.442341], [-72.360479, -43.445687], [-72.360356, -43.450049], [-72.358999, -43.451926], [-72.358768, -43.453445], [-72.359632, -43.455018], [-72.363333, -43.457537], [-72.362158, -43.459967], [-72.362459, -43.461264], [-72.366085, -43.463939], [-72.364701, -43.468213], [-72.360501, -43.471581], [-72.36446, -43.475135], [-72.362802, -43.477288], [-72.358478, -43.48006], [-72.359052, -43.481083], [-72.361826, -43.481087], [-72.362604, -43.481679], [-72.35939, -43.485003], [-72.358049, -43.493125], [-72.355882, -43.493725], [-72.351419, -43.492495], [-72.347873, -43.493884], [-72.346355, -43.49548], [-72.346896, -43.49706], [-72.348956, -43.49813], [-72.347369, -43.499499], [-72.346628, -43.501468], [-72.348651, -43.503822], [-72.349193, -43.505764], [-72.348216, -43.507748], [-72.348361, -43.509993], [-72.343522, -43.511265], [-72.343313, -43.514222], [-72.345218, -43.519112], [-72.346757, -43.520003], [-72.349734, -43.519416], [-72.35078, -43.520326], [-72.350984, -43.521551], [-72.350378, -43.523251], [-72.348517, -43.524492], [-72.343506, -43.525487], [-72.342546, -43.52758], [-72.343308, -43.53066], [-72.345132, -43.531613], [-72.345373, -43.532484], [-72.342922, -43.536132], [-72.343023, -43.536887], [-72.346945, -43.537976], [-72.348055, -43.540383], [-72.347642, -43.541728], [-72.344681, -43.543587], [-72.346998, -43.545612], [-72.341511, -43.553684], [-72.341816, -43.555834], [-72.343356, -43.558349], [-72.343984, -43.562085], [-72.342744, -43.562773], [-72.338233, -43.56191], [-72.335642, -43.562649], [-72.338233, -43.570998], [-72.332021, -43.576423], [-72.329822, -43.580958], [-72.330562, -43.582614], [-72.332595, -43.584156], [-72.340904, -43.585485], [-72.341393, -43.586935], [-72.340202, -43.589293], [-72.336935, -43.591756], [-72.332167, -43.59259], [-72.32781, -43.59169], [-72.324436, -43.592996], [-72.322848, -43.594666], [-72.322633, -43.596259], [-72.324318, -43.602001], [-72.32302, -43.606585], [-72.325814, -43.609708], [-72.330433, -43.611759], [-72.33333, -43.618361], [-72.332557, -43.619984], [-72.328663, -43.620924], [-72.327032, -43.620885], [-72.323395, -43.619083], [-72.321646, -43.619277], [-72.321571, -43.621468], [-72.323052, -43.622835], [-72.323406, -43.626446], [-72.324811, -43.628721]], [[-72.416225, -43.432957], [-72.407713, -43.430535], [-72.406624, -43.427133], [-72.405567, -43.428185], [-72.402198, -43.42808], [-72.400565, -43.429785], [-72.396796, -43.428441], [-72.394557, -43.428386], [-72.392628, -43.430219], [-72.390027, -43.429518], [-72.387411, -43.429818], [-72.384799, -43.432239], [-72.381846, -43.431966], [-72.380542, -43.432478]], [[-72.473867, -43.535529], [-72.471496, -43.535082], [-72.465042, -43.531994], [-72.463449, -43.522905], [-72.463814, -43.520944], [-72.462956, -43.517988]], [[-72.462956, -43.517988], [-72.462226, -43.517062], [-72.462494, -43.51623], [-72.46022, -43.513133], [-72.457559, -43.512608], [-72.45647, -43.511328], [-72.456304, -43.50946], [-72.458053, -43.507266], [-72.457806, -43.504488], [-72.455783, -43.502803], [-72.456293, -43.501188], [-72.455167, -43.499947], [-72.455767, -43.498748], [-72.453954, -43.497437], [-72.452672, -43.494009], [-72.452071, -43.490471], [-72.452774, -43.489413], [-72.452066, -43.488607], [-72.45198, -43.486918], [-72.452506, -43.485209]], [[-72.418807, -43.435864], [-72.416913, -43.435104], [-72.416225, -43.432957]]]}}