{"type": "Feature", "properties": {"id": "rio-cochamo", "name": "Río Cochamó", "type": "river", "region": "los-lagos"}, "geometry": {"type": "MultiLineString", "coordinates": [[[-72.0952395, -41.4076564], [-72.0974886, -41.4079532], [-72.0984245, -41.406413], [-72.0993233, -41.4083958], [-72.1010488, -41.408319], [-72.1036968, -41.4096376], [-72.1093548, -41.4096553], [-72.1113181, -41.408939], [-72.1128246, -41.4094834], [-72.1146732, -41.4089456], [-72.116387, -41.4096181], [-72.1178893, -41.4094422], [-72.1191019, -41.4128737], [-72.1207104, -41.4125324], [-72.1230663, -41.4108865], [-72.1246771, -41.4106973], [-72.1272932, -41.4133199], [-72.1314186, -41.4131593], [-72.1352273, -41.4142697], [-72.1348282, -41.4163018], [-72.138312, -41.4209766], [-72.1428663, -41.421728], [-72.1436334, -41.4211648], [-72.1419306, -41.4202137], [-72.1416979, -41.4191491], [-72.1423837, -41.4182822], [-72.1434893, -41.4182951], [-72.1457255, -41.4189362], [-72.1507212, -41.4236153], [-72.1574453, -41.424833], [-72.1640075, -41.4274199], [-72.1657259, -41.4264028], [-72.166467, -41.4268284], [-72.1694553, -41.4260312], [-72.1709147, -41.4269602], [-72.1751468, -41.4273266], [-72.1763295, -41.4283166], [-72.1808891, -41.4294684], [-72.1828141, -41.4316454], [-72.1839242, -41.4361262], [-72.1863278, -41.4386689], [-72.189746, -41.4398554], [-72.1916395, -41.4423323], [-72.1936787, -41.4423587], [-72.1962229, -41.4439438], [-72.1994035, -41.4448813], [-72.202841, -41.448181], [-72.2046429, -41.448376], [-72.2115972, -41.4525542], [-72.217517, -41.4550505], [-72.2184026, -41.4560877], [-72.2169273, -41.4569775], [-72.2176865, -41.458924], [-72.2200763, -41.4588496], [-72.2211703, -41.4602434], [-72.2257792, -41.461323], [-72.22749, -41.4630306], [-72.2311699, -41.4647591], [-72.2309634, -41.4660792], [-72.229507, -41.467155], [-72.2298809, -41.4681276], [-72.2335898, -41.4700059], [-72.2345921, -41.471533], [-72.2368761, -41.4728042], [-72.238756, -41.4764041], [-72.2442027, -41.4785816], [-72.2433912, -41.4798471], [-72.2432721, -41.481966], [-72.2458685, -41.4840036], [-72.2466087, -41.4863022], [-72.2460616, -41.4872506], [-72.2470379, -41.4885526], [-72.2506361, -41.4894839], [-72.2524402, -41.4919841], [-72.2551596, -41.4913172], [-72.2570546, -41.4915955], [-72.2600812, -41.4942454], [-72.2669828, -41.4984452], [-72.2665429, -41.5020049], [-72.2669399, -41.502495], [-72.2730929, -41.5039453], [-72.2748685, -41.5056367], [-72.2758099, -41.5056005]], [[-72.0508071, -41.4301651], [-72.0569252, -41.4261895], [-72.0575661, -41.4270414], [-72.0587315, -41.4271834], [-72.0648964, -41.4215149], [-72.0682277, -41.4208588], [-72.0718523, -41.4157583], [-72.0710109, -41.414199], [-72.0767922, -41.4091699], [-72.0806155, -41.40922], [-72.0853598, -41.4077483], [-72.089646, -41.4075953], [-72.0921029, -41.4083196], [-72.0952395, -41.4076564]], [[-72.2758099, -41.5056005], [-72.2787523, -41.5027561], [-72.2797179, -41.5000603], [-72.2827488, -41.4993452], [-72.2845513, -41.4997188], [-72.2851253, -41.5012495], [-72.2867882, -41.5028405], [-72.2920239, -41.5048854], [-72.2946847, -41.5068459]], [[-72.0952395, -41.4076564], [-72.0974886, -41.4079532], [-72.0984245, -41.406413], [-72.0993233, -41.4083958], [-72.1010488, -41.408319], [-72.1036968, -41.4096376], [-72.1093548, -41.4096553], [-72.1113181, -41.408939], [-72.1128246, -41.4094834], [-72.1146732, -41.4089456], [-72.116387, -41.4096181], [-72.1178893, -41.4094422], [-72.1191019, -41.4128737], [-72.1207104, -41.4125324], [-72.1230663, -41.4108865], [-72.1246771, -41.4106973], [-72.1272932, -41.4133199], [-72.1314186, -41.4131593], [-72.1352273, -41.4142697], [-72.1348282, -41.4163018], [-72.138312, -41.4209766], [-72.1428663, -41.421728], [-72.1436334, -41.4211648], [-72.1419306, -41.4202137], [-72.1416979, -41.4191491], [-72.1423837, -41.4182822], [-72.1434893, -41.4182951], [-72.1457255, -41.4189362], [-72.1507212, -41.4236153], [-72.1574453, -41.424833], [-72.1640075, -41.4274199], [-72.1657259, -41.4264028], [-72.166467, -41.4268284], [-72.1694553, -41.4260312], [-72.1709147, -41.4269602], [-72.1751468, -41.4273266], [-72.1763295, -41.4283166], [-72.1808891, -41.4294684], [-72.1828141, -41.4316454], [-72.1839242, -41.4361262], [-72.1863278, -41.4386689], [-72.189746, -41.4398554], [-72.1916395, -41.4423323], [-72.1936787, -41.4423587], [-72.1962229, -41.4439438], [-72.1994035, -41.4448813], [-72.202841, -41.448181], [-72.2046429, -41.448376], [-72.2115972, -41.4525542], [-72.217517, -41.4550505], [-72.2184026, -41.4560877], [-72.2169273, -41.4569775], [-72.2176865, -41.458924], [-72.2200763, -41.4588496], [-72.2211703, -41.4602434], [-72.2257792, -41.461323], [-72.22749, -41.4630306], [-72.2311699, -41.4647591], [-72.2309634, -41.4660792], [-72.229507, -41.467155], [-72.2298809, -41.4681276], [-72.2335898, -41.4700059], [-72.2345921, -41.471533], [-72.2368761, -41.4728042], [-72.238756, -41.4764041], [-72.2442027, -41.4785816], [-72.2433912, -41.4798471], [-72.2432721, -41.481966], [-72.2458685, -41.4840036], [-72.2466087, -41.4863022], [-72.2460616, -41.4872506], [-72.2470379, -41.4885526], [-72.2506361, -41.4894839], [-72.2524402, -41.4919841], [-72.2551596, -41.4913172], [-72.2570546, -41.4915955], [-72.2600812, -41.4942454], [-72.2669828, -41.4984452], [-72.2665429, -41.5020049], [-72.2669399, -41.502495], [-72.2730929, -41.5039453], [-72.2748685, -41.5056367], [-72.2758099, -41.5056005]], [[-72.2758099, -41.5056005], [-72.2787523, -41.5027561], [-72.2797179, -41.5000603], [-72.2827488, -41.4993452], [-72.2845513, -41.4997188], [-72.2851253, -41.5012495], [-72.2867882, -41.5028405], [-72.2920239, -41.5048854], [-72.2946847, -41.5068459]]]}}