{"type": "Feature", "properties": {"id": "rio-cochrane", "name": "Río Cochrane", "type": "river", "region": "aysen"}, "geometry": {"type": "MultiLineString", "coordinates": [[[-72.548463, -47.255489], [-72.549677, -47.25591], [-72.552826, -47.254916], [-72.555859, -47.254869], [-72.565854, -47.251552], [-72.567116, -47.252723], [-72.567449, -47.254354], [-72.566988, -47.256321], [-72.565341, -47.256868], [-72.565009, -47.257975], [-72.572347, -47.258109], [-72.574278, -47.259704], [-72.576939, -47.259992], [-72.577722, -47.260654], [-72.579511, -47.259057], [-72.579342, -47.257909], [-72.582239, -47.259107], [-72.583703, -47.258371], [-72.582834, -47.25618], [-72.58572, -47.256558], [-72.58733, -47.254734], [-72.589835, -47.255404], [-72.591908, -47.254778], [-72.593471, -47.255325], [-72.594716, -47.254606], [-72.594061, -47.253896], [-72.595361, -47.253824], [-72.596701, -47.254584], [-72.595296, -47.255703], [-72.595574, -47.256397], [-72.598574, -47.25468], [-72.599861, -47.25512], [-72.602532, -47.252844], [-72.600998, -47.249669], [-72.603192, -47.248821], [-72.604104, -47.246246], [-72.60514, -47.245219], [-72.604356, -47.239185], [-72.605317, -47.234701], [-72.606658, -47.233503], [-72.607323, -47.231823], [-72.607178, -47.230333], [-72.608117, -47.229506], [-72.611641, -47.228649], [-72.60894, -47.231199], [-72.610279, -47.231678], [-72.611277, -47.229805], [-72.613698, -47.229051], [-72.614109, -47.228246], [-72.620916, -47.228563], [-72.627268, -47.230126], [-72.631656, -47.233091], [-72.636226, -47.234857], [-72.639928, -47.238358], [-72.645292, -47.238817], [-72.646017, -47.239235], [-72.645271, -47.239928], [-72.646215, -47.240856], [-72.647899, -47.24051], [-72.649187, -47.241184], [-72.648425, -47.24948], [-72.650169, -47.25141], [-72.649718, -47.251694], [-72.647937, -47.250743], [-72.647604, -47.251177], [-72.649568, -47.253079], [-72.649415, -47.254162], [-72.650718, -47.255238], [-72.655203, -47.254202], [-72.655356, -47.255306], [-72.65637, -47.255848], [-72.657343, -47.257609], [-72.65913, -47.258091], [-72.662104, -47.26017], [-72.664137, -47.26045], [-72.664647, -47.259598], [-72.666015, -47.260217], [-72.664728, -47.261222], [-72.665409, -47.26222], [-72.664148, -47.264586], [-72.664491, -47.265951], [-72.665629, -47.266864], [-72.665588, -47.268364], [-72.668171, -47.270857], [-72.668569, -47.273087], [-72.671612, -47.275743], [-72.673784, -47.276708], [-72.674547, -47.278187], [-72.680289, -47.279914], [-72.681048, -47.279164], [-72.682828, -47.280229], [-72.685125, -47.278227], [-72.683961, -47.277553], [-72.684125, -47.276364], [-72.686396, -47.274634], [-72.688094, -47.276014], [-72.693281, -47.277954], [-72.698314, -47.278909]], [[-72.575335, -47.240022], [-72.57604, -47.24059], [-72.575973, -47.241508], [-72.574032, -47.244509], [-72.574879, -47.244877], [-72.57607, -47.247098], [-72.578001, -47.248329], [-72.577819, -47.249195], [-72.578554, -47.249792], [-72.577321, -47.250917], [-72.575756, -47.250887], [-72.574806, -47.252011], [-72.573391, -47.251694]], [[-72.566865, -47.256474], [-72.568775, -47.256907], [-72.570137, -47.257996]], [[-72.571839, -47.252032], [-72.567116, -47.252723]], [[-72.572062, -47.251964], [-72.571839, -47.252032]], [[-72.573391, -47.251694], [-72.572062, -47.251964]], [[-72.489041, -47.218985], [-72.495583, -47.222238], [-72.496373, -47.223003], [-72.49603, -47.223572], [-72.496546, -47.224406], [-72.497455, -47.224789], [-72.49721, -47.225444], [-72.498935, -47.228286], [-72.505292, -47.232472], [-72.509433, -47.23395], [-72.51807, -47.241293], [-72.530752, -47.246475], [-72.532924, -47.24869], [-72.536341, -47.249895], [-72.539935, -47.250124], [-72.543797, -47.25161], [-72.546051, -47.25323], [-72.54649, -47.254821], [-72.548463, -47.255489]], [[-72.489041, -47.218985], [-72.495583, -47.222238], [-72.496373, -47.223003], [-72.49603, -47.223572], [-72.496546, -47.224406], [-72.497455, -47.224789], [-72.49721, -47.225444], [-72.498935, -47.228286], [-72.505292, -47.232472], [-72.509433, -47.23395], [-72.51807, -47.241293], [-72.530752, -47.246475], [-72.532924, -47.24869], [-72.536341, -47.249895], [-72.539935, -47.250124], [-72.543797, -47.25161], [-72.546051, -47.25323], [-72.54649, -47.254821], [-72.548463, -47.255489]], [[-72.548463, -47.255489], [-72.549677, -47.25591], [-72.552826, -47.254916], [-72.555859, -47.254869], [-72.565854, -47.251552], [-72.567116, -47.252723], [-72.567449, -47.254354], [-72.566988, -47.256321], [-72.565341, -47.256868], [-72.565009, -47.257975], [-72.572347, -47.258109], [-72.574278, -47.259704], [-72.576939, -47.259992], [-72.577722, -47.260654], [-72.579511, -47.259057], [-72.579342, -47.257909], [-72.582239, -47.259107], [-72.583703, -47.258371], [-72.582834, -47.25618], [-72.58572, -47.256558], [-72.58733, -47.254734], [-72.589835, -47.255404], [-72.591908, -47.254778], [-72.593471, -47.255325], [-72.594716, -47.254606], [-72.594061, -47.253896], [-72.595361, -47.253824], [-72.596701, -47.254584], [-72.595296, -47.255703], [-72.595574, -47.256397], [-72.598574, -47.25468], [-72.599861, -47.25512], [-72.602532, -47.252844], [-72.600998, -47.249669], [-72.603192, -47.248821], [-72.604104, -47.246246], [-72.60514, -47.245219], [-72.604356, -47.239185], [-72.605317, -47.234701], [-72.606658, -47.233503], [-72.607323, -47.231823], [-72.607178, -47.230333], [-72.608117, -47.229506], [-72.611641, -47.228649], [-72.60894, -47.231199], [-72.610279, -47.231678], [-72.611277, -47.229805], [-72.613698, -47.229051], [-72.614109, -47.228246], [-72.620916, -47.228563], [-72.627268, -47.230126], [-72.631656, -47.233091], [-72.636226, -47.234857], [-72.639928, -47.238358], [-72.645292, -47.238817], [-72.646017, -47.239235], [-72.645271, -47.239928], [-72.646215, -47.240856], [-72.647899, -47.24051], [-72.649187, -47.241184], [-72.648425, -47.24948], [-72.650169, -47.25141], [-72.649718, -47.251694], [-72.647937, -47.250743], [-72.647604, -47.251177], [-72.649568, -47.253079], [-72.649415, -47.254162], [-72.650718, -47.255238], [-72.655203, -47.254202], [-72.655356, -47.255306], [-72.65637, -47.255848], [-72.657343, -47.257609], [-72.65913, -47.258091], [-72.662104, -47.26017], [-72.664137, -47.26045], [-72.664647, -47.259598], [-72.666015, -47.260217], [-72.664728, -47.261222], [-72.665409, -47.26222], [-72.664148, -47.264586], [-72.664491, -47.265951], [-72.665629, -47.266864], [-72.665588, -47.268364], [-72.668171, -47.270857], [-72.668569, -47.273087], [-72.671612, -47.275743], [-72.673784, -47.276708], [-72.674547, -47.278187], [-72.680289, -47.279914], [-72.681048, -47.279164], [-72.682828, -47.280229], [-72.685125, -47.278227], [-72.683961, -47.277553], [-72.684125, -47.276364], [-72.686396, -47.274634], [-72.688094, -47.276014], [-72.693281, -47.277954], [-72.698314, -47.278909]]]}}