{"type": "Feature", "properties": {"id": "rio-mapocho", "name": "Río Mapocho", "type": "river", "region": "metropolitana"}, "geometry": {"type": "MultiLineString", "coordinates": [[[-70.808715, -33.527795], [-70.807438, -33.527766], [-70.8071, -33.52939], [-70.804391, -33.530225], [-70.805286, -33.531557], [-70.804643, -33.53258], [-70.804906, -33.533537], [-70.806403, -33.534335], [-70.807491, -33.536154], [-70.811235, -33.537478], [-70.812545, -33.540501], [-70.813274, -33.540603], [-70.816103, -33.543883], [-70.817718, -33.544503], [-70.820433, -33.548009], [-70.823394, -33.550055], [-70.826125, -33.550626], [-70.828457, -33.549548], [-70.830128, -33.547705], [-70.831716, -33.54833], [-70.836895, -33.548088], [-70.838202, -33.546659], [-70.839404, -33.546618], [-70.842134, -33.54812], [-70.848637, -33.54875], [-70.852117, -33.550488], [-70.85709, -33.553582], [-70.859515, -33.556796], [-70.864094, -33.559825], [-70.865378, -33.561984], [-70.868187, -33.561765], [-70.872352, -33.565536], [-70.874053, -33.566354], [-70.875855, -33.570841], [-70.878704, -33.573125], [-70.877486, -33.574542], [-70.877657, -33.575847], [-70.881547, -33.577474], [-70.884218, -33.576973], [-70.889572, -33.58247], [-70.890264, -33.584955], [-70.892469, -33.585679], [-70.895054, -33.590443]], [[-70.824287, -33.446207], [-70.82143, -33.44958], [-70.82086, -33.451167], [-70.82117, -33.452276], [-70.819721, -33.453793], [-70.815724, -33.456343], [-70.810558, -33.458431], [-70.80862, -33.460575], [-70.806174, -33.460618], [-70.804062, -33.464055], [-70.804586, -33.465323], [-70.807023, -33.467213], [-70.807693, -33.468838], [-70.807384, -33.470714], [-70.8106, -33.474489], [-70.811431, -33.477635], [-70.811072, -33.479791], [-70.811833, -33.480781], [-70.809969, -33.483342], [-70.808003, -33.483069], [-70.807056, -33.483648], [-70.807333, -33.484556], [-70.806152, -33.487666], [-70.803089, -33.490711], [-70.803057, -33.494253], [-70.80361, -33.495052], [-70.807279, -33.496005], [-70.809842, -33.495249], [-70.812039, -33.493426], [-70.814205, -33.493243], [-70.81647, -33.496724], [-70.818912, -33.497744], [-70.822801, -33.501377], [-70.823506, -33.502748], [-70.822376, -33.506122], [-70.820069, -33.509845], [-70.81731, -33.512088], [-70.816106, -33.516082], [-70.814712, -33.517959], [-70.816111, -33.522029], [-70.814979, -33.526217], [-70.813042, -33.527322], [-70.808715, -33.527795]], [[-70.824536, -33.444671], [-70.824287, -33.446207]], [[-70.895054, -33.590443], [-70.895687, -33.591712], [-70.900413, -33.595894], [-70.900708, -33.596833], [-70.903552, -33.598164], [-70.90404, -33.599554], [-70.908261, -33.603258], [-70.909131, -33.604965], [-70.911207, -33.606412], [-70.913855, -33.609757]], [[-70.924186, -33.62576], [-70.923569, -33.627071], [-70.924915, -33.630135], [-70.92914, -33.632268], [-70.929397, -33.633979], [-70.931801, -33.637136], [-70.931447, -33.638985], [-70.933474, -33.640187], [-70.933721, -33.642572], [-70.935277, -33.64384], [-70.935202, -33.645608], [-70.935942, -33.647055], [-70.935717, -33.650152], [-70.936824, -33.651974], [-70.936586, -33.653827], [-70.937205, -33.654805], [-70.935121, -33.6594], [-70.939348, -33.663769], [-70.943592, -33.665387]], [[-70.72246, -33.411697], [-70.727113, -33.413482], [-70.735525, -33.412169], [-70.759863, -33.412471], [-70.77097, -33.414582], [-70.776042, -33.413548], [-70.782266, -33.413829]], [[-70.913855, -33.609757], [-70.914527, -33.610797], [-70.914348, -33.61268], [-70.915048, -33.613538], [-70.91615, -33.613943], [-70.918336, -33.613514], [-70.919457, -33.614923], [-70.922493, -33.615805], [-70.922263, -33.617523], [-70.923024, -33.619243], [-70.922633, -33.620244], [-70.92461, -33.624411], [-70.924186, -33.62576]], [[-71.000111, -33.693499], [-71.010089, -33.69952], [-71.010808, -33.701903], [-71.013294, -33.704449], [-71.014955, -33.705226], [-71.014552, -33.707076], [-71.016655, -33.708002], [-71.022721, -33.713993]], [[-70.970344, -33.677863], [-70.973207, -33.679068], [-70.977731, -33.682202], [-70.983331, -33.684648], [-70.985568, -33.687358], [-70.992016, -33.689938], [-70.994999, -33.68992], [-70.996753, -33.691692], [-70.999323, -33.691848], [-71.000111, -33.693499]], [[-70.39725, -33.373703], [-70.403059, -33.373361], [-70.405216, -33.373957], [-70.405683, -33.373314], [-70.409049, -33.372851], [-70.410392, -33.371495], [-70.413671, -33.371301], [-70.418126, -33.369566], [-70.41985, -33.370069], [-70.422683, -33.369115], [-70.427524, -33.369767], [-70.432228, -33.372369], [-70.43306, -33.37219], [-70.433635, -33.370914], [-70.435584, -33.371416], [-70.437197, -33.370742], [-70.439025, -33.371975], [-70.442141, -33.37247], [-70.445076, -33.371251], [-70.447969, -33.371437], [-70.452982, -33.370255], [-70.454647, -33.370534], [-70.456011, -33.368979], [-70.458277, -33.370183], [-70.460337, -33.369001], [-70.463772, -33.369559], [-70.465161, -33.369151], [-70.465805, -33.367466], [-70.46662, -33.367043], [-70.466852, -33.363674], [-70.469899, -33.364276], [-70.471718, -33.362348], [-70.476267, -33.363495], [-70.479846, -33.361997], [-70.483142, -33.363552], [-70.494336, -33.362391], [-70.503161, -33.363862], [-70.506113, -33.363411], [-70.510751, -33.364787], [-70.515652, -33.367166], [-70.52033, -33.371085], [-70.524352, -33.371825], [-70.529748, -33.375399], [-70.535064, -33.377241], [-70.540666, -33.377403], [-70.545257, -33.37516], [-70.548078, -33.374608], [-70.553628, -33.376135], [-70.569879, -33.378039], [-70.578127, -33.380923], [-70.590127, -33.383226], [-70.601926, -33.392649], [-70.60369, -33.395987], [-70.603447, -33.404048], [-70.60548, -33.409471]], [[-70.782266, -33.413829], [-70.789228, -33.412293], [-70.795603, -33.413541], [-70.797346, -33.414993], [-70.796193, -33.415713], [-70.798989, -33.416013], [-70.798098, -33.418598], [-70.801428, -33.424709], [-70.805419, -33.423935], [-70.806335, -33.425481], [-70.809548, -33.425676], [-70.809692, -33.427087], [-70.811359, -33.426701], [-70.811968, -33.427732], [-70.813436, -33.427839], [-70.815131, -33.428985], [-70.817031, -33.428652], [-70.818576, -33.430071], [-70.81795, -33.432234], [-70.819186, -33.433008], [-70.819727, -33.434282], [-70.822439, -33.435823], [-70.8208, -33.438613], [-70.820776, -33.440256], [-70.821358, -33.441617], [-70.823878, -33.443393], [-70.824536, -33.444671]], [[-71.010244, -33.699772], [-71.011881, -33.70068], [-71.01276, -33.702622], [-71.014461, -33.70322], [-71.016751, -33.707172], [-71.016655, -33.708002]], [[-70.999553, -33.69208], [-71.004258, -33.694196], [-71.006307, -33.696155], [-71.008946, -33.696842], [-71.009633, -33.69915]], [[-70.943592, -33.665387], [-70.947486, -33.66705], [-70.948092, -33.668077], [-70.952432, -33.669662], [-70.954573, -33.669323], [-70.960033, -33.671729], [-70.961621, -33.673332], [-70.969191, -33.676734], [-70.970344, -33.677863]], [[-70.60548, -33.409471], [-70.60742, -33.415422], [-70.61015, -33.418713], [-70.613669, -33.421144], [-70.620885, -33.423678], [-70.62211, -33.424865], [-70.624825, -33.430003], [-70.627734, -33.4331], [-70.634398, -33.436135], [-70.661669, -33.429874], [-70.673571, -33.425805], [-70.690581, -33.418482], [-70.69498, -33.413664], [-70.703891, -33.408138], [-70.713396, -33.40815], [-70.715121, -33.409318], [-70.720432, -33.410485], [-70.72246, -33.411697]], [[-70.89249, -33.586385], [-70.892277, -33.587554], [-70.893543, -33.589632], [-70.894655, -33.590061]], [[-70.39725, -33.373703], [-70.403059, -33.373361], [-70.405216, -33.373957], [-70.405683, -33.373314], [-70.409049, -33.372851], [-70.410392, -33.371495], [-70.413671, -33.371301], [-70.418126, -33.369566], [-70.41985, -33.370069], [-70.422683, -33.369115], [-70.427524, -33.369767], [-70.432228, -33.372369], [-70.43306, -33.37219], [-70.433635, -33.370914], [-70.435584, -33.371416], [-70.437197, -33.370742], [-70.439025, -33.371975], [-70.442141, -33.37247], [-70.445076, -33.371251], [-70.447969, -33.371437], [-70.452982, -33.370255], [-70.454647, -33.370534], [-70.456011, -33.368979], [-70.458277, -33.370183], [-70.460337, -33.369001], [-70.463772, -33.369559], [-70.465161, -33.369151], [-70.465805, -33.367466], [-70.46662, -33.367043], [-70.466852, -33.363674], [-70.469899, -33.364276], [-70.471718, -33.362348], [-70.476267, -33.363495], [-70.479846, -33.361997], [-70.483142, -33.363552], [-70.494336, -33.362391], [-70.503161, -33.363862], [-70.506113, -33.363411], [-70.510751, -33.364787], [-70.515652, -33.367166], [-70.52033, -33.371085], [-70.524352, -33.371825], [-70.529748, -33.375399], [-70.535064, -33.377241], [-70.540666, -33.377403], [-70.545257, -33.37516], [-70.548078, -33.374608], [-70.553628, -33.376135], [-70.569879, -33.378039], [-70.578127, -33.380923], [-70.590127, -33.383226], [-70.601926, -33.392649], [-70.60369, -33.395987], [-70.603447, -33.404048], [-70.60548, -33.409471]], [[-70.60548, -33.409471], [-70.60742, -33.415422], [-70.61015, -33.418713], [-70.613669, -33.421144], [-70.620885, -33.423678], [-70.62211, -33.424865], [-70.624825, -33.430003], [-70.627734, -33.4331], [-70.634398, -33.436135], [-70.661669, -33.429874], [-70.673571, -33.425805], [-70.690581, -33.418482], [-70.69498, -33.413664], [-70.703891, -33.408138], [-70.713396, -33.40815], [-70.715121, -33.409318], [-70.720432, -33.410485], [-70.72246, -33.411697]], [[-70.72246, -33.411697], [-70.727113, -33.413482], [-70.735525, -33.412169], [-70.759863, -33.412471], [-70.77097, -33.414582], [-70.776042, -33.413548], [-70.782266, -33.413829]], [[-70.782266, -33.413829], [-70.789228, -33.412293], [-70.795603, -33.413541], [-70.797346, -33.414993], [-70.796193, -33.415713], [-70.798989, -33.416013], [-70.798098, -33.418598], [-70.801428, -33.424709], [-70.805419, -33.423935], [-70.806335, -33.425481], [-70.809548, -33.425676], [-70.809692, -33.427087], [-70.811359, -33.426701], [-70.811968, -33.427732], [-70.813436, -33.427839], [-70.815131, -33.428985], [-70.817031, -33.428652], [-70.818576, -33.430071], [-70.81795, -33.432234], [-70.819186, -33.433008], [-70.819727, -33.434282], [-70.822439, -33.435823], [-70.8208, -33.438613], [-70.820776, -33.440256], [-70.821358, -33.441617], [-70.823878, -33.443393], [-70.824536, -33.444671]], [[-70.824536, -33.444671], [-70.824287, -33.446207]], [[-70.824287, -33.446207], [-70.82143, -33.44958], [-70.82086, -33.451167], [-70.82117, -33.452276], [-70.819721, -33.453793], [-70.815724, -33.456343], [-70.810558, -33.458431], [-70.80862, -33.460575], [-70.806174, -33.460618], [-70.804062, -33.464055], [-70.804586, -33.465323], [-70.807023, -33.467213], [-70.807693, -33.468838], [-70.807384, -33.470714], [-70.8106, -33.474489], [-70.811431, -33.477635], [-70.811072, -33.479791], [-70.811833, -33.480781], [-70.809969, -33.483342], [-70.808003, -33.483069], [-70.807056, -33.483648], [-70.807333, -33.484556], [-70.806152, -33.487666], [-70.803089, -33.490711], [-70.803057, -33.494253], [-70.80361, -33.495052], [-70.807279, -33.496005], [-70.809842, -33.495249], [-70.812039, -33.493426], [-70.814205, -33.493243], [-70.81647, -33.496724], [-70.818912, -33.497744], [-70.822801, -33.501377], [-70.823506, -33.502748], [-70.822376, -33.506122], [-70.820069, -33.509845], [-70.81731, -33.512088], [-70.816106, -33.516082], [-70.814712, -33.517959], [-70.816111, -33.522029], [-70.814979, -33.526217], [-70.813042, -33.527322], [-70.808715, -33.527795]], [[-70.808715, -33.527795], [-70.807438, -33.527766], [-70.8071, -33.52939], [-70.804391, -33.530225], [-70.805286, -33.531557], [-70.804643, -33.53258], [-70.804906, -33.533537], [-70.806403, -33.534335], [-70.807491, -33.536154], [-70.811235, -33.537478], [-70.812545, -33.540501], [-70.813274, -33.540603], [-70.816103, -33.543883], [-70.817718, -33.544503], [-70.820433, -33.548009], [-70.823394, -33.550055], [-70.826125, -33.550626], [-70.828457, -33.549548], [-70.830128, -33.547705], [-70.831716, -33.54833], [-70.836895, -33.548088], [-70.838202, -33.546659], [-70.839404, -33.546618], [-70.842134, -33.54812], [-70.848637, -33.54875], [-70.852117, -33.550488], [-70.85709, -33.553582], [-70.859515, -33.556796], [-70.864094, -33.559825], [-70.865378, -33.561984], [-70.868187, -33.561765], [-70.872352, -33.565536], [-70.874053, -33.566354], [-70.875855, -33.570841], [-70.878704, -33.573125], [-70.877486, -33.574542], [-70.877657, -33.575847], [-70.881547, -33.577474], [-70.884218, -33.576973], [-70.889572, -33.58247], [-70.890264, -33.584955], [-70.892469, -33.585679], [-70.895054, -33.590443]], [[-70.895054, -33.590443], [-70.895687, -33.591712], [-70.900413, -33.595894], [-70.900708, -33.596833], [-70.903552, -33.598164], [-70.90404, -33.599554], [-70.908261, -33.603258], [-70.909131, -33.604965], [-70.911207, -33.606412], [-70.913855, -33.609757]], [[-70.913855, -33.609757], [-70.914527, -33.610797], [-70.914348, -33.61268], [-70.915048, -33.613538], [-70.91615, -33.613943], [-70.918336, -33.613514], [-70.919457, -33.614923], [-70.922493, -33.615805], [-70.922263, -33.617523], [-70.923024, -33.619243], [-70.922633, -33.620244], [-70.92461, -33.624411], [-70.924186, -33.62576]], [[-70.924186, -33.62576], [-70.923569, -33.627071], [-70.924915, -33.630135], [-70.92914, -33.632268], [-70.929397, -33.633979], [-70.931801, -33.637136], [-70.931447, -33.638985], [-70.933474, -33.640187], [-70.933721, -33.642572], [-70.935277, -33.64384], [-70.935202, -33.645608], [-70.935942, -33.647055], [-70.935717, -33.650152], [-70.936824, -33.651974], [-70.936586, -33.653827], [-70.937205, -33.654805], [-70.935121, -33.6594], [-70.939348, -33.663769], [-70.943592, -33.665387]], [[-70.943592, -33.665387], [-70.947486, -33.66705], [-70.948092, -33.668077], [-70.952432, -33.669662], [-70.954573, -33.669323], [-70.960033, -33.671729], [-70.961621, -33.673332], [-70.969191, -33.676734], [-70.970344, -33.677863]], [[-70.970344, -33.677863], [-70.973207, -33.679068], [-70.977731, -33.682202], [-70.983331, -33.684648], [-70.985568, -33.687358], [-70.992016, -33.689938], [-70.994999, -33.68992], [-70.996753, -33.691692], [-70.999323, -33.691848], [-71.000111, -33.693499]], [[-71.000111, -33.693499], [-71.010089, -33.69952], [-71.010808, -33.701903], [-71.013294, -33.704449], [-71.014955, -33.705226], [-71.014552, -33.707076], [-71.016655, -33.708002], [-71.022721, -33.713993]], [[-70.883939, -33.591623], [-70.884208, -33.592691], [-70.885538, -33.593191], [-70.886321, -33.594795], [-70.88947, -33.596811]], [[-70.88947, -33.596811], [-70.892566, -33.597512], [-70.894695, -33.598526], [-70.895281, -33.599542], [-70.898367, -33.600774]], [[-70.898367, -33.600774], [-70.898468, -33.600832]], [[-70.898468, -33.600832], [-70.899941, -33.600636], [-70.902811, -33.601851], [-70.904029, -33.603044], [-70.906121, -33.603504], [-70.91244, -33.60945], [-70.91266, -33.610268], [-70.911987, -33.611275], [-70.912904, -33.612593], [-70.915399, -33.613755]], [[-71.010244, -33.699772], [-71.011881, -33.70068], [-71.01276, -33.702622], [-71.014461, -33.70322], [-71.016751, -33.707172], [-71.016655, -33.708002]]]}}