{"type": "Feature", "properties": {"id": "rio-molina", "name": "Río Molina", "type": "river", "region": "metropolitana"}, "geometry": {"type": "MultiLineString", "coordinates": [[[-70.264934, -33.383745], [-70.267595, -33.382129], [-70.271902, -33.38148], [-70.273195, -33.380306], [-70.279353, -33.381], [-70.280866, -33.379831], [-70.289342, -33.381905], [-70.290002, -33.382751], [-70.293477, -33.382647], [-70.294309, -33.383146], [-70.2969, -33.382192], [-70.300897, -33.382277], [-70.303128, -33.38169], [-70.305655, -33.382752], [-70.306428, -33.381726], [-70.309185, -33.382222], [-70.31339, -33.381459], [-70.314259, -33.380671], [-70.319699, -33.380756], [-70.323642, -33.382257], [-70.326453, -33.381974], [-70.327129, -33.382794], [-70.332107, -33.383099], [-70.334918, -33.384667], [-70.339343, -33.384765], [-70.341859, -33.386848], [-70.345083, -33.387103], [-70.351821, -33.389365], [-70.353334, -33.389168], [-70.356507, -33.391079], [-70.358996, -33.390689], [-70.360503, -33.3921], [-70.362166, -33.391984], [-70.363818, -33.392736], [-70.369143, -33.39209], [-70.371911, -33.389931], [-70.374343, -33.386237], [-70.378426, -33.384611], [-70.379992, -33.381623], [-70.383849, -33.379979], [-70.385418, -33.377019], [-70.387636, -33.376611], [-70.389391, -33.375029], [-70.39564, -33.37313], [-70.39725, -33.373703]], [[-70.264934, -33.383745], [-70.267595, -33.382129], [-70.271902, -33.38148], [-70.273195, -33.380306], [-70.279353, -33.381], [-70.280866, -33.379831], [-70.289342, -33.381905], [-70.290002, -33.382751], [-70.293477, -33.382647], [-70.294309, -33.383146], [-70.2969, -33.382192], [-70.300897, -33.382277], [-70.303128, -33.38169], [-70.305655, -33.382752], [-70.306428, -33.381726], [-70.309185, -33.382222], [-70.31339, -33.381459], [-70.314259, -33.380671], [-70.319699, -33.380756], [-70.323642, -33.382257], [-70.326453, -33.381974], [-70.327129, -33.382794], [-70.332107, -33.383099], [-70.334918, -33.384667], [-70.339343, -33.384765], [-70.341859, -33.386848], [-70.345083, -33.387103], [-70.351821, -33.389365], [-70.353334, -33.389168], [-70.356507, -33.391079], [-70.358996, -33.390689], [-70.360503, -33.3921], [-70.362166, -33.391984], [-70.363818, -33.392736], [-70.369143, -33.39209], [-70.371911, -33.389931], [-70.374343, -33.386237], [-70.378426, -33.384611], [-70.379992, -33.381623], [-70.383849, -33.379979], [-70.385418, -33.377019], [-70.387636, -33.376611], [-70.389391, -33.375029], [-70.39564, -33.37313], [-70.39725, -33.373703]]]}}