{"type": "Feature", "properties": {"id": "rio-bueno", "name": "Río Bueno", "type": "river", "region": "los-rios"}, "geometry": {"type": "GeometryCollection", "geometries": [{"type": "MultiPolygon", "coordinates": [[[[-73.095979, -40.325933], [-73.100132, -40.328063], [-73.103221, -40.332283], [-73.103479, -40.334031], [-73.105818, -40.33547], [-73.105775, -40.337416], [-73.106419, -40.336911], [-73.106247, -40.335814], [-73.120345, -40.338332], [-73.126413, -40.337523], [-73.130581, -40.338574], [-73.133161, -40.341044], [-73.133537, -40.342168], [-73.133172, -40.343014], [-73.130849, -40.34355], [-73.127877, -40.346146], [-73.127513, -40.347381], [-73.129036, -40.349074], [-73.128033, -40.350526], [-73.130671, -40.351266], [-73.135361, -40.349967], [-73.137936, -40.350453], [-73.138266, -40.352187], [-73.143563, -40.355787], [-73.14454, -40.357354], [-73.145066, -40.360626], [-73.150184, -40.361211], [-73.158961, -40.360459], [-73.1633, -40.358842], [-73.176343, -40.350004], [-73.176825, -40.348404], [-73.177795, -40.348077], [-73.180626, -40.348015], [-73.184421, -40.349158], [-73.193958, -40.350513], [-73.196035, -40.351558], [-73.199407, -40.354646], [-73.202629, -40.35548], [-73.20797, -40.354563], [-73.213901, -40.352381], [-73.219663, -40.351481], [-73.232913, -40.354458], [-73.254167, -40.351645], [-73.269815, -40.352804], [-73.275292, -40.352119], [-73.281547, -40.349584], [-73.285441, -40.346428], [-73.289593, -40.339388], [-73.294577, -40.336344], [-73.309076, -40.334979], [-73.326821, -40.337138], [-73.338419, -40.335413], [-73.342871, -40.335396], [-73.351519, -40.337662], [-73.360091, -40.342634], [-73.364232, -40.343674], [-73.366432, -40.343043], [-73.372665, -40.339502], [-73.376044, -40.338702], [-73.376463, -40.336475], [-73.372997, -40.337344], [-73.366924, -40.340771], [-73.363834, -40.340975], [-73.358857, -40.339592], [-73.355219, -40.336886], [-73.350875, -40.334914], [-73.343192, -40.333043], [-73.325673, -40.335014], [-73.314311, -40.334235], [-73.31002, -40.333254], [-73.293044, -40.335266], [-73.286739, -40.339568], [-73.271992, -40.338748], [-73.261371, -40.340686], [-73.257997, -40.34252], [-73.255325, -40.343002], [-73.245761, -40.342935], [-73.237419, -40.339118], [-73.234404, -40.339371], [-73.231148, -40.338413], [-73.218059, -40.338151], [-73.217029, -40.338535], [-73.215822, -40.340255], [-73.21521, -40.343198], [-73.205163, -40.348643], [-73.203816, -40.350854], [-73.202024, -40.350441], [-73.202533, -40.347615], [-73.20021, -40.34569], [-73.198428, -40.345132], [-73.19719, -40.346237], [-73.198079, -40.34909], [-73.19752, -40.35035], [-73.193774, -40.349052], [-73.178215, -40.346543], [-73.176378, -40.347328], [-73.175617, -40.348582], [-73.166241, -40.35584], [-73.162596, -40.357868], [-73.151144, -40.360127], [-73.147308, -40.36023], [-73.145952, -40.358474], [-73.145688, -40.353823], [-73.146637, -40.352358], [-73.146418, -40.351146], [-73.143965, -40.350221], [-73.135821, -40.349286], [-73.129824, -40.347683], [-73.129938, -40.346551], [-73.132915, -40.343534], [-73.134658, -40.342949], [-73.134873, -40.341739], [-73.134095, -40.340152], [-73.131424, -40.337657], [-73.126798, -40.335834], [-73.122518, -40.337117], [-73.116849, -40.334733], [-73.115888, -40.335124], [-73.117209, -40.335288], [-73.112044, -40.336012], [-73.109585, -40.33548], [-73.108534, -40.334434], [-73.106605, -40.334056], [-73.103936, -40.329978], [-73.101242, -40.328187], [-73.0986, -40.324996], [-73.09128, -40.323595], [-73.087867, -40.323577], [-73.075344, -40.319658], [-73.060624, -40.319159], [-73.054969, -40.321516], [-73.052091, -40.323447], [-73.042426, -40.326812], [-73.034911, -40.327062], [-73.024064, -40.325376], [-73.007434, -40.326923], [-73.005116, -40.325069], [-73.005203, -40.32568], [-72.997005, -40.326606], [-72.982536, -40.330761], [-72.973951, -40.330564], [-72.955686, -40.327808], [-72.949076, -40.327761], [-72.940429, -40.325216], [-72.936258, -40.323229], [-72.933807, -40.323875], [-72.931682, -40.325343], [-72.926758, -40.332458], [-72.919163, -40.335362], [-72.912002, -40.33611], [-72.905506, -40.333046], [-72.896196, -40.32993], [-72.893395, -40.330145], [-72.890331, -40.329123], [-72.888393, -40.326345], [-72.889925, -40.324896], [-72.889606, -40.32252], [-72.891164, -40.320239], [-72.88521, -40.31644], [-72.871234, -40.312761], [-72.86578, -40.310777], [-72.863943, -40.308803], [-72.861085, -40.308996], [-72.859347, -40.311552], [-72.857662, -40.310886], [-72.856725, -40.31125], [-72.858354, -40.312279], [-72.859607, -40.312177], [-72.861795, -40.309554], [-72.862858, -40.309314], [-72.865667, -40.311363], [-72.87305, -40.314051], [-72.88467, -40.316848], [-72.889762, -40.320547], [-72.888378, -40.322056], [-72.889127, -40.324034], [-72.887767, -40.326576], [-72.8889, -40.328608], [-72.890519, -40.329771], [-72.90008, -40.331832], [-72.911332, -40.336669], [-72.913989, -40.33699], [-72.920726, -40.33572], [-72.92783, -40.332741], [-72.929792, -40.330543], [-72.932796, -40.325342], [-72.935434, -40.324129], [-72.949356, -40.328511], [-72.955802, -40.328468], [-72.970388, -40.330784], [-72.973135, -40.331885], [-72.983802, -40.331452], [-72.997347, -40.327602], [-73.004001, -40.326897], [-73.00831, -40.327872], [-73.022423, -40.326555], [-73.030126, -40.327299], [-73.032754, -40.328398], [-73.041638, -40.328363], [-73.052871, -40.324486], [-73.058289, -40.321255], [-73.064683, -40.319701], [-73.077461, -40.321402], [-73.079725, -40.322433], [-73.081087, -40.32461], [-73.083684, -40.325606], [-73.091623, -40.324864], [-73.095979, -40.325933]], [[-73.120495, -40.337547], [-73.118671, -40.337744], [-73.116053, -40.336664], [-73.119014, -40.336157], [-73.120881, -40.337155], [-73.120495, -40.337547]], [[-73.099348, -40.327152], [-73.09717, -40.325672], [-73.098801, -40.32622], [-73.099348, -40.327152]], [[-73.087257, -40.324281], [-73.087847, -40.324633], [-73.08701, -40.325296], [-73.084993, -40.325574], [-73.082611, -40.325066], [-73.080637, -40.323586], [-73.083201, -40.323357], [-73.087257, -40.324281]], [[-73.03917, -40.327684], [-73.034771, -40.32797], [-73.032851, -40.327021], [-73.039889, -40.327348], [-73.03917, -40.327684]], [[-73.134114, -40.349884], [-73.13067, -40.349018], [-73.129538, -40.350174], [-73.131475, -40.350751], [-73.134114, -40.349884]], [[-73.142269, -40.352783], [-73.142042, -40.351589], [-73.145413, -40.352677], [-73.145942, -40.351951], [-73.141059, -40.350274], [-73.139653, -40.350379], [-73.141407, -40.353085], [-73.142269, -40.352783]], [[-73.222386, -40.339131], [-73.219655, -40.338688], [-73.217627, -40.339088], [-73.215476, -40.343907], [-73.205477, -40.349222], [-73.204343, -40.351381], [-73.20168, -40.351359], [-73.20108, -40.350522], [-73.201648, -40.348344], [-73.199538, -40.346391], [-73.198684, -40.347277], [-73.198678, -40.350767], [-73.196694, -40.351042], [-73.199168, -40.353074], [-73.204179, -40.354863], [-73.211566, -40.351975], [-73.219392, -40.350522], [-73.233501, -40.353506], [-73.253156, -40.350791], [-73.26323, -40.351715], [-73.271309, -40.351609], [-73.276958, -40.350438], [-73.280847, -40.348723], [-73.283733, -40.346303], [-73.287048, -40.340513], [-73.27184, -40.339416], [-73.261562, -40.34137], [-73.257507, -40.343521], [-73.247073, -40.343849], [-73.243725, -40.343212], [-73.237347, -40.339955], [-73.233951, -40.340096], [-73.230808, -40.33918], [-73.222386, -40.339131]]]]}, {"type": "MultiLineString", "coordinates": [[[-72.563214, -40.277617], [-72.5658, -40.277294], [-72.570061, -40.278107], [-72.571947, -40.277303], [-72.573616, -40.274351], [-72.573717, -40.27304], [-72.57752, -40.271844], [-72.58284, -40.267333], [-72.586983, -40.265005], [-72.587674, -40.263967], [-72.585597, -40.260529], [-72.586338, -40.259179], [-72.592103, -40.258499], [-72.595308, -40.25665], [-72.597226, -40.25636], [-72.604261, -40.257475], [-72.604834, -40.257998], [-72.604722, -40.260186], [-72.60607, -40.260551], [-72.614383, -40.253126], [-72.616915, -40.24949], [-72.617607, -40.24973], [-72.617791, -40.25231], [-72.619611, -40.255057], [-72.621107, -40.2552], [-72.623808, -40.253939], [-72.628536, -40.255277], [-72.630863, -40.25475], [-72.632471, -40.253626], [-72.633755, -40.249097], [-72.638363, -40.248805], [-72.639068, -40.245638], [-72.639915, -40.245015], [-72.645029, -40.245366], [-72.650695, -40.247635], [-72.664079, -40.247453], [-72.67203, -40.249843], [-72.682923, -40.256082], [-72.683873, -40.258335], [-72.680865, -40.263944], [-72.681727, -40.266617], [-72.684273, -40.267449], [-72.690798, -40.267089], [-72.692508, -40.267564], [-72.693236, -40.272434], [-72.694117, -40.273101], [-72.695367, -40.273079], [-72.701368, -40.267265], [-72.709048, -40.264171], [-72.712979, -40.263261], [-72.71799, -40.264116], [-72.719353, -40.264613], [-72.72153, -40.266944], [-72.724861, -40.267126], [-72.731809, -40.270098], [-72.735785, -40.274459], [-72.737501, -40.275111], [-72.743624, -40.275014], [-72.750135, -40.272986], [-72.751841, -40.273412], [-72.752358, -40.274253], [-72.75209, -40.275761], [-72.753733, -40.277349], [-72.753288, -40.280502], [-72.753816, -40.284155], [-72.755346, -40.28535], [-72.756615, -40.285348], [-72.76144, -40.282324], [-72.764108, -40.281641], [-72.776005, -40.282891], [-72.77988, -40.282059], [-72.78523, -40.278131], [-72.788505, -40.273943], [-72.791209, -40.271582], [-72.79369, -40.272085], [-72.794523, -40.272963], [-72.800689, -40.27229], [-72.803586, -40.274025], [-72.803714, -40.277267], [-72.807147, -40.281212], [-72.811697, -40.284404], [-72.822533, -40.286155], [-72.829936, -40.285337], [-72.833026, -40.28897], [-72.834055, -40.291884], [-72.832746, -40.295419], [-72.832832, -40.297056], [-72.834592, -40.297187], [-72.838025, -40.29501], [-72.839377, -40.294879], [-72.841716, -40.295485], [-72.84338, -40.297339], [-72.847806, -40.295485], [-72.855942, -40.298218], [-72.856529, -40.299971], [-72.855855, -40.301054], [-72.85162, -40.30233], [-72.849142, -40.304498], [-72.849914, -40.305995], [-72.85647, -40.310994], [-72.859629, -40.311837], [-72.861137, -40.309522], [-72.86251, -40.308834], [-72.864103, -40.309268], [-72.865568, -40.310814], [-72.874015, -40.314068], [-72.884364, -40.316419], [-72.890444, -40.320858], [-72.889263, -40.322462], [-72.889239, -40.325111], [-72.888182, -40.326169], [-72.889195, -40.328347], [-72.890802, -40.32971], [-72.897382, -40.33074], [-72.912575, -40.336483], [-72.916362, -40.336348], [-72.921319, -40.335228], [-72.926452, -40.333057], [-72.928571, -40.331425], [-72.932262, -40.325552], [-72.934086, -40.324231], [-72.935964, -40.323851], [-72.948967, -40.327986], [-72.956166, -40.328088], [-72.975016, -40.331192], [-72.980279, -40.3312], [-72.983809, -40.330938], [-72.996608, -40.327311], [-73.003131, -40.326342], [-73.0079, -40.327286], [-73.027416, -40.326084], [-73.035506, -40.328309], [-73.040473, -40.327949], [-73.052457, -40.323974], [-73.059603, -40.320219], [-73.067306, -40.319507], [-73.07634, -40.320735], [-73.082552, -40.322788], [-73.096542, -40.325454], [-73.100791, -40.328325], [-73.106488, -40.334876], [-73.108505, -40.335776], [-73.112313, -40.336463], [-73.118515, -40.335956], [-73.12271, -40.337477], [-73.127312, -40.336847], [-73.129383, -40.33742], [-73.132269, -40.339268], [-73.133954, -40.341361], [-73.133471, -40.343103], [-73.129008, -40.346595], [-73.129179, -40.348042], [-73.130121, -40.348645]], [[-73.442788, -40.305696], [-73.447182, -40.304318], [-73.448796, -40.302154], [-73.448947, -40.299822], [-73.446361, -40.294208], [-73.446098, -40.291532], [-73.447139, -40.289412], [-73.45187, -40.285427], [-73.453013, -40.283438], [-73.455309, -40.276014], [-73.453656, -40.273427], [-73.453517, -40.271971], [-73.454107, -40.270522], [-73.455266, -40.269867], [-73.45959, -40.270964], [-73.463591, -40.276677], [-73.46681, -40.279043], [-73.469803, -40.278953], [-73.479255, -40.275924], [-73.489287, -40.276669], [-73.494769, -40.27901], [-73.506035, -40.287006], [-73.513437, -40.288823], [-73.538393, -40.288897], [-73.546493, -40.291098], [-73.550752, -40.291205], [-73.559529, -40.28848], [-73.569699, -40.283078], [-73.572114, -40.282595], [-73.576266, -40.283012], [-73.580353, -40.284428], [-73.582241, -40.285942], [-73.591157, -40.299502], [-73.594655, -40.301188], [-73.597648, -40.301327], [-73.601435, -40.300173], [-73.612218, -40.294282], [-73.623784, -40.290157], [-73.640059, -40.287219], [-73.652258, -40.285885], [-73.671688, -40.276833], [-73.678544, -40.270374], [-73.682642, -40.262482], [-73.683715, -40.256186], [-73.683366, -40.25251], [-73.682213, -40.249627], [-73.679391, -40.246065], [-73.678903, -40.244321], [-73.679799, -40.241782], [-73.683157, -40.239399], [-73.68968, -40.237384], [-73.697534, -40.237409], [-73.702024, -40.238777], [-73.708606, -40.243142], [-73.71339, -40.244557]], [[-73.130121, -40.348645], [-73.138342, -40.350013], [-73.141024, -40.353103], [-73.144532, -40.355139], [-73.146292, -40.360265], [-73.151163, -40.360658], [-73.15952, -40.359554], [-73.162664, -40.358393], [-73.166076, -40.356668], [-73.176729, -40.348042], [-73.179036, -40.347568], [-73.194604, -40.349996], [-73.200268, -40.354232], [-73.202951, -40.355074], [-73.205697, -40.354796], [-73.211265, -40.352547], [-73.218304, -40.351149], [-73.233227, -40.353847], [-73.253537, -40.351304], [-73.265478, -40.35231], [-73.273632, -40.351926], [-73.278868, -40.350266], [-73.283256, -40.347625], [-73.288599, -40.339644], [-73.29244, -40.336553], [-73.294757, -40.335751], [-73.303834, -40.334639], [-73.309971, -40.334377], [-73.328468, -40.335887], [-73.343917, -40.334246], [-73.34941, -40.335277], [-73.362735, -40.342081], [-73.367198, -40.341525], [-73.374279, -40.338123], [-73.377234, -40.337483], [-73.385137, -40.332873], [-73.39033, -40.33266], [-73.403161, -40.337191], [-73.407238, -40.337142], [-73.408783, -40.335948], [-73.411551, -40.331564], [-73.413504, -40.322518], [-73.414598, -40.320783], [-73.42728, -40.308185], [-73.430456, -40.305632], [-73.431829, -40.305289], [-73.442788, -40.305696]], [[-72.563214, -40.277617], [-72.5658, -40.277294], [-72.570061, -40.278107], [-72.571947, -40.277303], [-72.573616, -40.274351], [-72.573717, -40.27304], [-72.57752, -40.271844], [-72.58284, -40.267333], [-72.586983, -40.265005], [-72.587674, -40.263967], [-72.585597, -40.260529], [-72.586338, -40.259179], [-72.592103, -40.258499], [-72.595308, -40.25665], [-72.597226, -40.25636], [-72.604261, -40.257475], [-72.604834, -40.257998], [-72.604722, -40.260186], [-72.60607, -40.260551], [-72.614383, -40.253126], [-72.616915, -40.24949], [-72.617607, -40.24973], [-72.617791, -40.25231], [-72.619611, -40.255057], [-72.621107, -40.2552], [-72.623808, -40.253939], [-72.628536, -40.255277], [-72.630863, -40.25475], [-72.632471, -40.253626], [-72.633755, -40.249097], [-72.638363, -40.248805], [-72.639068, -40.245638], [-72.639915, -40.245015], [-72.645029, -40.245366], [-72.650695, -40.247635], [-72.664079, -40.247453], [-72.67203, -40.249843], [-72.682923, -40.256082], [-72.683873, -40.258335], [-72.680865, -40.263944], [-72.681727, -40.266617], [-72.684273, -40.267449], [-72.690798, -40.267089], [-72.692508, -40.267564], [-72.693236, -40.272434], [-72.694117, -40.273101], [-72.695367, -40.273079], [-72.701368, -40.267265], [-72.709048, -40.264171], [-72.712979, -40.263261], [-72.71799, -40.264116], [-72.719353, -40.264613], [-72.72153, -40.266944], [-72.724861, -40.267126], [-72.731809, -40.270098], [-72.735785, -40.274459], [-72.737501, -40.275111], [-72.743624, -40.275014], [-72.750135, -40.272986], [-72.751841, -40.273412], [-72.752358, -40.274253], [-72.75209, -40.275761], [-72.753733, -40.277349], [-72.753288, -40.280502], [-72.753816, -40.284155], [-72.755346, -40.28535], [-72.756615, -40.285348], [-72.76144, -40.282324], [-72.764108, -40.281641], [-72.776005, -40.282891], [-72.77988, -40.282059], [-72.78523, -40.278131], [-72.788505, -40.273943], [-72.791209, -40.271582], [-72.79369, -40.272085], [-72.794523, -40.272963], [-72.800689, -40.27229], [-72.803586, -40.274025], [-72.803714, -40.277267], [-72.807147, -40.281212], [-72.811697, -40.284404], [-72.822533, -40.286155], [-72.829936, -40.285337], [-72.833026, -40.28897], [-72.834055, -40.291884], [-72.832746, -40.295419], [-72.832832, -40.297056], [-72.834592, -40.297187], [-72.838025, -40.29501], [-72.839377, -40.294879], [-72.841716, -40.295485], [-72.84338, -40.297339], [-72.847806, -40.295485], [-72.855942, -40.298218], [-72.856529, -40.299971], [-72.855855, -40.301054], [-72.85162, -40.30233], [-72.849142, -40.304498], [-72.849914, -40.305995], [-72.85647, -40.310994], [-72.859629, -40.311837], [-72.861137, -40.309522], [-72.86251, -40.308834], [-72.864103, -40.309268], [-72.865568, -40.310814], [-72.874015, -40.314068], [-72.884364, -40.316419], [-72.890444, -40.320858], [-72.889263, -40.322462], [-72.889239, -40.325111], [-72.888182, -40.326169], [-72.889195, -40.328347], [-72.890802, -40.32971], [-72.897382, -40.33074], [-72.912575, -40.336483], [-72.916362, -40.336348], [-72.921319, -40.335228], [-72.926452, -40.333057], [-72.928571, -40.331425], [-72.932262, -40.325552], [-72.934086, -40.324231], [-72.935964, -40.323851], [-72.948967, -40.327986], [-72.956166, -40.328088], [-72.975016, -40.331192], [-72.980279, -40.3312], [-72.983809, -40.330938], [-72.996608, -40.327311], [-73.003131, -40.326342], [-73.0079, -40.327286], [-73.027416, -40.326084], [-73.035506, -40.328309], [-73.040473, -40.327949], [-73.052457, -40.323974], [-73.059603, -40.320219], [-73.067306, -40.319507], [-73.07634, -40.320735], [-73.082552, -40.322788], [-73.096542, -40.325454], [-73.100791, -40.328325], [-73.106488, -40.334876], [-73.108505, -40.335776], [-73.112313, -40.336463], [-73.118515, -40.335956], [-73.12271, -40.337477], [-73.127312, -40.336847], [-73.129383, -40.33742], [-73.132269, -40.339268], [-73.133954, -40.341361], [-73.133471, -40.343103], [-73.129008, -40.346595], [-73.129179, -40.348042], [-73.130121, -40.348645]], [[-73.130121, -40.348645], [-73.138342, -40.350013], [-73.141024, -40.353103], [-73.144532, -40.355139], [-73.146292, -40.360265], [-73.151163, -40.360658], [-73.15952, -40.359554], [-73.162664, -40.358393], [-73.166076, -40.356668], [-73.176729, -40.348042], [-73.179036, -40.347568], [-73.194604, -40.349996], [-73.200268, -40.354232], [-73.202951, -40.355074], [-73.205697, -40.354796], [-73.211265, -40.352547], [-73.218304, -40.351149], [-73.233227, -40.353847], [-73.253537, -40.351304], [-73.265478, -40.35231], [-73.273632, -40.351926], [-73.278868, -40.350266], [-73.283256, -40.347625], [-73.288599, -40.339644], [-73.29244, -40.336553], [-73.294757, -40.335751], [-73.303834, -40.334639], [-73.309971, -40.334377], [-73.328468, -40.335887], [-73.343917, -40.334246], [-73.34941, -40.335277], [-73.362735, -40.342081], [-73.367198, -40.341525], [-73.374279, -40.338123], [-73.377234, -40.337483], [-73.385137, -40.332873], [-73.39033, -40.33266], [-73.403161, -40.337191], [-73.407238, -40.337142], [-73.408783, -40.335948], [-73.411551, -40.331564], [-73.413504, -40.322518], [-73.414598, -40.320783], [-73.42728, -40.308185], [-73.430456, -40.305632], [-73.431829, -40.305289], [-73.442788, -40.305696]], [[-73.442788, -40.305696], [-73.447182, -40.304318], [-73.448796, -40.302154], [-73.448947, -40.299822], [-73.446361, -40.294208], [-73.446098, -40.291532], [-73.447139, -40.289412], [-73.45187, -40.285427], [-73.453013, -40.283438], [-73.455309, -40.276014], [-73.453656, -40.273427], [-73.453517, -40.271971], [-73.454107, -40.270522], [-73.455266, -40.269867], [-73.45959, -40.270964], [-73.463591, -40.276677], [-73.46681, -40.279043], [-73.469803, -40.278953], [-73.479255, -40.275924], [-73.489287, -40.276669], [-73.494769, -40.27901], [-73.506035, -40.287006], [-73.513437, -40.288823], [-73.538393, -40.288897], [-73.546493, -40.291098], [-73.550752, -40.291205], [-73.559529, -40.28848], [-73.569699, -40.283078], [-73.572114, -40.282595], [-73.576266, -40.283012], [-73.580353, -40.284428], [-73.582241, -40.285942], [-73.591157, -40.299502], [-73.594655, -40.301188], [-73.597648, -40.301327], [-73.601435, -40.300173], [-73.612218, -40.294282], [-73.623784, -40.290157], [-73.640059, -40.287219], [-73.652258, -40.285885], [-73.671688, -40.276833], [-73.678544, -40.270374], [-73.682642, -40.262482], [-73.683715, -40.256186], [-73.683366, -40.25251], [-73.682213, -40.249627], [-73.679391, -40.246065], [-73.678903, -40.244321], [-73.679799, -40.241782], [-73.683157, -40.239399], [-73.68968, -40.237384], [-73.697534, -40.237409], [-73.702024, -40.238777], [-73.708606, -40.243142], [-73.71339, -40.244557]], [[-71.051341, -36.520293], [-71.053919, -36.521393], [-71.056046, -36.524314]], [[-71.056046, -36.524314], [-71.055284, -36.528485], [-71.052924, -36.533996], [-71.053002, -36.53553], [-71.050789, -36.538543], [-71.051052, -36.547012], [-71.053104, -36.548087], [-71.054179, -36.54796], [-71.057516, -36.55016], [-71.061118, -36.550806], [-71.061923, -36.551784], [-71.063964, -36.552088], [-71.068003, -36.557141], [-71.070339, -36.558511], [-71.071648, -36.564289], [-71.071139, -36.56771], [-71.074443, -36.572217], [-71.073939, -36.573003], [-71.074529, -36.5754], [-71.076975, -36.578547], [-71.079038, -36.579637], [-71.082219, -36.579807], [-71.087894, -36.58181], [-71.093355, -36.581121], [-71.095635, -36.579633], [-71.097467, -36.579635], [-71.099331, -36.578685]]]}]}}