{"type": "Feature", "properties": {"id": "rio-rahue", "name": "Río Rahue", "type": "river", "region": "los-lagos"}, "geometry": {"type": "MultiLineString", "coordinates": [[[-73.186799, -40.630484], [-73.187177, -40.625656], [-73.186353, -40.622803], [-73.178328, -40.618699], [-73.178791, -40.614164], [-73.177263, -40.611727], [-73.174156, -40.599294], [-73.173229, -40.598799], [-73.171109, -40.599007], [-73.165616, -40.601132], [-73.162758, -40.600702], [-73.155797, -40.593031], [-73.157952, -40.590809], [-73.157076, -40.586337], [-73.153952, -40.583326], [-73.145306, -40.577886], [-73.143991, -40.576086], [-73.143908, -40.574745], [-73.158088, -40.566967], [-73.159102, -40.565305], [-73.159901, -40.558906], [-73.16106, -40.556339], [-73.169589, -40.546621], [-73.172722, -40.542072], [-73.177432, -40.537686], [-73.182517, -40.531643], [-73.193568, -40.525927], [-73.198947, -40.526974], [-73.204813, -40.526573], [-73.206593, -40.527292], [-73.208525, -40.529282], [-73.212179, -40.535653], [-73.21946, -40.536628], [-73.2274, -40.535519], [-73.237571, -40.53133], [-73.246187, -40.531643], [-73.256404, -40.530732], [-73.266011, -40.530732], [-73.267387, -40.530374], [-73.268899, -40.528996], [-73.270612, -40.525819], [-73.269576, -40.522982], [-73.269231, -40.51704], [-73.275792, -40.51151], [-73.281129, -40.509864], [-73.283748, -40.505963], [-73.283919, -40.503875], [-73.280593, -40.492322], [-73.270841, -40.484195], [-73.270444, -40.481617], [-73.272064, -40.477659], [-73.268255, -40.472207], [-73.26745, -40.469611], [-73.268309, -40.468322], [-73.27119, -40.467432], [-73.271589, -40.46655], [-73.266983, -40.461088], [-73.263754, -40.454975], [-73.263567, -40.453457], [-73.268287, -40.443186], [-73.272383, -40.437535], [-73.275079, -40.429859], [-73.277604, -40.427093], [-73.281944, -40.425837], [-73.282974, -40.423644], [-73.280571, -40.413987], [-73.273933, -40.405136], [-73.272903, -40.403045], [-73.272547, -40.398736], [-73.269202, -40.395109], [-73.265178, -40.388795], [-73.26229, -40.385459], [-73.261579, -40.383787], [-73.261831, -40.382126], [-73.26509, -40.377884], [-73.274362, -40.37271], [-73.278482, -40.371141], [-73.286893, -40.370945], [-73.29024, -40.369703], [-73.298566, -40.364667], [-73.309295, -40.35623], [-73.311012, -40.35381], [-73.312299, -40.344587], [-73.315475, -40.339157], [-73.31841, -40.338161], [-73.323688, -40.339951], [-73.326177, -40.338496], [-73.328468, -40.335887]], [[-72.95287, -40.770689], [-72.956046, -40.766399], [-72.964724, -40.760832], [-72.968225, -40.761139], [-72.97621, -40.763531], [-72.978212, -40.76367], [-72.980003, -40.762491], [-72.971941, -40.756561], [-72.970723, -40.756257], [-72.970723, -40.755347], [-72.973427, -40.754046], [-72.977305, -40.750769], [-72.981807, -40.752635], [-72.985872, -40.751901], [-72.988557, -40.748043], [-72.988392, -40.746077], [-72.986688, -40.742765], [-72.993003, -40.735267], [-72.994498, -40.729985], [-72.9957, -40.728099], [-72.998918, -40.72553], [-73.001953, -40.724011], [-73.009141, -40.724136], [-73.020676, -40.72192], [-73.023044, -40.720803], [-73.023409, -40.719453], [-73.021853, -40.714712], [-73.020426, -40.712272], [-73.0174, -40.709426], [-73.017175, -40.707946], [-73.018849, -40.706344], [-73.030178, -40.701793], [-73.030969, -40.699177], [-73.030762, -40.692185], [-73.031918, -40.690111], [-73.042776, -40.687], [-73.046616, -40.686826], [-73.048436, -40.687576], [-73.049165, -40.688284], [-73.049301, -40.690298], [-73.047967, -40.692037], [-73.042306, -40.696415], [-73.042392, -40.697619], [-73.047241, -40.70341], [-73.045997, -40.706574], [-73.046211, -40.70912], [-73.047885, -40.711673], [-73.050867, -40.713495], [-73.054537, -40.713999], [-73.060051, -40.713495], [-73.061489, -40.712877], [-73.063034, -40.711055], [-73.066853, -40.703801], [-73.068152, -40.70267], [-73.07196, -40.701898], [-73.073967, -40.702434], [-73.076381, -40.704468], [-73.079213, -40.703687], [-73.080093, -40.702451], [-73.079878, -40.701149], [-73.075823, -40.699628], [-73.075007, -40.699063], [-73.074675, -40.697603], [-73.076037, -40.695504], [-73.080629, -40.692348], [-73.08153, -40.690916], [-73.081702, -40.688964], [-73.083975, -40.689177], [-73.09256, -40.693487], [-73.095301, -40.693909], [-73.097795, -40.693292], [-73.102688, -40.689582], [-73.105252, -40.684385], [-73.105091, -40.682097], [-73.10582, -40.681316], [-73.122043, -40.678452], [-73.122772, -40.677476], [-73.122643, -40.674579], [-73.140216, -40.65355], [-73.145212, -40.651107], [-73.148187, -40.650592], [-73.157608, -40.651748], [-73.164646, -40.647352], [-73.167736, -40.649925], [-73.169539, -40.65038], [-73.175332, -40.645073], [-73.176148, -40.640775], [-73.178556, -40.637245]], [[-72.689313, -40.788665], [-72.69339, -40.786914], [-72.697263, -40.78793], [-72.701962, -40.786415], [-72.704843, -40.784518], [-72.707026, -40.785355], [-72.708587, -40.787199], [-72.70848, -40.788718], [-72.704832, -40.789558], [-72.707348, -40.792946], [-72.704644, -40.793636], [-72.703775, -40.79507], [-72.705733, -40.796966], [-72.706243, -40.799082], [-72.71143, -40.802595], [-72.71849, -40.805149], [-72.721344, -40.805425], [-72.728172, -40.803983], [-72.730935, -40.804369], [-72.731252, -40.807792], [-72.727615, -40.811702], [-72.731359, -40.813001], [-72.732941, -40.81579], [-72.73557, -40.816895], [-72.740688, -40.816266], [-72.742828, -40.815405], [-72.745618, -40.812904], [-72.749925, -40.811946], [-72.752017, -40.812392], [-72.752913, -40.813675], [-72.761282, -40.813184], [-72.765284, -40.814028], [-72.766829, -40.815458], [-72.766002, -40.817049], [-72.768652, -40.817597], [-72.769039, -40.817195], [-72.767912, -40.816221], [-72.76818, -40.815466], [-72.774484, -40.815864], [-72.774001, -40.813135], [-72.77451, -40.812197], [-72.777541, -40.812104], [-72.778818, -40.811462], [-72.787937, -40.814304], [-72.78944, -40.816225], [-72.790024, -40.819249], [-72.79401, -40.820147], [-72.801745, -40.819505], [-72.803661, -40.818839], [-72.804733, -40.817345], [-72.804219, -40.815624], [-72.79997, -40.8148], [-72.799058, -40.813545], [-72.801547, -40.813643], [-72.802545, -40.812522], [-72.804294, -40.812015], [-72.811273, -40.811946], [-72.815242, -40.810642], [-72.816299, -40.809676], [-72.816004, -40.805742], [-72.819513, -40.802562], [-72.825538, -40.800069], [-72.833649, -40.798315], [-72.836224, -40.795553], [-72.836953, -40.793052], [-72.839185, -40.7912], [-72.845794, -40.789283], [-72.847467, -40.789803], [-72.850901, -40.792369], [-72.855278, -40.791914], [-72.857338, -40.790225], [-72.858421, -40.787455], [-72.855159, -40.782536], [-72.854934, -40.781289], [-72.855497, -40.780202]], [[-73.277224, -40.427343], [-73.277032, -40.425772], [-73.274797, -40.421415], [-73.269989, -40.417057], [-73.268517, -40.411174], [-73.2661, -40.407024], [-73.265557, -40.402255], [-73.263962, -40.400676], [-73.261836, -40.399771], [-73.25851, -40.395604], [-73.257102, -40.388225], [-73.255764, -40.385716], [-73.256355, -40.384799], [-73.258896, -40.384327], [-73.261593, -40.382939]], [[-73.178556, -40.637245], [-73.181509, -40.633724], [-73.186799, -40.630484]], [[-72.872202, -40.784538], [-72.872915, -40.783401], [-72.875421, -40.785034], [-72.877856, -40.784668], [-72.87872, -40.783628], [-72.878816, -40.780759], [-72.882437, -40.779156], [-72.88358, -40.781931], [-72.885768, -40.78243], [-72.886959, -40.779193], [-72.888807, -40.779002], [-72.890033, -40.778088], [-72.892152, -40.778531], [-72.894035, -40.777954], [-72.893069, -40.776049], [-72.893413, -40.774554], [-72.89852, -40.775139], [-72.908736, -40.771055], [-72.917601, -40.766181], [-72.924756, -40.761204], [-72.927532, -40.76202], [-72.92982, -40.766274], [-72.934412, -40.769557], [-72.937703, -40.769073], [-72.939377, -40.767448], [-72.941437, -40.767903], [-72.942823, -40.767055], [-72.944883, -40.76842], [-72.947887, -40.76894], [-72.950879, -40.770568], [-72.95287, -40.770689]], [[-72.869633, -40.784096], [-72.870973, -40.784871], [-72.872202, -40.784538]], [[-72.855497, -40.780202], [-72.856696, -40.780399], [-72.857707, -40.782258], [-72.860186, -40.782355], [-72.862814, -40.781262], [-72.866666, -40.781691], [-72.869633, -40.784096]], [[-73.186799, -40.630484], [-73.187177, -40.625656], [-73.186353, -40.622803], [-73.178328, -40.618699], [-73.178791, -40.614164], [-73.177263, -40.611727], [-73.174156, -40.599294], [-73.173229, -40.598799], [-73.171109, -40.599007], [-73.165616, -40.601132], [-73.162758, -40.600702], [-73.155797, -40.593031], [-73.157952, -40.590809], [-73.157076, -40.586337], [-73.153952, -40.583326], [-73.145306, -40.577886], [-73.143991, -40.576086], [-73.143908, -40.574745], [-73.158088, -40.566967], [-73.159102, -40.565305], [-73.159901, -40.558906], [-73.16106, -40.556339], [-73.169589, -40.546621], [-73.172722, -40.542072], [-73.177432, -40.537686], [-73.182517, -40.531643], [-73.193568, -40.525927], [-73.198947, -40.526974], [-73.204813, -40.526573], [-73.206593, -40.527292], [-73.208525, -40.529282], [-73.212179, -40.535653], [-73.21946, -40.536628], [-73.2274, -40.535519], [-73.237571, -40.53133], [-73.246187, -40.531643], [-73.256404, -40.530732], [-73.266011, -40.530732], [-73.267387, -40.530374], [-73.268899, -40.528996], [-73.270612, -40.525819], [-73.269576, -40.522982], [-73.269231, -40.51704], [-73.275792, -40.51151], [-73.281129, -40.509864], [-73.283748, -40.505963], [-73.283919, -40.503875], [-73.280593, -40.492322], [-73.270841, -40.484195], [-73.270444, -40.481617], [-73.272064, -40.477659], [-73.268255, -40.472207], [-73.26745, -40.469611], [-73.268309, -40.468322], [-73.27119, -40.467432], [-73.271589, -40.46655], [-73.266983, -40.461088], [-73.263754, -40.454975], [-73.263567, -40.453457], [-73.268287, -40.443186], [-73.272383, -40.437535], [-73.275079, -40.429859], [-73.277604, -40.427093], [-73.281944, -40.425837], [-73.282974, -40.423644], [-73.280571, -40.413987], [-73.273933, -40.405136], [-73.272903, -40.403045], [-73.272547, -40.398736], [-73.269202, -40.395109], [-73.265178, -40.388795], [-73.26229, -40.385459], [-73.261579, -40.383787], [-73.261831, -40.382126], [-73.26509, -40.377884], [-73.274362, -40.37271], [-73.278482, -40.371141], [-73.286893, -40.370945], [-73.29024, -40.369703], [-73.298566, -40.364667], [-73.309295, -40.35623], [-73.311012, -40.35381], [-73.312299, -40.344587], [-73.315475, -40.339157], [-73.31841, -40.338161], [-73.323688, -40.339951], [-73.326177, -40.338496], [-73.328468, -40.335887]], [[-73.178556, -40.637245], [-73.181509, -40.633724], [-73.186799, -40.630484]], [[-72.872202, -40.784538], [-72.872915, -40.783401], [-72.875421, -40.785034], [-72.877856, -40.784668], [-72.87872, -40.783628], [-72.878816, -40.780759], [-72.882437, -40.779156], [-72.88358, -40.781931], [-72.885768, -40.78243], [-72.886959, -40.779193], [-72.888807, -40.779002], [-72.890033, -40.778088], [-72.892152, -40.778531], [-72.894035, -40.777954], [-72.893069, -40.776049], [-72.893413, -40.774554], [-72.89852, -40.775139], [-72.908736, -40.771055], [-72.917601, -40.766181], [-72.924756, -40.761204], [-72.927532, -40.76202], [-72.92982, -40.766274], [-72.934412, -40.769557], [-72.937703, -40.769073], [-72.939377, -40.767448], [-72.941437, -40.767903], [-72.942823, -40.767055], [-72.944883, -40.76842], [-72.947887, -40.76894], [-72.950879, -40.770568], [-72.95287, -40.770689]], [[-72.95287, -40.770689], [-72.956046, -40.766399], [-72.964724, -40.760832], [-72.968225, -40.761139], [-72.97621, -40.763531], [-72.978212, -40.76367], [-72.980003, -40.762491], [-72.971941, -40.756561], [-72.970723, -40.756257], [-72.970723, -40.755347], [-72.973427, -40.754046], [-72.977305, -40.750769], [-72.981807, -40.752635], [-72.985872, -40.751901], [-72.988557, -40.748043], [-72.988392, -40.746077], [-72.986688, -40.742765], [-72.993003, -40.735267], [-72.994498, -40.729985], [-72.9957, -40.728099], [-72.998918, -40.72553], [-73.001953, -40.724011], [-73.009141, -40.724136], [-73.020676, -40.72192], [-73.023044, -40.720803], [-73.023409, -40.719453], [-73.021853, -40.714712], [-73.020426, -40.712272], [-73.0174, -40.709426], [-73.017175, -40.707946], [-73.018849, -40.706344], [-73.030178, -40.701793], [-73.030969, -40.699177], [-73.030762, -40.692185], [-73.031918, -40.690111], [-73.042776, -40.687], [-73.046616, -40.686826], [-73.048436, -40.687576], [-73.049165, -40.688284], [-73.049301, -40.690298], [-73.047967, -40.692037], [-73.042306, -40.696415], [-73.042392, -40.697619], [-73.047241, -40.70341], [-73.045997, -40.706574], [-73.046211, -40.70912], [-73.047885, -40.711673], [-73.050867, -40.713495], [-73.054537, -40.713999], [-73.060051, -40.713495], [-73.061489, -40.712877], [-73.063034, -40.711055], [-73.066853, -40.703801], [-73.068152, -40.70267], [-73.07196, -40.701898], [-73.073967, -40.702434], [-73.076381, -40.704468], [-73.079213, -40.703687], [-73.080093, -40.702451], [-73.079878, -40.701149], [-73.075823, -40.699628], [-73.075007, -40.699063], [-73.074675, -40.697603], [-73.076037, -40.695504], [-73.080629, -40.692348], [-73.08153, -40.690916], [-73.081702, -40.688964], [-73.083975, -40.689177], [-73.09256, -40.693487], [-73.095301, -40.693909], [-73.097795, -40.693292], [-73.102688, -40.689582], [-73.105252, -40.684385], [-73.105091, -40.682097], [-73.10582, -40.681316], [-73.122043, -40.678452], [-73.122772, -40.677476], [-73.122643, -40.674579], [-73.140216, -40.65355], [-73.145212, -40.651107], [-73.148187, -40.650592], [-73.157608, -40.651748], [-73.164646, -40.647352], [-73.167736, -40.649925], [-73.169539, -40.65038], [-73.175332, -40.645073], [-73.176148, -40.640775], [-73.178556, -40.637245]], [[-72.869633, -40.784096], [-72.870973, -40.784871], [-72.872202, -40.784538]], [[-72.855497, -40.780202], [-72.856696, -40.780399], [-72.857707, -40.782258], [-72.860186, -40.782355], [-72.862814, -40.781262], [-72.866666, -40.781691], [-72.869633, -40.784096]], [[-72.689313, -40.788665], [-72.69339, -40.786914], [-72.697263, -40.78793], [-72.701962, -40.786415], [-72.704843, -40.784518], [-72.707026, -40.785355], [-72.708587, -40.787199], [-72.70848, -40.788718], [-72.704832, -40.789558], [-72.707348, -40.792946], [-72.704644, -40.793636], [-72.703775, -40.79507], [-72.705733, -40.796966], [-72.706243, -40.799082], [-72.71143, -40.802595], [-72.71849, -40.805149], [-72.721344, -40.805425], [-72.728172, -40.803983], [-72.730935, -40.804369], [-72.731252, -40.807792], [-72.727615, -40.811702], [-72.731359, -40.813001], [-72.732941, -40.81579], [-72.73557, -40.816895], [-72.740688, -40.816266], [-72.742828, -40.815405], [-72.745618, -40.812904], [-72.749925, -40.811946], [-72.752017, -40.812392], [-72.752913, -40.813675], [-72.761282, -40.813184], [-72.765284, -40.814028], [-72.766829, -40.815458], [-72.766002, -40.817049], [-72.768652, -40.817597], [-72.769039, -40.817195], [-72.767912, -40.816221], [-72.76818, -40.815466], [-72.774484, -40.815864], [-72.774001, -40.813135], [-72.77451, -40.812197], [-72.777541, -40.812104], [-72.778818, -40.811462], [-72.787937, -40.814304], [-72.78944, -40.816225], [-72.790024, -40.819249], [-72.79401, -40.820147], [-72.801745, -40.819505], [-72.803661, -40.818839], [-72.804733, -40.817345], [-72.804219, -40.815624], [-72.79997, -40.8148], [-72.799058, -40.813545], [-72.801547, -40.813643], [-72.802545, -40.812522], [-72.804294, -40.812015], [-72.811273, -40.811946], [-72.815242, -40.810642], [-72.816299, -40.809676], [-72.816004, -40.805742], [-72.819513, -40.802562], [-72.825538, -40.800069], [-72.833649, -40.798315], [-72.836224, -40.795553], [-72.836953, -40.793052], [-72.839185, -40.7912], [-72.845794, -40.789283], [-72.847467, -40.789803], [-72.850901, -40.792369], [-72.855278, -40.791914], [-72.857338, -40.790225], [-72.858421, -40.787455], [-72.855159, -40.782536], [-72.854934, -40.781289], [-72.855497, -40.780202]]]}}