{"type": "Feature", "properties": {"id": "rio-baker", "name": "Río Baker", "type": "river", "region": "aysen"}, "geometry": {"type": "MultiLineString", "coordinates": [[[-72.831925, -47.018822], [-72.82867, -47.029265], [-72.825547, -47.031715], [-72.820505, -47.043567], [-72.814121, -47.048041], [-72.813113, -47.052442], [-72.808424, -47.054204], [-72.806493, -47.056345], [-72.805399, -47.060526], [-72.801064, -47.063384], [-72.799133, -47.066643], [-72.7932, -47.070436], [-72.790722, -47.071247], [-72.7854, -47.076157], [-72.781291, -47.078218], [-72.779274, -47.080629], [-72.775497, -47.089987], [-72.775471, -47.093201], [-72.777461, -47.096608], [-72.777858, -47.099453], [-72.779043, -47.101308], [-72.780755, -47.107494], [-72.785937, -47.112568], [-72.787385, -47.117073], [-72.786259, -47.119636], [-72.77583, -47.121359], [-72.773046, -47.120611], [-72.769457, -47.120749], [-72.764761, -47.123427], [-72.760515, -47.123877], [-72.753155, -47.128378], [-72.749721, -47.129692], [-72.746304, -47.130195], [-72.74072, -47.129706], [-72.732107, -47.130921], [-72.73123, -47.131597], [-72.730522, -47.134283], [-72.730946, -47.137571], [-72.73549, -47.139293], [-72.737238, -47.142044], [-72.736672, -47.143122], [-72.729594, -47.142482], [-72.722776, -47.140745], [-72.721767, -47.139705], [-72.721102, -47.135899], [-72.716242, -47.133352], [-72.713731, -47.132819], [-72.707294, -47.133498], [-72.700369, -47.136085], [-72.698443, -47.135604], [-72.695825, -47.132666], [-72.693942, -47.132254], [-72.692719, -47.136596], [-72.686969, -47.136808], [-72.683744, -47.13529], [-72.682623, -47.135582], [-72.681521, -47.13691], [-72.678659, -47.137582], [-72.673504, -47.137133], [-72.669883, -47.133772], [-72.662426, -47.130717], [-72.652111, -47.129155], [-72.648425, -47.13002], [-72.644616, -47.129334], [-72.641709, -47.130644], [-72.635926, -47.130984], [-72.629446, -47.129509], [-72.621311, -47.131661], [-72.618374, -47.130703], [-72.612226, -47.132162], [-72.612194, -47.13341], [-72.616872, -47.143606], [-72.614458, -47.150407], [-72.617438, -47.157613], [-72.619983, -47.160774], [-72.61881, -47.162523], [-72.619404, -47.169294], [-72.618041, -47.172802], [-72.619844, -47.177447], [-72.619981, -47.187107], [-72.622869, -47.192527], [-72.631302, -47.200779], [-72.630336, -47.208695], [-72.630658, -47.2104], [-72.633934, -47.216612], [-72.634242, -47.221434], [-72.639617, -47.229157], [-72.648275, -47.231459], [-72.656322, -47.237302], [-72.666128, -47.240652], [-72.670806, -47.244629], [-72.672243, -47.246581], [-72.674303, -47.251534], [-72.678852, -47.257752], [-72.678487, -47.260869], [-72.675333, -47.266329], [-72.675612, -47.268397], [-72.676942, -47.269504], [-72.680032, -47.270581], [-72.694945, -47.272751], [-72.69752, -47.275109], [-72.698314, -47.278909], [-72.699162, -47.280226], [-72.701147, -47.281311], [-72.70547, -47.280568], [-72.70914, -47.279164], [-72.714289, -47.27152], [-72.716317, -47.27029], [-72.718366, -47.269926], [-72.723173, -47.269984], [-72.729728, -47.271134], [-72.75081, -47.278465], [-72.753761, -47.277744], [-72.760348, -47.271324], [-72.7639, -47.269861], [-72.770455, -47.26922], [-72.785325, -47.270902], [-72.79983, -47.269198], [-72.808907, -47.269176], [-72.813199, -47.270377], [-72.817801, -47.273173], [-72.826792, -47.275524], [-72.832382, -47.278923], [-72.83368, -47.278858], [-72.837295, -47.276965], [-72.842853, -47.276805], [-72.845224, -47.280008], [-72.852294, -47.283785], [-72.861264, -47.290015], [-72.866092, -47.291834], [-72.868924, -47.293784], [-72.870298, -47.295895], [-72.870405, -47.30189], [-72.872272, -47.304175], [-72.872551, -47.305775], [-72.871821, -47.306983], [-72.865834, -47.310867], [-72.865329, -47.311977], [-72.86577, -47.316032], [-72.864375, -47.318956], [-72.859579, -47.321022], [-72.858217, -47.322658], [-72.852101, -47.334337], [-72.85186, -47.337994], [-72.850814, -47.34152], [-72.854998, -47.344988], [-72.861671, -47.346173], [-72.866564, -47.348477], [-72.868656, -47.353994], [-72.868817, -47.359452], [-72.870834, -47.371704], [-72.879267, -47.377749], [-72.885339, -47.383561], [-72.885254, -47.385116], [-72.87777, -47.38902], [-72.879546, -47.401516], [-72.882035, -47.402721], [-72.892195, -47.404122], [-72.901218, -47.403607], [-72.903439, -47.404674], [-72.90582, -47.407431], [-72.907767, -47.411113], [-72.909619, -47.413293], [-72.910826, -47.41383], [-72.914114, -47.414135], [-72.927121, -47.41327], [-72.933812, -47.413816], [-72.938031, -47.416827], [-72.941002, -47.425656], [-72.942621, -47.428704], [-72.943661, -47.434634], [-72.942193, -47.438701], [-72.943232, -47.443581], [-72.946987, -47.447739], [-72.949283, -47.455357], [-72.948725, -47.459332], [-72.944155, -47.467847], [-72.946622, -47.47597], [-72.946258, -47.482177], [-72.946794, -47.483308], [-72.949498, -47.484207], [-72.959669, -47.482822], [-72.964947, -47.484287], [-72.965934, -47.485831], [-72.967329, -47.491689], [-72.972629, -47.494357], [-72.985241, -47.509256], [-72.98692, -47.510244], [-72.999837, -47.512266], [-73.002949, -47.513614], [-73.006124, -47.516056], [-73.019922, -47.517389], [-73.02299, -47.519621], [-73.024432, -47.523184], [-73.028344, -47.523903], [-73.031702, -47.525475], [-73.035736, -47.525714], [-73.041573, -47.522302], [-73.047055, -47.522222], [-73.053428, -47.524337], [-73.058374, -47.528807], [-73.061587, -47.530354], [-73.084595, -47.531734], [-73.09099, -47.533617], [-73.092942, -47.535805], [-73.092835, -47.539195], [-73.090839, -47.543642], [-73.084102, -47.549073], [-73.078244, -47.556778], [-73.076913, -47.560933], [-73.076785, -47.569577], [-73.073083, -47.579146], [-73.073448, -47.582026], [-73.078576, -47.587229], [-73.081269, -47.591375], [-73.081259, -47.593539], [-73.079917, -47.594877], [-73.076098, -47.596151], [-73.063384, -47.596621], [-73.060652, -47.597501], [-73.058996, -47.59877], [-73.057795, -47.60149], [-73.059125, -47.605208], [-73.059435, -47.610551], [-73.05506, -47.613881], [-73.045646, -47.623008], [-73.044964, -47.624966], [-73.048975, -47.632545], [-73.056014, -47.63981], [-73.060112, -47.642376], [-73.064672, -47.643743], [-73.067483, -47.647075], [-73.070776, -47.648896], [-73.081033, -47.651549], [-73.084939, -47.653464], [-73.086247, -47.655451], [-73.084143, -47.666035], [-73.086045, -47.670478], [-73.087685, -47.671716], [-73.089852, -47.67254], [-73.097298, -47.672656], [-73.101579, -47.67215], [-73.107812, -47.670105], [-73.11028, -47.670611], [-73.114958, -47.673609], [-73.119314, -47.67491], [-73.1253, -47.674736], [-73.130558, -47.675943], [-73.141973, -47.681223], [-73.147724, -47.686973], [-73.163667, -47.693299], [-73.174052, -47.695783], [-73.197699, -47.700072], [-73.203278, -47.702267], [-73.207827, -47.706094], [-73.209372, -47.708303], [-73.212057, -47.716171], [-73.214285, -47.717457], [-73.227868, -47.717154], [-73.233833, -47.718424], [-73.235636, -47.720185], [-73.239493, -47.726767], [-73.239455, -47.729683], [-73.236902, -47.733623], [-73.236816, -47.735239], [-73.243339, -47.742801], [-73.246665, -47.751718], [-73.247888, -47.753247], [-73.25851, -47.762075], [-73.261406, -47.762421], [-73.27088, -47.761116], [-73.275375, -47.762486], [-73.284946, -47.763445], [-73.292456, -47.766892], [-73.297616, -47.771241], [-73.304837, -47.772791], [-73.310866, -47.771897], [-73.320715, -47.768522], [-73.33947, -47.77021], [-73.346669, -47.766727], [-73.354039, -47.761123], [-73.364543, -47.765436], [-73.378296, -47.767019], [-73.385892, -47.768822], [-73.389046, -47.770985], [-73.390741, -47.774951], [-73.390055, -47.778109], [-73.386149, -47.787668], [-73.386192, -47.793636], [-73.38903, -47.79728], [-73.391755, -47.798851], [-73.399094, -47.800638], [-73.404308, -47.803751], [-73.411024, -47.804645], [-73.41302, -47.803838], [-73.417976, -47.793993], [-73.420423, -47.791629], [-73.424457, -47.790432], [-73.429038, -47.790018], [-73.432096, -47.791124], [-73.433426, -47.793647], [-73.434177, -47.8061], [-73.435507, -47.812009], [-73.438361, -47.815626], [-73.44246, -47.817427], [-73.445614, -47.817989], [-73.450978, -47.817773], [-73.458489, -47.815986], [-73.462179, -47.813825], [-73.464389, -47.811303], [-73.464604, -47.8093], [-73.462083, -47.805625], [-73.462405, -47.804407], [-73.47652, -47.802317], [-73.49443, -47.795319], [-73.504236, -47.785978], [-73.507412, -47.781883], [-73.510073, -47.776951], [-73.512412, -47.77499], [-73.517063, -47.774611], [-73.527545, -47.777206], [-73.537279, -47.775822]], [[-73.543542, -47.792174], [-73.546407, -47.794423], [-73.550173, -47.795821], [-73.561481, -47.804347], [-73.568562, -47.808872]], [[-73.55113, -47.777767], [-73.56589, -47.776365], [-73.572489, -47.777533], [-73.580943, -47.782003], [-73.585127, -47.786198]], [[-73.523372, -47.776442], [-73.524898, -47.777544], [-73.525317, -47.779332], [-73.526829, -47.780651], [-73.52846, -47.784371], [-73.534593, -47.785631]], [[-73.534593, -47.785631], [-73.539379, -47.790646], [-73.547737, -47.793255], [-73.556213, -47.793637], [-73.565697, -47.791114], [-73.569294, -47.791644]], [[-73.537279, -47.775822], [-73.54289, -47.775928], [-73.553383, -47.7782], [-73.563812, -47.782662], [-73.5657, -47.784479], [-73.5688, -47.790851], [-73.571676, -47.794023], [-73.573585, -47.798001]]]}}