{"type": "Feature", "properties": {"id": "rio-imperial", "name": "Río Imperial", "type": "river", "region": "araucania"}, "geometry": {"type": "MultiLineString", "coordinates": [[[-72.982414, -38.750812], [-72.985234, -38.747835], [-72.987248, -38.74675], [-72.992427, -38.745591], [-73.012969, -38.742762], [-73.018516, -38.740921], [-73.029385, -38.742595], [-73.047999, -38.736628], [-73.051422, -38.736904], [-73.05515, -38.738068], [-73.067193, -38.744519], [-73.070718, -38.74531], [-73.073507, -38.743557], [-73.073673, -38.739733], [-73.076838, -38.732444], [-73.084123, -38.72733], [-73.089209, -38.726078], [-73.092513, -38.720282], [-73.093945, -38.716089], [-73.096429, -38.714363], [-73.09909, -38.714338], [-73.102051, -38.715874], [-73.110055, -38.724718], [-73.115049, -38.72543], [-73.118144, -38.724442], [-73.120167, -38.72453], [-73.121717, -38.725426], [-73.123552, -38.728091], [-73.127162, -38.729623], [-73.133004, -38.727899], [-73.13427, -38.726627], [-73.135209, -38.723504], [-73.136839, -38.721571], [-73.140171, -38.719336], [-73.144271, -38.718296]], [[-73.279467, -38.698284], [-73.284548, -38.698456], [-73.297455, -38.697317], [-73.315984, -38.693993], [-73.343493, -38.695626], [-73.347602, -38.696363], [-73.355702, -38.701353], [-73.357537, -38.703714], [-73.358095, -38.705615], [-73.35773, -38.712865], [-73.352248, -38.72748], [-73.351443, -38.732284], [-73.352698, -38.739239], [-73.359779, -38.749122], [-73.3645, -38.751715], [-73.367084, -38.752323], [-73.37469, -38.753266], [-73.381605, -38.753334], [-73.388952, -38.751918], [-73.394656, -38.749357], [-73.401657, -38.747604], [-73.40935, -38.747469], [-73.421246, -38.75022], [-73.423957, -38.755221]], [[-73.423957, -38.755221], [-73.418858, -38.765398], [-73.407621, -38.780762], [-73.40451, -38.782986], [-73.403127, -38.785681], [-73.404877, -38.788274], [-73.407013, -38.78867]], [[-73.144271, -38.718296], [-73.151178, -38.720207], [-73.157176, -38.724542], [-73.161328, -38.725471], [-73.166864, -38.724969], [-73.174642, -38.720671], [-73.175313, -38.718256], [-73.172491, -38.712735], [-73.172094, -38.707771], [-73.174868, -38.695149], [-73.176187, -38.693826], [-73.177829, -38.693331], [-73.180886, -38.693616], [-73.183655, -38.694797], [-73.191111, -38.70286], [-73.193504, -38.703882], [-73.199673, -38.702877], [-73.210144, -38.70353], [-73.222783, -38.702065], [-73.232374, -38.702442], [-73.242846, -38.70034], [-73.252856, -38.69993], [-73.266824, -38.697058], [-73.271803, -38.697108], [-73.279467, -38.698284]], [[-73.073587, -38.743239], [-73.074639, -38.741561], [-73.078077, -38.741528], [-73.080787, -38.740411], [-73.079815, -38.735481], [-73.08095, -38.729538]], [[-72.982414, -38.750812], [-72.985234, -38.747835], [-72.987248, -38.74675], [-72.992427, -38.745591], [-73.012969, -38.742762], [-73.018516, -38.740921], [-73.029385, -38.742595], [-73.047999, -38.736628], [-73.051422, -38.736904], [-73.05515, -38.738068], [-73.067193, -38.744519], [-73.070718, -38.74531], [-73.073507, -38.743557], [-73.073673, -38.739733], [-73.076838, -38.732444], [-73.084123, -38.72733], [-73.089209, -38.726078], [-73.092513, -38.720282], [-73.093945, -38.716089], [-73.096429, -38.714363], [-73.09909, -38.714338], [-73.102051, -38.715874], [-73.110055, -38.724718], [-73.115049, -38.72543], [-73.118144, -38.724442], [-73.120167, -38.72453], [-73.121717, -38.725426], [-73.123552, -38.728091], [-73.127162, -38.729623], [-73.133004, -38.727899], [-73.13427, -38.726627], [-73.135209, -38.723504], [-73.136839, -38.721571], [-73.140171, -38.719336], [-73.144271, -38.718296]], [[-73.144271, -38.718296], [-73.151178, -38.720207], [-73.157176, -38.724542], [-73.161328, -38.725471], [-73.166864, -38.724969], [-73.174642, -38.720671], [-73.175313, -38.718256], [-73.172491, -38.712735], [-73.172094, -38.707771], [-73.174868, -38.695149], [-73.176187, -38.693826], [-73.177829, -38.693331], [-73.180886, -38.693616], [-73.183655, -38.694797], [-73.191111, -38.70286], [-73.193504, -38.703882], [-73.199673, -38.702877], [-73.210144, -38.70353], [-73.222783, -38.702065], [-73.232374, -38.702442], [-73.242846, -38.70034], [-73.252856, -38.69993], [-73.266824, -38.697058], [-73.271803, -38.697108], [-73.279467, -38.698284]], [[-73.279467, -38.698284], [-73.284548, -38.698456], [-73.297455, -38.697317], [-73.315984, -38.693993], [-73.343493, -38.695626], [-73.347602, -38.696363], [-73.355702, -38.701353], [-73.357537, -38.703714], [-73.358095, -38.705615], [-73.35773, -38.712865], [-73.352248, -38.72748], [-73.351443, -38.732284], [-73.352698, -38.739239], [-73.359779, -38.749122], [-73.3645, -38.751715], [-73.367084, -38.752323], [-73.37469, -38.753266], [-73.381605, -38.753334], [-73.388952, -38.751918], [-73.394656, -38.749357], [-73.401657, -38.747604], [-73.40935, -38.747469], [-73.421246, -38.75022], [-73.423957, -38.755221]], [[-73.423957, -38.755221], [-73.418858, -38.765398], [-73.407621, -38.780762], [-73.40451, -38.782986], [-73.403127, -38.785681], [-73.404877, -38.788274], [-73.407013, -38.78867]], [[-73.073587, -38.743239], [-73.074639, -38.741561], [-73.078077, -38.741528], [-73.080787, -38.740411], [-73.079815, -38.735481], [-73.08095, -38.729538]]]}}