{"type": "Feature", "properties": {"id": "rio-puelo-chico", "name": "Río Puelo Chico", "type": "river", "region": "los-lagos"}, "geometry": {"type": "MultiLineString", "coordinates": [[[-72.336885, -41.79359], [-72.327659, -41.795222], [-72.326028, -41.794358], [-72.321865, -41.794358], [-72.311608, -41.796406], [-72.304313, -41.79471], [-72.303583, -41.79359], [-72.297275, -41.791031], [-72.286948, -41.791019], [-72.285274, -41.792059], [-72.283515, -41.790267], [-72.280875, -41.788907], [-72.276841, -41.789435], [-72.27064, -41.785947], [-72.268323, -41.785531], [-72.262873, -41.781931], [-72.258152, -41.781067], [-72.258452, -41.779339], [-72.256671, -41.779099], [-72.255105, -41.777595], [-72.250985, -41.777627], [-72.244569, -41.775082], [-72.240385, -41.77241], [-72.238196, -41.768585], [-72.238861, -41.767065], [-72.240664, -41.765688], [-72.240492, -41.76476], [-72.241243, -41.76348], [-72.246479, -41.760919], [-72.246329, -41.759462], [-72.247273, -41.758374], [-72.249183, -41.757973], [-72.251629, -41.756165], [-72.255792, -41.754452], [-72.256371, -41.752963], [-72.255707, -41.7504], [-72.256324, -41.747398], [-72.257144, -41.746686], [-72.261618, -41.746073], [-72.263834, -41.739945], [-72.266781, -41.739433], [-72.269488, -41.738092], [-72.270228, -41.736499], [-72.267718, -41.735326], [-72.270201, -41.734121], [-72.274836, -41.733805], [-72.275534, -41.731703], [-72.27768, -41.729601], [-72.277245, -41.727572], [-72.279245, -41.725296], [-72.278983, -41.724345], [-72.280195, -41.722223], [-72.284643, -41.71984], [-72.288044, -41.712945], [-72.28998, -41.711519], [-72.289669, -41.702645], [-72.290479, -41.699741], [-72.289991, -41.696801], [-72.292914, -41.689422], [-72.290753, -41.684106], [-72.292689, -41.682215], [-72.292861, -41.68125], [-72.291747, -41.679575], [-72.291922, -41.678125], [-72.287373, -41.676879], [-72.285249, -41.666669], [-72.286606, -41.66103], [-72.288319, -41.658961], [-72.292269, -41.657332], [-72.293358, -41.655805], [-72.296818, -41.653289], [-72.297219, -41.651478], [-72.299384, -41.649733]]]}}