{"type": "Feature", "properties": {"id": "rio-pangal", "name": "Río Pangal", "type": "river", "region": "ohiggins"}, "geometry": {"type": "MultiLineString", "coordinates": [[[-70.354255, -34.256076], [-70.357745, -34.251891], [-70.367965, -34.250142], [-70.369656, -34.24946], [-70.369856, -34.247817], [-70.370459, -34.247446], [-70.374482, -34.250224], [-70.379203, -34.250259], [-70.38108, -34.251398], [-70.38195, -34.253239]], [[-70.38195, -34.253239], [-70.383022, -34.253842], [-70.388505, -34.252711], [-70.390179, -34.253207], [-70.390833, -34.252282], [-70.394942, -34.251788], [-70.395202, -34.250563], [-70.396734, -34.249906], [-70.398729, -34.250532], [-70.400773, -34.249635], [-70.401041, -34.248828]], [[-70.401041, -34.248828], [-70.402242, -34.246859], [-70.405815, -34.246079], [-70.406548, -34.245355], [-70.407585, -34.245786], [-70.411029, -34.244039], [-70.414838, -34.243995], [-70.417102, -34.242416], [-70.419054, -34.242842], [-70.42076, -34.242088], [-70.428378, -34.241334], [-70.431328, -34.242115], [-70.437487, -34.241015], [-70.440984, -34.239312], [-70.443806, -34.240252], [-70.445286, -34.239285], [-70.448366, -34.239472], [-70.4555, -34.238452], [-70.457175, -34.237378], [-70.463246, -34.236331], [-70.466889, -34.236368], [-70.471419, -34.23511], [-70.476882, -34.235646], [-70.479223, -34.234818], [-70.481278, -34.235231]], [[-70.354111, -34.256194], [-70.354255, -34.256076]]]}}