{"type": "Feature", "properties": {"id": "rio-achibueno", "name": "Río Achibueno", "type": "river", "region": "maule"}, "geometry": {"type": "MultiLineString", "coordinates": [[[-71.205726, -36.098413], [-71.206299, -36.099158], [-71.20565, -36.100558], [-71.205886, -36.102057], [-71.209424, -36.103805], [-71.210852, -36.106624], [-71.214386, -36.107143], [-71.214767, -36.108912], [-71.216696, -36.1121], [-71.216268, -36.114499], [-71.216987, -36.116591], [-71.218718, -36.118133], [-71.222221, -36.119625], [-71.224308, -36.123247], [-71.230328, -36.128538], [-71.23085, -36.129527], [-71.229862, -36.131848], [-71.232242, -36.133026], [-71.233976, -36.134816], [-71.234367, -36.139367], [-71.23547, -36.141325], [-71.241121, -36.141828], [-71.248449, -36.144288], [-71.250659, -36.146418], [-71.251981, -36.149298], [-71.255948, -36.146981], [-71.258199, -36.147576], [-71.268053, -36.153117], [-71.273477, -36.153093], [-71.274769, -36.153708], [-71.275072, -36.154825], [-71.277899, -36.155111], [-71.280102, -36.156332], [-71.283272, -36.15612]], [[-71.064908, -36.217246], [-71.063072, -36.216751], [-71.061815, -36.214569], [-71.063222, -36.212209], [-71.062277, -36.210817], [-71.063266, -36.210334], [-71.062867, -36.209877], [-71.063798, -36.209678], [-71.06512, -36.207707], [-71.063405, -36.205436], [-71.063405, -36.204184], [-71.065891, -36.201722], [-71.069194, -36.200101], [-71.070216, -36.197941], [-71.072221, -36.196167], [-71.077847, -36.194996], [-71.081594, -36.191261], [-71.081839, -36.189659], [-71.085724, -36.188892], [-71.088313, -36.18615], [-71.087524, -36.184156], [-71.088973, -36.177197], [-71.090263, -36.175184], [-71.089651, -36.173409], [-71.09107, -36.172488], [-71.091247, -36.168775], [-71.092157, -36.167822], [-71.092238, -36.165957], [-71.093264, -36.165303], [-71.092748, -36.163212], [-71.094675, -36.162377], [-71.095861, -36.160868], [-71.095458, -36.160089], [-71.096577, -36.157732], [-71.095397, -36.15634], [-71.097902, -36.154374], [-71.098343, -36.152806], [-71.103499, -36.149027], [-71.108285, -36.148046], [-71.10888, -36.146578], [-71.10821, -36.144741], [-71.110538, -36.143888], [-71.111793, -36.141466], [-71.112442, -36.138234], [-71.118057, -36.130802], [-71.117679, -36.12931], [-71.120082, -36.125836], [-71.118933, -36.125258], [-71.118675, -36.124287], [-71.120831, -36.123142], [-71.120599, -36.121273], [-71.122533, -36.118286], [-71.122665, -36.117054], [-71.126265, -36.115176], [-71.12831, -36.112791], [-71.133572, -36.112683], [-71.13427, -36.110637], [-71.139324, -36.106702], [-71.140171, -36.105081], [-71.142402, -36.104586], [-71.142591, -36.102959], [-71.145019, -36.101455], [-71.147288, -36.098829], [-71.151608, -36.098007], [-71.151723, -36.096213], [-71.154199, -36.094982], [-71.157212, -36.095268], [-71.164834, -36.093053], [-71.168135, -36.094353], [-71.17049, -36.092381], [-71.180291, -36.090686], [-71.182847, -36.092433], [-71.186777, -36.091579], [-71.193152, -36.093707], [-71.198045, -36.093803], [-71.19971, -36.094947], [-71.19954, -36.096278], [-71.205726, -36.098413]], [[-71.548194, -35.909367], [-71.550895, -35.909056], [-71.555555, -35.906925], [-71.561232, -35.908181], [-71.563477, -35.907851], [-71.567114, -35.906118], [-71.569889, -35.907607], [-71.574269, -35.907393], [-71.579605, -35.90587], [-71.585715, -35.902567], [-71.590947, -35.902843], [-71.59352, -35.901129], [-71.601314, -35.900085], [-71.607353, -35.896786], [-71.611825, -35.896982], [-71.614407, -35.896141], [-71.618492, -35.896269], [-71.623838, -35.893779], [-71.626178, -35.88667]], [[-71.626178, -35.88667], [-71.627831, -35.884126], [-71.628533, -35.881349], [-71.632966, -35.879682], [-71.637533, -35.879562], [-71.641079, -35.876391], [-71.642843, -35.873385], [-71.646046, -35.871116], [-71.647795, -35.870732], [-71.649587, -35.868995], [-71.651569, -35.862771], [-71.654846, -35.862006], [-71.655573, -35.861311], [-71.655961, -35.856304], [-71.65686, -35.855287], [-71.660249, -35.85407], [-71.669218, -35.852813], [-71.675991, -35.853418]], [[-71.675991, -35.853418], [-71.677586, -35.854112], [-71.67885, -35.855809], [-71.68491, -35.860378], [-71.690607, -35.858642], [-71.696327, -35.858296], [-71.700746, -35.852868], [-71.704407, -35.850965], [-71.705575, -35.849636], [-71.70698, -35.847175], [-71.705938, -35.844124], [-71.706818, -35.842635], [-71.708136, -35.841397], [-71.71389, -35.839629], [-71.715975, -35.834904], [-71.719457, -35.831883], [-71.72101, -35.831056], [-71.724774, -35.830566], [-71.727934, -35.83171], [-71.731405, -35.831505], [-71.733127, -35.830427], [-71.735809, -35.825982], [-71.742815, -35.824534], [-71.745116, -35.82078], [-71.745749, -35.818396], [-71.749499, -35.817204], [-71.754547, -35.814098], [-71.759686, -35.806812], [-71.764902, -35.805279], [-71.765761, -35.803609], [-71.768031, -35.801517], [-71.769755, -35.797507], [-71.774457, -35.794534], [-71.777791, -35.78934], [-71.7878, -35.781447], [-71.78944, -35.781036], [-71.795, -35.781901], [-71.797097, -35.780735]], [[-71.513556, -35.915591], [-71.521892, -35.912519], [-71.523692, -35.913423], [-71.527412, -35.913288], [-71.532189, -35.914846], [-71.535338, -35.912361], [-71.548194, -35.909367]], [[-71.378378, -36.13888], [-71.381167, -36.138841], [-71.382288, -36.137979]], [[-71.395351, -36.107499], [-71.394707, -36.10517], [-71.395801, -36.104123]], [[-71.351572, -36.160538], [-71.353642, -36.161326], [-71.354946, -36.161121]], [[-71.359919, -36.156857], [-71.359181, -36.156218], [-71.359565, -36.155717]], [[-71.360053, -36.157671], [-71.361362, -36.155986], [-71.360863, -36.154401]], [[-71.064436, -36.202875], [-71.065954, -36.201681]], [[-71.092127, -36.16674], [-71.09298, -36.165629]], [[-71.400189, -36.058631], [-71.402265, -36.055821], [-71.402834, -36.053883], [-71.403011, -36.050699], [-71.401638, -36.047108], [-71.402239, -36.043417], [-71.404545, -36.04212], [-71.407635, -36.037774], [-71.409497, -36.036251], [-71.41319, -36.028948], [-71.417838, -36.025043], [-71.418037, -36.024117], [-71.415768, -36.02216], [-71.418436, -36.018325], [-71.420738, -36.017261], [-71.425483, -36.017336], [-71.429495, -36.011317], [-71.433218, -36.008453], [-71.441573, -36.009887], [-71.444843, -36.005889], [-71.44359, -36.001807], [-71.443952, -36.000203], [-71.44756, -35.998854], [-71.447412, -35.996818], [-71.449698, -35.994562], [-71.451468, -35.99062], [-71.455738, -35.990386]], [[-71.116339, -36.132971], [-71.117286, -36.131797]], [[-71.455738, -35.990386], [-71.457213, -35.9898], [-71.458586, -35.987725], [-71.461285, -35.986705], [-71.46607, -35.986857], [-71.469986, -35.988207], [-71.473183, -35.988225], [-71.482909, -35.984587], [-71.485344, -35.982048], [-71.486122, -35.978314], [-71.490902, -35.971355], [-71.490312, -35.966962], [-71.491106, -35.96575], [-71.493342, -35.964482], [-71.492656, -35.961903], [-71.496159, -35.955069], [-71.496765, -35.947573], [-71.496164, -35.942258], [-71.498181, -35.939769], [-71.500754, -35.938416], [-71.501132, -35.936829], [-71.504565, -35.934965], [-71.506551, -35.933055], [-71.505707, -35.930363], [-71.509008, -35.927292], [-71.508349, -35.925555], [-71.509978, -35.92188], [-71.509095, -35.919716], [-71.509363, -35.918226], [-71.508516, -35.916747], [-71.508706, -35.915943], [-71.510374, -35.915087], [-71.513556, -35.915591]], [[-71.283272, -36.15612], [-71.284701, -36.156722], [-71.284634, -36.157898], [-71.285528, -36.159146], [-71.288655, -36.158559], [-71.290876, -36.15891], [-71.290034, -36.16007], [-71.290474, -36.160618], [-71.296106, -36.162522], [-71.299218, -36.164408], [-71.300738, -36.164746], [-71.303641, -36.16337], [-71.307983, -36.16441], [-71.308259, -36.167807], [-71.309445, -36.168992], [-71.312229, -36.168225], [-71.314986, -36.165406], [-71.317936, -36.165841], [-71.321091, -36.167238], [-71.324902, -36.165138], [-71.325707, -36.163057], [-71.330243, -36.165031], [-71.334583, -36.163799], [-71.340041, -36.164813], [-71.343618, -36.164086], [-71.343831, -36.161701], [-71.349501, -36.160787]], [[-71.349501, -36.160787], [-71.353536, -36.160285], [-71.35504, -36.161123], [-71.35832, -36.160551], [-71.360053, -36.157671], [-71.3595, -36.155808], [-71.362118, -36.153093], [-71.364843, -36.152993], [-71.366433, -36.155498], [-71.367677, -36.155539], [-71.369188, -36.152659], [-71.374247, -36.151867], [-71.378429, -36.14788], [-71.378979, -36.145313], [-71.376881, -36.139777], [-71.380604, -36.13807], [-71.382192, -36.138031], [-71.382948, -36.136709], [-71.382567, -36.135072], [-71.380738, -36.133356], [-71.379424, -36.128579], [-71.383742, -36.126029], [-71.383946, -36.124339], [-71.383275, -36.123276], [-71.384541, -36.120314], [-71.386263, -36.119326], [-71.388715, -36.119482], [-71.390882, -36.118602], [-71.392062, -36.116587], [-71.391617, -36.112787], [-71.396643, -36.109879], [-71.395259, -36.106503], [-71.395887, -36.103937], [-71.398312, -36.10068], [-71.397899, -36.096456], [-71.392003, -36.08968], [-71.390375, -36.084655]], [[-71.390375, -36.084655], [-71.390442, -36.082878], [-71.392006, -36.080136], [-71.394332, -36.078556], [-71.396499, -36.075699], [-71.395312, -36.074483], [-71.394825, -36.072339], [-71.397046, -36.071378], [-71.398078, -36.069759], [-71.398017, -36.067903], [-71.399559, -36.066284], [-71.400383, -36.063913], [-71.398626, -36.059488], [-71.399205, -36.058616], [-71.400189, -36.058631]], [[-71.064908, -36.217246], [-71.063072, -36.216751], [-71.061815, -36.214569], [-71.063222, -36.212209], [-71.062277, -36.210817], [-71.063266, -36.210334], [-71.062867, -36.209877], [-71.063798, -36.209678], [-71.06512, -36.207707], [-71.063405, -36.205436], [-71.063405, -36.204184], [-71.065891, -36.201722], [-71.069194, -36.200101], [-71.070216, -36.197941], [-71.072221, -36.196167], [-71.077847, -36.194996], [-71.081594, -36.191261], [-71.081839, -36.189659], [-71.085724, -36.188892], [-71.088313, -36.18615], [-71.087524, -36.184156], [-71.088973, -36.177197], [-71.090263, -36.175184], [-71.089651, -36.173409], [-71.09107, -36.172488], [-71.091247, -36.168775], [-71.092157, -36.167822], [-71.092238, -36.165957], [-71.093264, -36.165303], [-71.092748, -36.163212], [-71.094675, -36.162377], [-71.095861, -36.160868], [-71.095458, -36.160089], [-71.096577, -36.157732], [-71.095397, -36.15634], [-71.097902, -36.154374], [-71.098343, -36.152806], [-71.103499, -36.149027], [-71.108285, -36.148046], [-71.10888, -36.146578], [-71.10821, -36.144741], [-71.110538, -36.143888], [-71.111793, -36.141466], [-71.112442, -36.138234], [-71.118057, -36.130802], [-71.117679, -36.12931], [-71.120082, -36.125836], [-71.118933, -36.125258], [-71.118675, -36.124287], [-71.120831, -36.123142], [-71.120599, -36.121273], [-71.122533, -36.118286], [-71.122665, -36.117054], [-71.126265, -36.115176], [-71.12831, -36.112791], [-71.133572, -36.112683], [-71.13427, -36.110637], [-71.139324, -36.106702], [-71.140171, -36.105081], [-71.142402, -36.104586], [-71.142591, -36.102959], [-71.145019, -36.101455], [-71.147288, -36.098829], [-71.151608, -36.098007], [-71.151723, -36.096213], [-71.154199, -36.094982], [-71.157212, -36.095268], [-71.164834, -36.093053], [-71.168135, -36.094353], [-71.17049, -36.092381], [-71.180291, -36.090686], [-71.182847, -36.092433], [-71.186777, -36.091579], [-71.193152, -36.093707], [-71.198045, -36.093803], [-71.19971, -36.094947], [-71.19954, -36.096278], [-71.205726, -36.098413]], [[-71.205726, -36.098413], [-71.206299, -36.099158], [-71.20565, -36.100558], [-71.205886, -36.102057], [-71.209424, -36.103805], [-71.210852, -36.106624], [-71.214386, -36.107143], [-71.214767, -36.108912], [-71.216696, -36.1121], [-71.216268, -36.114499], [-71.216987, -36.116591], [-71.218718, -36.118133], [-71.222221, -36.119625], [-71.224308, -36.123247], [-71.230328, -36.128538], [-71.23085, -36.129527], [-71.229862, -36.131848], [-71.232242, -36.133026], [-71.233976, -36.134816], [-71.234367, -36.139367], [-71.23547, -36.141325], [-71.241121, -36.141828], [-71.248449, -36.144288], [-71.250659, -36.146418], [-71.251981, -36.149298], [-71.255948, -36.146981], [-71.258199, -36.147576], [-71.268053, -36.153117], [-71.273477, -36.153093], [-71.274769, -36.153708], [-71.275072, -36.154825], [-71.277899, -36.155111], [-71.280102, -36.156332], [-71.283272, -36.15612]], [[-71.283272, -36.15612], [-71.284701, -36.156722], [-71.284634, -36.157898], [-71.285528, -36.159146], [-71.288655, -36.158559], [-71.290876, -36.15891], [-71.290034, -36.16007], [-71.290474, -36.160618], [-71.296106, -36.162522], [-71.299218, -36.164408], [-71.300738, -36.164746], [-71.303641, -36.16337], [-71.307983, -36.16441], [-71.308259, -36.167807], [-71.309445, -36.168992], [-71.312229, -36.168225], [-71.314986, -36.165406], [-71.317936, -36.165841], [-71.321091, -36.167238], [-71.324902, -36.165138], [-71.325707, -36.163057], [-71.330243, -36.165031], [-71.334583, -36.163799], [-71.340041, -36.164813], [-71.343618, -36.164086], [-71.343831, -36.161701], [-71.349501, -36.160787]], [[-71.349501, -36.160787], [-71.353536, -36.160285], [-71.35504, -36.161123], [-71.35832, -36.160551], [-71.360053, -36.157671], [-71.3595, -36.155808], [-71.362118, -36.153093], [-71.364843, -36.152993], [-71.366433, -36.155498], [-71.367677, -36.155539], [-71.369188, -36.152659], [-71.374247, -36.151867], [-71.378429, -36.14788], [-71.378979, -36.145313], [-71.376881, -36.139777], [-71.380604, -36.13807], [-71.382192, -36.138031], [-71.382948, -36.136709], [-71.382567, -36.135072], [-71.380738, -36.133356], [-71.379424, -36.128579], [-71.383742, -36.126029], [-71.383946, -36.124339], [-71.383275, -36.123276], [-71.384541, -36.120314], [-71.386263, -36.119326], [-71.388715, -36.119482], [-71.390882, -36.118602], [-71.392062, -36.116587], [-71.391617, -36.112787], [-71.396643, -36.109879], [-71.395259, -36.106503], [-71.395887, -36.103937], [-71.398312, -36.10068], [-71.397899, -36.096456], [-71.392003, -36.08968], [-71.390375, -36.084655]], [[-71.390375, -36.084655], [-71.390442, -36.082878], [-71.392006, -36.080136], [-71.394332, -36.078556], [-71.396499, -36.075699], [-71.395312, -36.074483], [-71.394825, -36.072339], [-71.397046, -36.071378], [-71.398078, -36.069759], [-71.398017, -36.067903], [-71.399559, -36.066284], [-71.400383, -36.063913], [-71.398626, -36.059488], [-71.399205, -36.058616], [-71.400189, -36.058631]], [[-71.400189, -36.058631], [-71.402265, -36.055821], [-71.402834, -36.053883], [-71.403011, -36.050699], [-71.401638, -36.047108], [-71.402239, -36.043417], [-71.404545, -36.04212], [-71.407635, -36.037774], [-71.409497, -36.036251], [-71.41319, -36.028948], [-71.417838, -36.025043], [-71.418037, -36.024117], [-71.415768, -36.02216], [-71.418436, -36.018325], [-71.420738, -36.017261], [-71.425483, -36.017336], [-71.429495, -36.011317], [-71.433218, -36.008453], [-71.441573, -36.009887], [-71.444843, -36.005889], [-71.44359, -36.001807], [-71.443952, -36.000203], [-71.44756, -35.998854], [-71.447412, -35.996818], [-71.449698, -35.994562], [-71.451468, -35.99062], [-71.455738, -35.990386]], [[-71.455738, -35.990386], [-71.457213, -35.9898], [-71.458586, -35.987725], [-71.461285, -35.986705], [-71.46607, -35.986857], [-71.469986, -35.988207], [-71.473183, -35.988225], [-71.482909, -35.984587], [-71.485344, -35.982048], [-71.486122, -35.978314], [-71.490902, -35.971355], [-71.490312, -35.966962], [-71.491106, -35.96575], [-71.493342, -35.964482], [-71.492656, -35.961903], [-71.496159, -35.955069], [-71.496765, -35.947573], [-71.496164, -35.942258], [-71.498181, -35.939769], [-71.500754, -35.938416], [-71.501132, -35.936829], [-71.504565, -35.934965], [-71.506551, -35.933055], [-71.505707, -35.930363], [-71.509008, -35.927292], [-71.508349, -35.925555], [-71.509978, -35.92188], [-71.509095, -35.919716], [-71.509363, -35.918226], [-71.508516, -35.916747], [-71.508706, -35.915943], [-71.510374, -35.915087], [-71.513556, -35.915591]], [[-71.513556, -35.915591], [-71.521892, -35.912519], [-71.523692, -35.913423], [-71.527412, -35.913288], [-71.532189, -35.914846], [-71.535338, -35.912361], [-71.548194, -35.909367]], [[-71.548194, -35.909367], [-71.550895, -35.909056], [-71.555555, -35.906925], [-71.561232, -35.908181], [-71.563477, -35.907851], [-71.567114, -35.906118], [-71.569889, -35.907607], [-71.574269, -35.907393], [-71.579605, -35.90587], [-71.585715, -35.902567], [-71.590947, -35.902843], [-71.59352, -35.901129], [-71.601314, -35.900085], [-71.607353, -35.896786], [-71.611825, -35.896982], [-71.614407, -35.896141], [-71.618492, -35.896269], [-71.623838, -35.893779], [-71.626178, -35.88667]], [[-71.626178, -35.88667], [-71.627831, -35.884126], [-71.628533, -35.881349], [-71.632966, -35.879682], [-71.637533, -35.879562], [-71.641079, -35.876391], [-71.642843, -35.873385], [-71.646046, -35.871116], [-71.647795, -35.870732], [-71.649587, -35.868995], [-71.651569, -35.862771], [-71.654846, -35.862006], [-71.655573, -35.861311], [-71.655961, -35.856304], [-71.65686, -35.855287], [-71.660249, -35.85407], [-71.669218, -35.852813], [-71.675991, -35.853418]], [[-71.675991, -35.853418], [-71.677586, -35.854112], [-71.67885, -35.855809], [-71.68491, -35.860378], [-71.690607, -35.858642], [-71.696327, -35.858296], [-71.700746, -35.852868], [-71.704407, -35.850965], [-71.705575, -35.849636], [-71.70698, -35.847175], [-71.705938, -35.844124], [-71.706818, -35.842635], [-71.708136, -35.841397], [-71.71389, -35.839629], [-71.715975, -35.834904], [-71.719457, -35.831883], [-71.72101, -35.831056], [-71.724774, -35.830566], [-71.727934, -35.83171], [-71.731405, -35.831505], [-71.733127, -35.830427], [-71.735809, -35.825982], [-71.742815, -35.824534], [-71.745116, -35.82078], [-71.745749, -35.818396], [-71.749499, -35.817204], [-71.754547, -35.814098], [-71.759686, -35.806812], [-71.764902, -35.805279], [-71.765761, -35.803609], [-71.768031, -35.801517], [-71.769755, -35.797507], [-71.774457, -35.794534], [-71.777791, -35.78934], [-71.7878, -35.781447], [-71.78944, -35.781036], [-71.795, -35.781901], [-71.797097, -35.780735]]]}}