{"type": "Feature", "properties": {"id": "rio-yelcho", "name": "Río Yelcho", "type": "river", "region": "los-lagos"}, "geometry": {"type": "MultiLineString", "coordinates": [[[-72.435705, -43.176564], [-72.439004, -43.175299], [-72.438129, -43.172815], [-72.438081, -43.168703], [-72.439859, -43.165656], [-72.443909, -43.162924], [-72.45058, -43.15505], [-72.450843, -43.153751], [-72.449738, -43.151787], [-72.449424, -43.147505], [-72.452731, -43.141673], [-72.452857, -43.137735], [-72.453887, -43.133727], [-72.45629, -43.129968], [-72.460481, -43.12559], [-72.466271, -43.123273], [-72.470069, -43.123117], [-72.472236, -43.123931], [-72.47345, -43.127743], [-72.477449, -43.12681], [-72.479928, -43.125089], [-72.480831, -43.121775], [-72.480212, -43.117367], [-72.480736, -43.107311], [-72.484424, -43.10244], [-72.487557, -43.096549], [-72.490776, -43.093446], [-72.494672, -43.091132], [-72.502578, -43.089153], [-72.505968, -43.086113], [-72.506182, -43.081631], [-72.506912, -43.080502], [-72.508768, -43.079585], [-72.51365, -43.078841], [-72.524765, -43.080596], [-72.529314, -43.079907], [-72.532318, -43.077775], [-72.536009, -43.070063], [-72.54236, -43.062915], [-72.54339, -43.06003], [-72.543218, -43.058463], [-72.546339, -43.054786], [-72.555063, -43.050874], [-72.562638, -43.050074], [-72.566929, -43.048569], [-72.572842, -43.04533], [-72.58209, -43.043323], [-72.59136, -43.038461], [-72.598527, -43.037143], [-72.613311, -43.037253], [-72.622967, -43.035842], [-72.634468, -43.03123], [-72.639082, -43.027482], [-72.641957, -43.026493], [-72.644382, -43.026258], [-72.65363, -43.029238], [-72.656098, -43.029803], [-72.657803, -43.029449], [-72.662127, -43.026384], [-72.663029, -43.024093], [-72.66275, -43.021756], [-72.652933, -43.007068], [-72.652204, -43.00415], [-72.651817, -43.000383], [-72.652418, -42.997056], [-72.655744, -42.994326], [-72.659606, -42.992411], [-72.662718, -42.992097], [-72.67512, -42.993117], [-72.679519, -42.992113], [-72.685806, -42.988377], [-72.687416, -42.988048], [-72.693896, -42.989727], [-72.700269, -42.990009], [-72.709324, -42.98924], [-72.717122, -42.987635], [-72.719547, -42.98612], [-72.720544, -42.984605], [-72.720276, -42.975571], [-72.721381, -42.973075], [-72.724106, -42.970453], [-72.729127, -42.96805], [-72.738451, -42.96524], [-72.742646, -42.963183], [-72.749737, -42.954884], [-72.753566, -42.954558], [-72.757738, -42.955411], [-72.763921, -42.955449], [-72.767086, -42.954342], [-72.769082, -42.952732], [-72.77024, -42.950706]]]}}