{"type": "Feature", "properties": {"id": "rio-cautin", "name": "Río Cautín", "type": "river", "region": "araucania"}, "geometry": {"type": "MultiLineString", "coordinates": [[[-71.517624, -38.465462], [-71.520458, -38.468696], [-71.522003, -38.469046], [-71.52637, -38.472521], [-71.526794, -38.474179], [-71.525942, -38.474441], [-71.525714, -38.47584], [-71.530352, -38.47824], [-71.530645, -38.479427], [-71.535602, -38.480863], [-71.537968, -38.480173], [-71.539686, -38.481405], [-71.54073, -38.480852], [-71.54267, -38.481269], [-71.544772, -38.479898], [-71.545036, -38.479075], [-71.548321, -38.477956], [-71.548892, -38.478314], [-71.554339, -38.47706], [-71.55547, -38.474806], [-71.557284, -38.475558], [-71.558621, -38.475151], [-71.560894, -38.475757], [-71.563753, -38.475109], [-71.565749, -38.477067], [-71.569816, -38.477001], [-71.572917, -38.476148], [-71.573357, -38.477548], [-71.574147, -38.476889], [-71.575088, -38.477134], [-71.574683, -38.479284], [-71.575466, -38.479821], [-71.581029, -38.480295], [-71.58516, -38.479349], [-71.587343, -38.476822], [-71.59346, -38.475859], [-71.596717, -38.473397], [-71.597632, -38.473834], [-71.597961, -38.475467], [-71.600577, -38.475901], [-71.601362, -38.476976], [-71.606425, -38.476029], [-71.606661, -38.476532], [-71.605471, -38.476851], [-71.605747, -38.478341], [-71.606791, -38.47846], [-71.607834, -38.477197], [-71.609096, -38.477949], [-71.607853, -38.478761], [-71.608376, -38.47918], [-71.60943, -38.478598], [-71.610067, -38.477236], [-71.611573, -38.477028], [-71.610479, -38.475386], [-71.611349, -38.472157], [-71.616818, -38.469536], [-71.620549, -38.469341], [-71.623848, -38.467081], [-71.626789, -38.46675], [-71.628148, -38.46395], [-71.630098, -38.463296], [-71.632927, -38.464649], [-71.633528, -38.466417], [-71.636517, -38.468078], [-71.639719, -38.467492], [-71.641296, -38.468806], [-71.645494, -38.470506], [-71.647446, -38.470206], [-71.64949, -38.470735], [-71.651196, -38.46966], [-71.652794, -38.469914], [-71.654801, -38.471006], [-71.653618, -38.473131], [-71.655592, -38.474647], [-71.659106, -38.471854], [-71.661007, -38.471818], [-71.666218, -38.469306], [-71.670393, -38.47064], [-71.670179, -38.47162], [-71.670965, -38.472711], [-71.675356, -38.475186], [-71.678587, -38.474723], [-71.681446, -38.476955], [-71.686538, -38.47772], [-71.689345, -38.477198], [-71.691446, -38.478567], [-71.694074, -38.478649], [-71.697491, -38.477578], [-71.703346, -38.473185], [-71.708249, -38.47223], [-71.708944, -38.469742], [-71.710419, -38.467553], [-71.709783, -38.465989], [-71.706425, -38.463906], [-71.70768, -38.462633], [-71.70796, -38.460674], [-71.714316, -38.461671], [-71.715842, -38.463912], [-71.718318, -38.46324], [-71.723688, -38.463461], [-71.727376, -38.460751], [-71.731669, -38.460153], [-71.732684, -38.460549], [-71.733043, -38.461589], [-71.739384, -38.461572], [-71.742533, -38.462967], [-71.745567, -38.462574], [-71.74973, -38.464332], [-71.75386, -38.464996], [-71.757317, -38.463926], [-71.759635, -38.464811], [-71.761612, -38.464089], [-71.770758, -38.464964], [-71.772898, -38.468055], [-71.774618, -38.467091], [-71.77844, -38.468339], [-71.781527, -38.467308], [-71.782187, -38.46787], [-71.782115, -38.469229], [-71.784346, -38.470424], [-71.78977, -38.470556], [-71.794211, -38.475096], [-71.798724, -38.476703], [-71.798294, -38.478141], [-71.798833, -38.478952], [-71.802942, -38.480033], [-71.805562, -38.481629], [-71.810219, -38.480617], [-71.813628, -38.481083], [-71.814154, -38.481914], [-71.812316, -38.482647], [-71.812415, -38.484381], [-71.813716, -38.484705], [-71.814644, -38.486785], [-71.81639, -38.488009], [-71.818067, -38.488324], [-71.820438, -38.48722], [-71.822385, -38.487138], [-71.826274, -38.489275], [-71.827201, -38.491391], [-71.828718, -38.490831], [-71.830807, -38.491429], [-71.831448, -38.492783], [-71.830241, -38.494652], [-71.829346, -38.498378], [-71.831355, -38.500072], [-71.833189, -38.50338], [-71.834898, -38.504923], [-71.836609, -38.504327], [-71.835831, -38.502503], [-71.836051, -38.501235], [-71.837752, -38.501256], [-71.845232, -38.498953], [-71.851863, -38.499257], [-71.853217, -38.497929], [-71.855269, -38.497561], [-71.858541, -38.495114], [-71.868581, -38.491381], [-71.870107, -38.491364], [-71.87081, -38.492689], [-71.87516, -38.491118], [-71.877344, -38.492303]], [[-72.725472, -38.775359], [-72.733478, -38.773123], [-72.739738, -38.775817], [-72.748938, -38.776323], [-72.755536, -38.775758], [-72.766995, -38.777958], [-72.770566, -38.779393], [-72.787099, -38.779272], [-72.79095, -38.781845], [-72.79651, -38.781178], [-72.800766, -38.778686], [-72.805034, -38.777741], [-72.810656, -38.778058], [-72.813778, -38.780162], [-72.815344, -38.780241], [-72.817439, -38.77908], [-72.818719, -38.776013], [-72.820913, -38.774512], [-72.822297, -38.774847], [-72.824614, -38.777339], [-72.829002, -38.778226], [-72.837676, -38.774725], [-72.839763, -38.77478], [-72.842478, -38.776176], [-72.84436, -38.776139], [-72.845761, -38.775662], [-72.846174, -38.774859], [-72.844377, -38.77094], [-72.846313, -38.769548], [-72.854931, -38.771639], [-72.861044, -38.772061], [-72.868702, -38.771139], [-72.875423, -38.77195], [-72.881547, -38.769849], [-72.884521, -38.768084], [-72.890942, -38.766572], [-72.895183, -38.766348], [-72.897554, -38.766917], [-72.900853, -38.769815], [-72.9028, -38.769748], [-72.903728, -38.767875], [-72.904812, -38.767578], [-72.906561, -38.768326], [-72.9083, -38.770511], [-72.911982, -38.770896], [-72.914192, -38.775643], [-72.918186, -38.778548], [-72.919487, -38.778401], [-72.922595, -38.776225], [-72.92351, -38.774794], [-72.924572, -38.774506], [-72.930172, -38.776465], [-72.933866, -38.779451], [-72.937894, -38.780944], [-72.941797, -38.781128], [-72.945743, -38.779748], [-72.952824, -38.779148], [-72.962619, -38.768226], [-72.964931, -38.767523], [-72.973836, -38.767134], [-72.977232, -38.765913], [-72.979699, -38.762659], [-72.980493, -38.760174], [-72.979002, -38.757212], [-72.979302, -38.754995], [-72.982414, -38.750812]], [[-72.262336, -38.451294], [-72.26641, -38.451178], [-72.267474, -38.449207], [-72.269336, -38.448436], [-72.2751, -38.448059], [-72.286343, -38.450291], [-72.292646, -38.453568], [-72.297816, -38.454515], [-72.304317, -38.454205], [-72.310978, -38.459099], [-72.312257, -38.461225], [-72.313115, -38.465029], [-72.314377, -38.465652], [-72.317632, -38.465299], [-72.317761, -38.468589], [-72.320953, -38.473235], [-72.326557, -38.474618], [-72.329022, -38.477322], [-72.333384, -38.477639], [-72.339373, -38.480449], [-72.341307, -38.479634], [-72.344678, -38.481833], [-72.348037, -38.483109], [-72.349984, -38.483287], [-72.352317, -38.48258], [-72.35578, -38.484117], [-72.358961, -38.484283], [-72.361335, -38.486263], [-72.365356, -38.487016], [-72.367424, -38.488786], [-72.367346, -38.490457]], [[-72.204285, -38.442809], [-72.205145, -38.443749], [-72.205094, -38.445289], [-72.20942, -38.448749], [-72.217904, -38.448174], [-72.22278, -38.451358], [-72.228557, -38.453564], [-72.231159, -38.453626], [-72.236371, -38.45211], [-72.239195, -38.453388], [-72.240375, -38.455076], [-72.241234, -38.455088], [-72.245048, -38.453412], [-72.247714, -38.450547], [-72.255825, -38.448505], [-72.257847, -38.448783], [-72.259489, -38.450803], [-72.262336, -38.451294]], [[-72.590736, -38.750188], [-72.602095, -38.756681], [-72.612999, -38.758551], [-72.61832, -38.761697], [-72.624757, -38.762596], [-72.628239, -38.761772], [-72.632605, -38.761697], [-72.639123, -38.763976], [-72.650541, -38.764485], [-72.652978, -38.763904], [-72.658891, -38.759471], [-72.664915, -38.758946], [-72.669657, -38.762659], [-72.672796, -38.767398], [-72.678624, -38.769857], [-72.679206, -38.770719], [-72.678697, -38.772801], [-72.681137, -38.774014], [-72.682283, -38.773828], [-72.684125, -38.771091], [-72.688347, -38.766837], [-72.691147, -38.765633], [-72.695903, -38.766471], [-72.702573, -38.765516], [-72.709649, -38.766846], [-72.715885, -38.765411], [-72.722372, -38.767538], [-72.724232, -38.768943], [-72.724511, -38.770514], [-72.722459, -38.773199], [-72.7232, -38.774403], [-72.725472, -38.775359]], [[-72.692785, -38.765797], [-72.698297, -38.764092], [-72.699791, -38.764826], [-72.699634, -38.76558]], [[-71.570795, -38.476475], [-71.573038, -38.477276]], [[-72.066698, -38.415749], [-72.078794, -38.417033], [-72.084662, -38.418367], [-72.086717, -38.420085], [-72.08701, -38.424809]], [[-72.52978, -38.704158], [-72.530808, -38.705424], [-72.538304, -38.708666], [-72.540021, -38.711982], [-72.539906, -38.714784], [-72.541023, -38.716879], [-72.543808, -38.719269], [-72.547654, -38.720809], [-72.547644, -38.723592], [-72.549302, -38.726208], [-72.548786, -38.729184], [-72.549698, -38.731431]], [[-72.493195, -38.684647], [-72.495472, -38.685933], [-72.499683, -38.686607], [-72.502054, -38.686504], [-72.506992, -38.684865], [-72.509208, -38.684869]], [[-72.549698, -38.731431], [-72.551077, -38.732665], [-72.560202, -38.735921], [-72.564472, -38.738607], [-72.568383, -38.739708], [-72.577044, -38.747006], [-72.581806, -38.749092], [-72.586005, -38.748935], [-72.590736, -38.750188]], [[-72.509208, -38.684869], [-72.510796, -38.686515], [-72.510871, -38.688646], [-72.513505, -38.692745], [-72.51513, -38.697263], [-72.517303, -38.698406], [-72.519813, -38.698435], [-72.522506, -38.6997], [-72.526959, -38.700394], [-72.52978, -38.704158]], [[-72.367346, -38.490457], [-72.367512, -38.49203], [-72.371441, -38.492322], [-72.371889, -38.494039], [-72.37444, -38.494595], [-72.375658, -38.496228], [-72.380864, -38.499969], [-72.388235, -38.502395], [-72.39324, -38.504931], [-72.400289, -38.504944], [-72.402263, -38.505712], [-72.402703, -38.507106], [-72.401539, -38.509624], [-72.401775, -38.510351], [-72.40888, -38.51209], [-72.410529, -38.513648], [-72.412514, -38.517245], [-72.415904, -38.517612], [-72.419735, -38.520468], [-72.423624, -38.521994], [-72.424754, -38.524043], [-72.429391, -38.527085], [-72.428961, -38.531126], [-72.431767, -38.534881], [-72.431772, -38.537303], [-72.436375, -38.547767], [-72.437212, -38.553141], [-72.436037, -38.555541], [-72.435491, -38.56274], [-72.436104, -38.565398], [-72.437748, -38.567286], [-72.436509, -38.570012], [-72.43663, -38.571958], [-72.43925, -38.574307], [-72.439873, -38.576592], [-72.439755, -38.580798], [-72.44219, -38.585977], [-72.441836, -38.595009], [-72.442877, -38.597579], [-72.441938, -38.599122], [-72.434897, -38.60283], [-72.434699, -38.606699], [-72.433333, -38.610076], [-72.43063, -38.612251], [-72.428854, -38.612893], [-72.427642, -38.6156], [-72.424439, -38.617868], [-72.423777, -38.619538], [-72.424133, -38.623283], [-72.423023, -38.624079], [-72.421328, -38.623958], [-72.420807, -38.624729], [-72.421666, -38.626562], [-72.425778, -38.627763], [-72.428682, -38.629764], [-72.428857, -38.630414], [-72.428098, -38.631212], [-72.426368, -38.631237], [-72.425216, -38.632004], [-72.427272, -38.634782], [-72.429825, -38.635528], [-72.434406, -38.634447], [-72.43696, -38.634581], [-72.442362, -38.63816], [-72.443644, -38.639974], [-72.443901, -38.641755], [-72.44292, -38.643301], [-72.437628, -38.644693], [-72.436166, -38.649116], [-72.437668, -38.653468], [-72.432899, -38.659631], [-72.438693, -38.665847], [-72.441278, -38.669684], [-72.441321, -38.671074], [-72.442246, -38.671596], [-72.445268, -38.672048], [-72.449952, -38.670643], [-72.452444, -38.671421], [-72.462264, -38.672151], [-72.46887, -38.674506], [-72.478561, -38.674316], [-72.484692, -38.677109], [-72.488724, -38.681988], [-72.492168, -38.68301], [-72.493195, -38.684647]], [[-71.885884, -38.480075], [-71.890529, -38.480692], [-71.893472, -38.48323], [-71.89459, -38.48338], [-71.898112, -38.482], [-71.900454, -38.479668], [-71.910651, -38.475432], [-71.91151, -38.475443], [-71.912322, -38.477497], [-71.913079, -38.477646], [-71.913763, -38.475945], [-71.921369, -38.473809], [-71.92304, -38.472801], [-71.922925, -38.471306], [-71.928027, -38.469614], [-71.931428, -38.467062], [-71.933453, -38.467005], [-71.940494, -38.469492], [-71.942857, -38.467633], [-71.943272, -38.465808], [-71.945587, -38.464456], [-71.946947, -38.464512], [-71.949307, -38.466243], [-71.952488, -38.465623], [-71.953223, -38.464842], [-71.951627, -38.463078], [-71.952505, -38.461337], [-71.955248, -38.461919], [-71.957485, -38.461576], [-71.958774, -38.460352], [-71.959355, -38.456981], [-71.959993, -38.456758], [-71.96157, -38.457729], [-71.963483, -38.456147], [-71.962126, -38.453526], [-71.962461, -38.452545], [-71.965422, -38.451759], [-71.971149, -38.451885], [-71.970186, -38.449862], [-71.971977, -38.449438], [-71.977007, -38.445354], [-71.98188, -38.442535], [-71.984847, -38.442943], [-71.987725, -38.444827], [-71.990042, -38.444814], [-71.989876, -38.442136], [-71.992276, -38.438077], [-71.997737, -38.432957], [-72.006969, -38.429797], [-72.011964, -38.430909], [-72.014075, -38.430759], [-72.018028, -38.428784], [-72.020458, -38.425971], [-72.022835, -38.425147], [-72.027247, -38.425843], [-72.032697, -38.428475], [-72.035838, -38.42338], [-72.039984, -38.421505], [-72.045569, -38.415964], [-72.04742, -38.416632], [-72.050285, -38.41952], [-72.053211, -38.420566], [-72.055598, -38.419728], [-72.056129, -38.418637], [-72.059828, -38.417542], [-72.064575, -38.417134], [-72.066698, -38.415749]], [[-71.877344, -38.492303], [-71.87898, -38.492177], [-71.883084, -38.488666], [-71.884234, -38.48549], [-71.886029, -38.483296], [-71.885433, -38.481142], [-71.885884, -38.480075]], [[-72.190234, -38.440754], [-72.197902, -38.443951], [-72.200735, -38.442632], [-72.204285, -38.442809]], [[-72.172607, -38.425845], [-72.178577, -38.429347], [-72.182914, -38.430883], [-72.185363, -38.433713], [-72.187984, -38.438852], [-72.190234, -38.440754]], [[-72.149509, -38.424079], [-72.153896, -38.424361], [-72.15551, -38.425357], [-72.156985, -38.424777], [-72.158933, -38.426029], [-72.160392, -38.426181], [-72.162395, -38.423107], [-72.166385, -38.424687], [-72.170887, -38.424656], [-72.172607, -38.425845]], [[-72.08701, -38.424809], [-72.088457, -38.425039], [-72.091863, -38.423999], [-72.096831, -38.421028], [-72.099103, -38.421154], [-72.101488, -38.422148], [-72.111787, -38.422215], [-72.12165, -38.419407], [-72.127215, -38.419794], [-72.137375, -38.421765], [-72.143436, -38.421813], [-72.149509, -38.424079]], [[-71.517624, -38.465462], [-71.520458, -38.468696], [-71.522003, -38.469046], [-71.52637, -38.472521], [-71.526794, -38.474179], [-71.525942, -38.474441], [-71.525714, -38.47584], [-71.530352, -38.47824], [-71.530645, -38.479427], [-71.535602, -38.480863], [-71.537968, -38.480173], [-71.539686, -38.481405], [-71.54073, -38.480852], [-71.54267, -38.481269], [-71.544772, -38.479898], [-71.545036, -38.479075], [-71.548321, -38.477956], [-71.548892, -38.478314], [-71.554339, -38.47706], [-71.55547, -38.474806], [-71.557284, -38.475558], [-71.558621, -38.475151], [-71.560894, -38.475757], [-71.563753, -38.475109], [-71.565749, -38.477067], [-71.569816, -38.477001], [-71.572917, -38.476148], [-71.573357, -38.477548], [-71.574147, -38.476889], [-71.575088, -38.477134], [-71.574683, -38.479284], [-71.575466, -38.479821], [-71.581029, -38.480295], [-71.58516, -38.479349], [-71.587343, -38.476822], [-71.59346, -38.475859], [-71.596717, -38.473397], [-71.597632, -38.473834], [-71.597961, -38.475467], [-71.600577, -38.475901], [-71.601362, -38.476976], [-71.606425, -38.476029], [-71.606661, -38.476532], [-71.605471, -38.476851], [-71.605747, -38.478341], [-71.606791, -38.47846], [-71.607834, -38.477197], [-71.609096, -38.477949], [-71.607853, -38.478761], [-71.608376, -38.47918], [-71.60943, -38.478598], [-71.610067, -38.477236], [-71.611573, -38.477028], [-71.610479, -38.475386], [-71.611349, -38.472157], [-71.616818, -38.469536], [-71.620549, -38.469341], [-71.623848, -38.467081], [-71.626789, -38.46675], [-71.628148, -38.46395], [-71.630098, -38.463296], [-71.632927, -38.464649], [-71.633528, -38.466417], [-71.636517, -38.468078], [-71.639719, -38.467492], [-71.641296, -38.468806], [-71.645494, -38.470506], [-71.647446, -38.470206], [-71.64949, -38.470735], [-71.651196, -38.46966], [-71.652794, -38.469914], [-71.654801, -38.471006], [-71.653618, -38.473131], [-71.655592, -38.474647], [-71.659106, -38.471854], [-71.661007, -38.471818], [-71.666218, -38.469306], [-71.670393, -38.47064], [-71.670179, -38.47162], [-71.670965, -38.472711], [-71.675356, -38.475186], [-71.678587, -38.474723], [-71.681446, -38.476955], [-71.686538, -38.47772], [-71.689345, -38.477198], [-71.691446, -38.478567], [-71.694074, -38.478649], [-71.697491, -38.477578], [-71.703346, -38.473185], [-71.708249, -38.47223], [-71.708944, -38.469742], [-71.710419, -38.467553], [-71.709783, -38.465989], [-71.706425, -38.463906], [-71.70768, -38.462633], [-71.70796, -38.460674], [-71.714316, -38.461671], [-71.715842, -38.463912], [-71.718318, -38.46324], [-71.723688, -38.463461], [-71.727376, -38.460751], [-71.731669, -38.460153], [-71.732684, -38.460549], [-71.733043, -38.461589], [-71.739384, -38.461572], [-71.742533, -38.462967], [-71.745567, -38.462574], [-71.74973, -38.464332], [-71.75386, -38.464996], [-71.757317, -38.463926], [-71.759635, -38.464811], [-71.761612, -38.464089], [-71.770758, -38.464964], [-71.772898, -38.468055], [-71.774618, -38.467091], [-71.77844, -38.468339], [-71.781527, -38.467308], [-71.782187, -38.46787], [-71.782115, -38.469229], [-71.784346, -38.470424], [-71.78977, -38.470556], [-71.794211, -38.475096], [-71.798724, -38.476703], [-71.798294, -38.478141], [-71.798833, -38.478952], [-71.802942, -38.480033], [-71.805562, -38.481629], [-71.810219, -38.480617], [-71.813628, -38.481083], [-71.814154, -38.481914], [-71.812316, -38.482647], [-71.812415, -38.484381], [-71.813716, -38.484705], [-71.814644, -38.486785], [-71.81639, -38.488009], [-71.818067, -38.488324], [-71.820438, -38.48722], [-71.822385, -38.487138], [-71.826274, -38.489275], [-71.827201, -38.491391], [-71.828718, -38.490831], [-71.830807, -38.491429], [-71.831448, -38.492783], [-71.830241, -38.494652], [-71.829346, -38.498378], [-71.831355, -38.500072], [-71.833189, -38.50338], [-71.834898, -38.504923], [-71.836609, -38.504327], [-71.835831, -38.502503], [-71.836051, -38.501235], [-71.837752, -38.501256], [-71.845232, -38.498953], [-71.851863, -38.499257], [-71.853217, -38.497929], [-71.855269, -38.497561], [-71.858541, -38.495114], [-71.868581, -38.491381], [-71.870107, -38.491364], [-71.87081, -38.492689], [-71.87516, -38.491118], [-71.877344, -38.492303]], [[-71.877344, -38.492303], [-71.87898, -38.492177], [-71.883084, -38.488666], [-71.884234, -38.48549], [-71.886029, -38.483296], [-71.885433, -38.481142], [-71.885884, -38.480075]], [[-71.885884, -38.480075], [-71.890529, -38.480692], [-71.893472, -38.48323], [-71.89459, -38.48338], [-71.898112, -38.482], [-71.900454, -38.479668], [-71.910651, -38.475432], [-71.91151, -38.475443], [-71.912322, -38.477497], [-71.913079, -38.477646], [-71.913763, -38.475945], [-71.921369, -38.473809], [-71.92304, -38.472801], [-71.922925, -38.471306], [-71.928027, -38.469614], [-71.931428, -38.467062], [-71.933453, -38.467005], [-71.940494, -38.469492], [-71.942857, -38.467633], [-71.943272, -38.465808], [-71.945587, -38.464456], [-71.946947, -38.464512], [-71.949307, -38.466243], [-71.952488, -38.465623], [-71.953223, -38.464842], [-71.951627, -38.463078], [-71.952505, -38.461337], [-71.955248, -38.461919], [-71.957485, -38.461576], [-71.958774, -38.460352], [-71.959355, -38.456981], [-71.959993, -38.456758], [-71.96157, -38.457729], [-71.963483, -38.456147], [-71.962126, -38.453526], [-71.962461, -38.452545], [-71.965422, -38.451759], [-71.971149, -38.451885], [-71.970186, -38.449862], [-71.971977, -38.449438], [-71.977007, -38.445354], [-71.98188, -38.442535], [-71.984847, -38.442943], [-71.987725, -38.444827], [-71.990042, -38.444814], [-71.989876, -38.442136], [-71.992276, -38.438077], [-71.997737, -38.432957], [-72.006969, -38.429797], [-72.011964, -38.430909], [-72.014075, -38.430759], [-72.018028, -38.428784], [-72.020458, -38.425971], [-72.022835, -38.425147], [-72.027247, -38.425843], [-72.032697, -38.428475], [-72.035838, -38.42338], [-72.039984, -38.421505], [-72.045569, -38.415964], [-72.04742, -38.416632], [-72.050285, -38.41952], [-72.053211, -38.420566], [-72.055598, -38.419728], [-72.056129, -38.418637], [-72.059828, -38.417542], [-72.064575, -38.417134], [-72.066698, -38.415749]], [[-72.066698, -38.415749], [-72.078794, -38.417033], [-72.084662, -38.418367], [-72.086717, -38.420085], [-72.08701, -38.424809]], [[-72.08701, -38.424809], [-72.088457, -38.425039], [-72.091863, -38.423999], [-72.096831, -38.421028], [-72.099103, -38.421154], [-72.101488, -38.422148], [-72.111787, -38.422215], [-72.12165, -38.419407], [-72.127215, -38.419794], [-72.137375, -38.421765], [-72.143436, -38.421813], [-72.149509, -38.424079]], [[-72.149509, -38.424079], [-72.153896, -38.424361], [-72.15551, -38.425357], [-72.156985, -38.424777], [-72.158933, -38.426029], [-72.160392, -38.426181], [-72.162395, -38.423107], [-72.166385, -38.424687], [-72.170887, -38.424656], [-72.172607, -38.425845]], [[-72.172607, -38.425845], [-72.178577, -38.429347], [-72.182914, -38.430883], [-72.185363, -38.433713], [-72.187984, -38.438852], [-72.190234, -38.440754]], [[-72.190234, -38.440754], [-72.197902, -38.443951], [-72.200735, -38.442632], [-72.204285, -38.442809]], [[-72.204285, -38.442809], [-72.205145, -38.443749], [-72.205094, -38.445289], [-72.20942, -38.448749], [-72.217904, -38.448174], [-72.22278, -38.451358], [-72.228557, -38.453564], [-72.231159, -38.453626], [-72.236371, -38.45211], [-72.239195, -38.453388], [-72.240375, -38.455076], [-72.241234, -38.455088], [-72.245048, -38.453412], [-72.247714, -38.450547], [-72.255825, -38.448505], [-72.257847, -38.448783], [-72.259489, -38.450803], [-72.262336, -38.451294]], [[-72.262336, -38.451294], [-72.26641, -38.451178], [-72.267474, -38.449207], [-72.269336, -38.448436], [-72.2751, -38.448059], [-72.286343, -38.450291], [-72.292646, -38.453568], [-72.297816, -38.454515], [-72.304317, -38.454205], [-72.310978, -38.459099], [-72.312257, -38.461225], [-72.313115, -38.465029], [-72.314377, -38.465652], [-72.317632, -38.465299], [-72.317761, -38.468589], [-72.320953, -38.473235], [-72.326557, -38.474618], [-72.329022, -38.477322], [-72.333384, -38.477639], [-72.339373, -38.480449], [-72.341307, -38.479634], [-72.344678, -38.481833], [-72.348037, -38.483109], [-72.349984, -38.483287], [-72.352317, -38.48258], [-72.35578, -38.484117], [-72.358961, -38.484283], [-72.361335, -38.486263], [-72.365356, -38.487016], [-72.367424, -38.488786], [-72.367346, -38.490457]], [[-72.367346, -38.490457], [-72.367512, -38.49203], [-72.371441, -38.492322], [-72.371889, -38.494039], [-72.37444, -38.494595], [-72.375658, -38.496228], [-72.380864, -38.499969], [-72.388235, -38.502395], [-72.39324, -38.504931], [-72.400289, -38.504944], [-72.402263, -38.505712], [-72.402703, -38.507106], [-72.401539, -38.509624], [-72.401775, -38.510351], [-72.40888, -38.51209], [-72.410529, -38.513648], [-72.412514, -38.517245], [-72.415904, -38.517612], [-72.419735, -38.520468], [-72.423624, -38.521994], [-72.424754, -38.524043], [-72.429391, -38.527085], [-72.428961, -38.531126], [-72.431767, -38.534881], [-72.431772, -38.537303], [-72.436375, -38.547767], [-72.437212, -38.553141], [-72.436037, -38.555541], [-72.435491, -38.56274], [-72.436104, -38.565398], [-72.437748, -38.567286], [-72.436509, -38.570012], [-72.43663, -38.571958], [-72.43925, -38.574307], [-72.439873, -38.576592], [-72.439755, -38.580798], [-72.44219, -38.585977], [-72.441836, -38.595009], [-72.442877, -38.597579], [-72.441938, -38.599122], [-72.434897, -38.60283], [-72.434699, -38.606699], [-72.433333, -38.610076], [-72.43063, -38.612251], [-72.428854, -38.612893], [-72.427642, -38.6156], [-72.424439, -38.617868], [-72.423777, -38.619538], [-72.424133, -38.623283], [-72.423023, -38.624079], [-72.421328, -38.623958], [-72.420807, -38.624729], [-72.421666, -38.626562], [-72.425778, -38.627763], [-72.428682, -38.629764], [-72.428857, -38.630414], [-72.428098, -38.631212], [-72.426368, -38.631237], [-72.425216, -38.632004], [-72.427272, -38.634782], [-72.429825, -38.635528], [-72.434406, -38.634447], [-72.43696, -38.634581], [-72.442362, -38.63816], [-72.443644, -38.639974], [-72.443901, -38.641755], [-72.44292, -38.643301], [-72.437628, -38.644693], [-72.436166, -38.649116], [-72.437668, -38.653468], [-72.432899, -38.659631], [-72.438693, -38.665847], [-72.441278, -38.669684], [-72.441321, -38.671074], [-72.442246, -38.671596], [-72.445268, -38.672048], [-72.449952, -38.670643], [-72.452444, -38.671421], [-72.462264, -38.672151], [-72.46887, -38.674506], [-72.478561, -38.674316], [-72.484692, -38.677109], [-72.488724, -38.681988], [-72.492168, -38.68301], [-72.493195, -38.684647]], [[-72.493195, -38.684647], [-72.495472, -38.685933], [-72.499683, -38.686607], [-72.502054, -38.686504], [-72.506992, -38.684865], [-72.509208, -38.684869]], [[-72.509208, -38.684869], [-72.510796, -38.686515], [-72.510871, -38.688646], [-72.513505, -38.692745], [-72.51513, -38.697263], [-72.517303, -38.698406], [-72.519813, -38.698435], [-72.522506, -38.6997], [-72.526959, -38.700394], [-72.52978, -38.704158]], [[-72.52978, -38.704158], [-72.530808, -38.705424], [-72.538304, -38.708666], [-72.540021, -38.711982], [-72.539906, -38.714784], [-72.541023, -38.716879], [-72.543808, -38.719269], [-72.547654, -38.720809], [-72.547644, -38.723592], [-72.549302, -38.726208], [-72.548786, -38.729184], [-72.549698, -38.731431]], [[-72.549698, -38.731431], [-72.551077, -38.732665], [-72.560202, -38.735921], [-72.564472, -38.738607], [-72.568383, -38.739708], [-72.577044, -38.747006], [-72.581806, -38.749092], [-72.586005, -38.748935], [-72.590736, -38.750188]], [[-72.590736, -38.750188], [-72.602095, -38.756681], [-72.612999, -38.758551], [-72.61832, -38.761697], [-72.624757, -38.762596], [-72.628239, -38.761772], [-72.632605, -38.761697], [-72.639123, -38.763976], [-72.650541, -38.764485], [-72.652978, -38.763904], [-72.658891, -38.759471], [-72.664915, -38.758946], [-72.669657, -38.762659], [-72.672796, -38.767398], [-72.678624, -38.769857], [-72.679206, -38.770719], [-72.678697, -38.772801], [-72.681137, -38.774014], [-72.682283, -38.773828], [-72.684125, -38.771091], [-72.688347, -38.766837], [-72.691147, -38.765633], [-72.695903, -38.766471], [-72.702573, -38.765516], [-72.709649, -38.766846], [-72.715885, -38.765411], [-72.722372, -38.767538], [-72.724232, -38.768943], [-72.724511, -38.770514], [-72.722459, -38.773199], [-72.7232, -38.774403], [-72.725472, -38.775359]], [[-72.725472, -38.775359], [-72.733478, -38.773123], [-72.739738, -38.775817], [-72.748938, -38.776323], [-72.755536, -38.775758], [-72.766995, -38.777958], [-72.770566, -38.779393], [-72.787099, -38.779272], [-72.79095, -38.781845], [-72.79651, -38.781178], [-72.800766, -38.778686], [-72.805034, -38.777741], [-72.810656, -38.778058], [-72.813778, -38.780162], [-72.815344, -38.780241], [-72.817439, -38.77908], [-72.818719, -38.776013], [-72.820913, -38.774512], [-72.822297, -38.774847], [-72.824614, -38.777339], [-72.829002, -38.778226], [-72.837676, -38.774725], [-72.839763, -38.77478], [-72.842478, -38.776176], [-72.84436, -38.776139], [-72.845761, -38.775662], [-72.846174, -38.774859], [-72.844377, -38.77094], [-72.846313, -38.769548], [-72.854931, -38.771639], [-72.861044, -38.772061], [-72.868702, -38.771139], [-72.875423, -38.77195], [-72.881547, -38.769849], [-72.884521, -38.768084], [-72.890942, -38.766572], [-72.895183, -38.766348], [-72.897554, -38.766917], [-72.900853, -38.769815], [-72.9028, -38.769748], [-72.903728, -38.767875], [-72.904812, -38.767578], [-72.906561, -38.768326], [-72.9083, -38.770511], [-72.911982, -38.770896], [-72.914192, -38.775643], [-72.918186, -38.778548], [-72.919487, -38.778401], [-72.922595, -38.776225], [-72.92351, -38.774794], [-72.924572, -38.774506], [-72.930172, -38.776465], [-72.933866, -38.779451], [-72.937894, -38.780944], [-72.941797, -38.781128], [-72.945743, -38.779748], [-72.952824, -38.779148], [-72.962619, -38.768226], [-72.964931, -38.767523], [-72.973836, -38.767134], [-72.977232, -38.765913], [-72.979699, -38.762659], [-72.980493, -38.760174], [-72.979002, -38.757212], [-72.979302, -38.754995], [-72.982414, -38.750812]]]}}