{"type": "Feature", "properties": {"id": "rio-claro-maule", "name": "Río Claro (Maule)", "type": "river", "region": "maule"}, "geometry": {"type": "MultiLineString", "coordinates": [[[-71.11867, -35.301962], [-71.121814, -35.301077], [-71.123149, -35.298499], [-71.129533, -35.292798], [-71.131684, -35.292049], [-71.13471, -35.292347], [-71.136539, -35.290692], [-71.140047, -35.28591], [-71.144575, -35.281479], [-71.145728, -35.275694], [-71.153957, -35.271209], [-71.156709, -35.26555], [-71.1615, -35.262708], [-71.161178, -35.261043], [-71.162943, -35.259655], [-71.163173, -35.258262], [-71.162964, -35.256431], [-71.16173, -35.255003], [-71.161827, -35.253912], [-71.166061, -35.251001], [-71.16894, -35.249991], [-71.172207, -35.249785], [-71.175587, -35.24742], [-71.176659, -35.246005], [-71.175895, -35.244364], [-71.176839, -35.242456], [-71.181718, -35.237558], [-71.189861, -35.231954], [-71.19382, -35.227554], [-71.202666, -35.221862], [-71.206786, -35.220166], [-71.207086, -35.219044], [-71.206115, -35.217295], [-71.207011, -35.21566], [-71.206845, -35.21392], [-71.210391, -35.211475], [-71.21126, -35.209888], [-71.211496, -35.206461], [-71.212429, -35.204037], [-71.215648, -35.199706], [-71.217665, -35.195344], [-71.220068, -35.192313], [-71.222638, -35.190969]], [[-70.838065, -35.541212], [-70.84839, -35.540046], [-70.849984, -35.541674], [-70.857351, -35.541872], [-70.861384, -35.544678], [-70.863368, -35.544995], [-70.864181, -35.544267], [-70.867986, -35.544611], [-70.871661, -35.543579], [-70.873173, -35.544162], [-70.874848, -35.543421], [-70.875515, -35.544069], [-70.877532, -35.544043], [-70.892249, -35.540152], [-70.895761, -35.540615], [-70.899567, -35.539305], [-70.903112, -35.538948], [-70.903518, -35.537466], [-70.904591, -35.536857], [-70.906185, -35.536646], [-70.907047, -35.5374], [-70.908852, -35.536407], [-70.910625, -35.537651], [-70.923293, -35.538366], [-70.936848, -35.542341], [-70.937964, -35.542965], [-70.938206, -35.544156], [-70.939713, -35.544628], [-70.944726, -35.548396]], [[-70.944726, -35.548396], [-70.945279, -35.549679], [-70.947669, -35.550468], [-70.950249, -35.553492], [-70.950721, -35.555334], [-70.952304, -35.557445], [-70.951865, -35.559205], [-70.953524, -35.559469], [-70.95358, -35.560815], [-70.954927, -35.562225], [-70.954809, -35.563167], [-70.953468, -35.564167], [-70.953687, -35.565419], [-70.95258, -35.56906], [-70.95406, -35.57201], [-70.952857, -35.574271], [-70.953036, -35.574986], [-70.9511, -35.575447], [-70.948734, -35.579998], [-70.943672, -35.580337], [-70.943549, -35.581345], [-70.941655, -35.582662], [-70.939853, -35.586188], [-70.938463, -35.587038], [-70.936173, -35.587213], [-70.933399, -35.58949], [-70.932898, -35.594094], [-70.935395, -35.599837], [-70.934617, -35.601198], [-70.93172, -35.602977], [-70.931876, -35.604949], [-70.931237, -35.606702], [-70.927954, -35.609253], [-70.929561, -35.615839]], [[-70.864043, -35.497793], [-70.867283, -35.498303], [-70.872964, -35.496268], [-70.876231, -35.496965], [-70.880184, -35.496286], [-70.880798, -35.496677], [-70.881155, -35.496013], [-70.882848, -35.496633], [-70.883843, -35.495973], [-70.887166, -35.499472], [-70.892664, -35.497657], [-70.897981, -35.499483], [-70.901269, -35.498769], [-70.902286, -35.499236], [-70.906074, -35.496726], [-70.908048, -35.498048], [-70.913517, -35.498446], [-70.914176, -35.499442], [-70.915534, -35.498987], [-70.917637, -35.499494], [-70.920727, -35.498376], [-70.925877, -35.500472], [-70.930685, -35.49997]], [[-71.004933, -35.471821], [-71.009245, -35.471839], [-71.009607, -35.469003], [-71.010648, -35.466787], [-71.014, -35.464765], [-71.02264, -35.461629], [-71.0272, -35.461159], [-71.028195, -35.459748], [-71.029502, -35.459201], [-71.030869, -35.459285], [-71.031876, -35.458604], [-71.033404, -35.459607], [-71.03473, -35.459507], [-71.036519, -35.457342], [-71.036115, -35.45611]], [[-71.058149, -35.412863], [-71.060804, -35.412068], [-71.063213, -35.412501], [-71.06575, -35.411263], [-71.068566, -35.411665], [-71.073174, -35.408491], [-71.078684, -35.407849], [-71.080433, -35.406222], [-71.08569, -35.404451], [-71.086253, -35.40216], [-71.088812, -35.401626], [-71.090282, -35.397744], [-71.094514, -35.392842], [-71.095115, -35.389234], [-71.098119, -35.387003], [-71.102008, -35.385433], [-71.103548, -35.383964], [-71.103709, -35.382621], [-71.102035, -35.381869], [-71.102057, -35.380784], [-71.106455, -35.378326], [-71.108365, -35.375304], [-71.109685, -35.375028], [-71.113179, -35.371567], [-71.113359, -35.368405], [-71.112024, -35.366446], [-71.111761, -35.364779], [-71.1147, -35.358418], [-71.11351, -35.352551], [-71.115414, -35.349913], [-71.115049, -35.348377], [-71.112748, -35.34583], [-71.112785, -35.344732], [-71.114304, -35.345213], [-71.114314, -35.343866], [-71.112726, -35.341109], [-71.110991, -35.335516], [-71.11389, -35.333177], [-71.112233, -35.33198], [-71.1155, -35.330164], [-71.116095, -35.321433], [-71.114357, -35.316014], [-71.117286, -35.312516], [-71.117238, -35.310363], [-71.118584, -35.306699], [-71.117721, -35.303595], [-71.11867, -35.301962]], [[-71.03822, -35.451713], [-71.038032, -35.450252], [-71.039081, -35.448712], [-71.03905, -35.447467], [-71.040263, -35.444986], [-71.044622, -35.439865], [-71.04462, -35.437471], [-71.046217, -35.436622], [-71.047005, -35.434657], [-71.050301, -35.431176], [-71.052868, -35.425069], [-71.054442, -35.423471], [-71.057202, -35.422558], [-71.056923, -35.420451], [-71.057843, -35.419248], [-71.056137, -35.417414], [-71.056073, -35.415661], [-71.056719, -35.413834], [-71.058149, -35.412863]], [[-70.953203, -35.487687], [-70.955269, -35.484687], [-70.957255, -35.485372], [-70.957915, -35.484717], [-70.963735, -35.48385], [-70.96938, -35.480257], [-70.97463, -35.480853], [-70.979786, -35.479001], [-70.986401, -35.478032]], [[-71.002332, -35.473234], [-71.004933, -35.471821]], [[-71.036115, -35.45611], [-71.037046, -35.455373], [-71.03822, -35.451713]], [[-70.995055, -35.476548], [-71.002332, -35.473234]], [[-70.986401, -35.478032], [-70.988537, -35.476971], [-70.99265, -35.477352], [-70.993696, -35.476171], [-70.995055, -35.476548]], [[-71.222638, -35.190969], [-71.222459, -35.189675], [-71.224086, -35.187628], [-71.224612, -35.185717], [-71.226919, -35.185344], [-71.227756, -35.184489], [-71.22782, -35.181508], [-71.232439, -35.179938], [-71.237015, -35.180504], [-71.239053, -35.177702], [-71.244723, -35.178154], [-71.247266, -35.175497], [-71.250174, -35.17405], [-71.25122, -35.175549], [-71.252469, -35.175786], [-71.257271, -35.174545], [-71.261128, -35.171622], [-71.261385, -35.170397], [-71.260468, -35.168941], [-71.26035, -35.167332], [-71.262748, -35.16274], [-71.264319, -35.162525], [-71.266916, -35.164056], [-71.26867, -35.163749], [-71.271036, -35.161315], [-71.274941, -35.15917], [-71.278342, -35.158626], [-71.279801, -35.155736], [-71.281421, -35.154416], [-71.286716, -35.154034], [-71.289157, -35.151411], [-71.293207, -35.151609], [-71.29458, -35.150657], [-71.296935, -35.14731], [-71.298603, -35.147622], [-71.301382, -35.144249], [-71.304054, -35.143468], [-71.304413, -35.140064], [-71.305706, -35.139783], [-71.307369, -35.138359]], [[-70.838065, -35.541212], [-70.84839, -35.540046], [-70.849984, -35.541674], [-70.857351, -35.541872], [-70.861384, -35.544678], [-70.863368, -35.544995], [-70.864181, -35.544267], [-70.867986, -35.544611], [-70.871661, -35.543579], [-70.873173, -35.544162], [-70.874848, -35.543421], [-70.875515, -35.544069], [-70.877532, -35.544043], [-70.892249, -35.540152], [-70.895761, -35.540615], [-70.899567, -35.539305], [-70.903112, -35.538948], [-70.903518, -35.537466], [-70.904591, -35.536857], [-70.906185, -35.536646], [-70.907047, -35.5374], [-70.908852, -35.536407], [-70.910625, -35.537651], [-70.923293, -35.538366], [-70.936848, -35.542341], [-70.937964, -35.542965], [-70.938206, -35.544156], [-70.939713, -35.544628], [-70.944726, -35.548396]], [[-70.944726, -35.548396], [-70.945279, -35.549679], [-70.947669, -35.550468], [-70.950249, -35.553492], [-70.950721, -35.555334], [-70.952304, -35.557445], [-70.951865, -35.559205], [-70.953524, -35.559469], [-70.95358, -35.560815], [-70.954927, -35.562225], [-70.954809, -35.563167], [-70.953468, -35.564167], [-70.953687, -35.565419], [-70.95258, -35.56906], [-70.95406, -35.57201], [-70.952857, -35.574271], [-70.953036, -35.574986], [-70.9511, -35.575447], [-70.948734, -35.579998], [-70.943672, -35.580337], [-70.943549, -35.581345], [-70.941655, -35.582662], [-70.939853, -35.586188], [-70.938463, -35.587038], [-70.936173, -35.587213], [-70.933399, -35.58949], [-70.932898, -35.594094], [-70.935395, -35.599837], [-70.934617, -35.601198], [-70.93172, -35.602977], [-70.931876, -35.604949], [-70.931237, -35.606702], [-70.927954, -35.609253], [-70.929561, -35.615839]]]}}