{"type": "Feature", "properties": {"id": "rio-grande-tdf", "name": "Río Grande (Tierra del Fuego)", "type": "river", "region": "magallanes"}, "geometry": {"type": "MultiLineString", "coordinates": [[[-69.205868, -53.85372], [-69.199681, -53.855691], [-69.195585, -53.852918], [-69.193582, -53.853534], [-69.192167, -53.853021], [-69.190816, -53.854624], [-69.189682, -53.854895], [-69.187083, -53.852571], [-69.187571, -53.850552], [-69.184467, -53.84985], [-69.182901, -53.850365], [-69.182102, -53.851376], [-69.184545, -53.853932], [-69.184288, -53.854376], [-69.180071, -53.854387], [-69.180396, -53.852835], [-69.179723, -53.852593], [-69.178854, -53.853117], [-69.178518, -53.854688], [-69.177282, -53.854862], [-69.176383, -53.854213], [-69.177775, -53.853167], [-69.177159, -53.852658], [-69.174549, -53.853838], [-69.174176, -53.855199], [-69.173216, -53.855368], [-69.172494, -53.854473], [-69.17291, -53.852463], [-69.170871, -53.852242], [-69.170056, -53.852691], [-69.171263, -53.854147], [-69.170796, -53.855099], [-69.167293, -53.855229], [-69.166419, -53.856418], [-69.16467, -53.856871], [-69.163436, -53.854596], [-69.159772, -53.852612], [-69.159982, -53.850723], [-69.158635, -53.850058], [-69.156285, -53.851236], [-69.156033, -53.852973], [-69.15444, -53.853495], [-69.149333, -53.852571], [-69.147633, -53.851653], [-69.143695, -53.852239], [-69.143883, -53.851283], [-69.14241, -53.85071], [-69.140243, -53.851073], [-69.139516, -53.848634], [-69.137478, -53.845416], [-69.133573, -53.844235], [-69.132838, -53.845451], [-69.130735, -53.845267], [-69.130923, -53.844153], [-69.132907, -53.843571], [-69.130853, -53.842033], [-69.129538, -53.842479], [-69.13008, -53.843742], [-69.12956, -53.844435], [-69.125869, -53.845368], [-69.119679, -53.84472], [-69.120231, -53.84346], [-69.117619, -53.842251], [-69.116685, -53.843552], [-69.117023, -53.84496], [-69.112718, -53.846564], [-69.111227, -53.846286], [-69.110878, -53.845595], [-69.11343, -53.845151], [-69.113558, -53.844326], [-69.112369, -53.844103], [-69.109934, -53.844916], [-69.109349, -53.844571], [-69.109236, -53.843056], [-69.10832, -53.842622], [-69.105602, -53.843958], [-69.102412, -53.844042], [-69.101634, -53.844849], [-69.10161, -53.846313], [-69.100789, -53.846937], [-69.099213, -53.846725], [-69.097873, -53.845155], [-69.096108, -53.845066], [-69.095542, -53.845695], [-69.097146, -53.847521], [-69.094938, -53.848385], [-69.095589, -53.849871], [-69.094442, -53.854025], [-69.093376, -53.85455], [-69.093829, -53.855836], [-69.091682, -53.857297], [-69.090517, -53.861008], [-69.093466, -53.862268], [-69.091762, -53.863475], [-69.093163, -53.86454], [-69.092412, -53.866356], [-69.093458, -53.868151], [-69.092148, -53.868928], [-69.093943, -53.871388], [-69.094122, -53.873207], [-69.095563, -53.874261], [-69.100044, -53.875246], [-69.100941, -53.878499], [-69.098883, -53.87999], [-69.103666, -53.882529], [-69.10315, -53.883087], [-69.100122, -53.88318], [-69.09971, -53.884204], [-69.103818, -53.88593], [-69.101, -53.887879], [-69.099362, -53.891005], [-69.09654, -53.891048], [-69.091785, -53.892638], [-69.091055, -53.894236], [-69.091284, -53.896456], [-69.089457, -53.897102], [-69.093804, -53.89787], [-69.094414, -53.898391], [-69.093979, -53.898902], [-69.089704, -53.898169], [-69.083848, -53.901756], [-69.084332, -53.90254], [-69.086073, -53.902601], [-69.087139, -53.902243], [-69.08752, -53.901076], [-69.088415, -53.900561], [-69.091013, -53.899926], [-69.092265, -53.900266], [-69.091152, -53.902916], [-69.087707, -53.904958], [-69.091381, -53.906335], [-69.091679, -53.908631], [-69.090381, -53.910647], [-69.08871, -53.910371], [-69.087337, -53.908927], [-69.08728, -53.907609], [-69.086344, -53.907189], [-69.082037, -53.908295], [-69.079556, -53.909761], [-69.075953, -53.909088], [-69.072764, -53.910611], [-69.068609, -53.9099], [-69.066979, -53.911673], [-69.065439, -53.912137], [-69.063218, -53.911003], [-69.059104, -53.91184], [-69.057166, -53.910549], [-69.056165, -53.908773], [-69.054655, -53.908349], [-69.053338, -53.908458], [-69.053156, -53.90964], [-69.05164, -53.910769], [-69.049891, -53.910739], [-69.045935, -53.907853], [-69.044577, -53.908316], [-69.042762, -53.910509], [-69.039709, -53.910866], [-69.037462, -53.910434], [-69.035208, -53.908051], [-69.03455, -53.908955], [-69.036063, -53.910864], [-69.034437, -53.911323], [-69.032897, -53.910822], [-69.032567, -53.909044], [-69.027137, -53.907643], [-69.026005, -53.908146], [-69.027116, -53.909884], [-69.02488, -53.910559], [-69.024291, -53.911916], [-69.022937, -53.911651], [-69.021687, -53.909714], [-69.018291, -53.909742], [-69.017057, -53.90881], [-69.015201, -53.910238], [-69.012787, -53.910922], [-69.009681, -53.909818], [-69.009955, -53.911486], [-69.011009, -53.912439], [-69.008869, -53.913755], [-69.007316, -53.913417], [-69.007546, -53.911338], [-69.007096, -53.910889], [-69.002877, -53.912518], [-69.000184, -53.910862], [-68.999052, -53.911513], [-68.998411, -53.91282], [-68.994404, -53.912738], [-68.99373, -53.913436], [-68.993669, -53.915643], [-68.992153, -53.916278], [-68.990764, -53.915602], [-68.991426, -53.914186], [-68.990951, -53.913077], [-68.992393, -53.91175], [-68.989555, -53.911094], [-68.986665, -53.913153], [-68.984082, -53.913815], [-68.985196, -53.915714], [-68.983905, -53.920009], [-68.982516, -53.922258], [-68.980746, -53.922825], [-68.97868, -53.922416], [-68.977677, -53.921857], [-68.977484, -53.920461], [-68.97625, -53.920176], [-68.973276, -53.922176], [-68.973584, -53.922812], [-68.975993, -53.923639], [-68.975644, -53.924751], [-68.971095, -53.924793], [-68.968987, -53.92582], [-68.96601, -53.92618], [-68.966331, -53.927055], [-68.969598, -53.927469], [-68.971809, -53.928998]], [[-69.205868, -53.85372], [-69.199681, -53.855691], [-69.195585, -53.852918], [-69.193582, -53.853534], [-69.192167, -53.853021], [-69.190816, -53.854624], [-69.189682, -53.854895], [-69.187083, -53.852571], [-69.187571, -53.850552], [-69.184467, -53.84985], [-69.182901, -53.850365], [-69.182102, -53.851376], [-69.184545, -53.853932], [-69.184288, -53.854376], [-69.180071, -53.854387], [-69.180396, -53.852835], [-69.179723, -53.852593], [-69.178854, -53.853117], [-69.178518, -53.854688], [-69.177282, -53.854862], [-69.176383, -53.854213], [-69.177775, -53.853167], [-69.177159, -53.852658], [-69.174549, -53.853838], [-69.174176, -53.855199], [-69.173216, -53.855368], [-69.172494, -53.854473], [-69.17291, -53.852463], [-69.170871, -53.852242], [-69.170056, -53.852691], [-69.171263, -53.854147], [-69.170796, -53.855099], [-69.167293, -53.855229], [-69.166419, -53.856418], [-69.16467, -53.856871], [-69.163436, -53.854596], [-69.159772, -53.852612], [-69.159982, -53.850723], [-69.158635, -53.850058], [-69.156285, -53.851236], [-69.156033, -53.852973], [-69.15444, -53.853495], [-69.149333, -53.852571], [-69.147633, -53.851653], [-69.143695, -53.852239], [-69.143883, -53.851283], [-69.14241, -53.85071], [-69.140243, -53.851073], [-69.139516, -53.848634], [-69.137478, -53.845416], [-69.133573, -53.844235], [-69.132838, -53.845451], [-69.130735, -53.845267], [-69.130923, -53.844153], [-69.132907, -53.843571], [-69.130853, -53.842033], [-69.129538, -53.842479], [-69.13008, -53.843742], [-69.12956, -53.844435], [-69.125869, -53.845368], [-69.119679, -53.84472], [-69.120231, -53.84346], [-69.117619, -53.842251], [-69.116685, -53.843552], [-69.117023, -53.84496], [-69.112718, -53.846564], [-69.111227, -53.846286], [-69.110878, -53.845595], [-69.11343, -53.845151], [-69.113558, -53.844326], [-69.112369, -53.844103], [-69.109934, -53.844916], [-69.109349, -53.844571], [-69.109236, -53.843056], [-69.10832, -53.842622], [-69.105602, -53.843958], [-69.102412, -53.844042], [-69.101634, -53.844849], [-69.10161, -53.846313], [-69.100789, -53.846937], [-69.099213, -53.846725], [-69.097873, -53.845155], [-69.096108, -53.845066], [-69.095542, -53.845695], [-69.097146, -53.847521], [-69.094938, -53.848385], [-69.095589, -53.849871], [-69.094442, -53.854025], [-69.093376, -53.85455], [-69.093829, -53.855836], [-69.091682, -53.857297], [-69.090517, -53.861008], [-69.093466, -53.862268], [-69.091762, -53.863475], [-69.093163, -53.86454], [-69.092412, -53.866356], [-69.093458, -53.868151], [-69.092148, -53.868928], [-69.093943, -53.871388], [-69.094122, -53.873207], [-69.095563, -53.874261], [-69.100044, -53.875246], [-69.100941, -53.878499], [-69.098883, -53.87999], [-69.103666, -53.882529], [-69.10315, -53.883087], [-69.100122, -53.88318], [-69.09971, -53.884204], [-69.103818, -53.88593], [-69.101, -53.887879], [-69.099362, -53.891005], [-69.09654, -53.891048], [-69.091785, -53.892638], [-69.091055, -53.894236], [-69.091284, -53.896456], [-69.089457, -53.897102], [-69.093804, -53.89787], [-69.094414, -53.898391], [-69.093979, -53.898902], [-69.089704, -53.898169], [-69.083848, -53.901756], [-69.084332, -53.90254], [-69.086073, -53.902601], [-69.087139, -53.902243], [-69.08752, -53.901076], [-69.088415, -53.900561], [-69.091013, -53.899926], [-69.092265, -53.900266], [-69.091152, -53.902916], [-69.087707, -53.904958], [-69.091381, -53.906335], [-69.091679, -53.908631], [-69.090381, -53.910647], [-69.08871, -53.910371], [-69.087337, -53.908927], [-69.08728, -53.907609], [-69.086344, -53.907189], [-69.082037, -53.908295], [-69.079556, -53.909761], [-69.075953, -53.909088], [-69.072764, -53.910611], [-69.068609, -53.9099], [-69.066979, -53.911673], [-69.065439, -53.912137], [-69.063218, -53.911003], [-69.059104, -53.91184], [-69.057166, -53.910549], [-69.056165, -53.908773], [-69.054655, -53.908349], [-69.053338, -53.908458], [-69.053156, -53.90964], [-69.05164, -53.910769], [-69.049891, -53.910739], [-69.045935, -53.907853], [-69.044577, -53.908316], [-69.042762, -53.910509], [-69.039709, -53.910866], [-69.037462, -53.910434], [-69.035208, -53.908051], [-69.03455, -53.908955], [-69.036063, -53.910864], [-69.034437, -53.911323], [-69.032897, -53.910822], [-69.032567, -53.909044], [-69.027137, -53.907643], [-69.026005, -53.908146], [-69.027116, -53.909884], [-69.02488, -53.910559], [-69.024291, -53.911916], [-69.022937, -53.911651], [-69.021687, -53.909714], [-69.018291, -53.909742], [-69.017057, -53.90881], [-69.015201, -53.910238], [-69.012787, -53.910922], [-69.009681, -53.909818], [-69.009955, -53.911486], [-69.011009, -53.912439], [-69.008869, -53.913755], [-69.007316, -53.913417], [-69.007546, -53.911338], [-69.007096, -53.910889], [-69.002877, -53.912518], [-69.000184, -53.910862], [-68.999052, -53.911513], [-68.998411, -53.91282], [-68.994404, -53.912738], [-68.99373, -53.913436], [-68.993669, -53.915643], [-68.992153, -53.916278], [-68.990764, -53.915602], [-68.991426, -53.914186], [-68.990951, -53.913077], [-68.992393, -53.91175], [-68.989555, -53.911094], [-68.986665, -53.913153], [-68.984082, -53.913815], [-68.985196, -53.915714], [-68.983905, -53.920009], [-68.982516, -53.922258], [-68.980746, -53.922825], [-68.97868, -53.922416], [-68.977677, -53.921857], [-68.977484, -53.920461], [-68.97625, -53.920176], [-68.973276, -53.922176], [-68.973584, -53.922812], [-68.975993, -53.923639], [-68.975644, -53.924751], [-68.971095, -53.924793], [-68.968987, -53.92582], [-68.96601, -53.92618], [-68.966331, -53.927055], [-68.969598, -53.927469], [-68.971809, -53.928998]]]}}