{"type": "Feature", "properties": {"id": "rio-serrano", "name": "Río Serrano", "type": "river", "region": "magallanes"}, "geometry": {"type": "MultiLineString", "coordinates": [[[-72.956705, -51.189923], [-72.958907, -51.190787], [-72.963765, -51.19624], [-72.962975, -51.201008], [-72.96674, -51.203318], [-72.967451, -51.204836], [-72.963607, -51.211261], [-72.963186, -51.214543], [-72.968083, -51.217676], [-72.970374, -51.221098], [-72.974507, -51.222665], [-72.975271, -51.223506], [-72.969056, -51.226117], [-72.970269, -51.231095], [-72.97188, -51.233957], [-72.973638, -51.233675], [-72.973767, -51.230496], [-72.97514, -51.228767], [-72.977028, -51.227931], [-72.979388, -51.228038], [-72.981341, -51.229228], [-72.981544, -51.231375], [-72.982671, -51.232426], [-72.984281, -51.232936], [-72.990825, -51.232661], [-72.995406, -51.233836], [-72.996047, -51.23444], [-72.996308, -51.237397], [-72.997217, -51.23853], [-72.999333, -51.239109], [-73.003843, -51.238773], [-73.008077, -51.242266], [-73.010953, -51.243234], [-73.014536, -51.240789], [-73.015373, -51.237968], [-73.018034, -51.235657], [-73.022754, -51.235354], [-73.02637, -51.239046], [-73.028784, -51.2396], [-73.030232, -51.238095], [-73.03094, -51.234911], [-73.035103, -51.232446], [-73.040242, -51.230686], [-73.042967, -51.233655], [-73.050252, -51.232842], [-73.051711, -51.233171], [-73.05758, -51.237551], [-73.061936, -51.239687], [-73.065884, -51.239378], [-73.072815, -51.236463], [-73.075433, -51.236544], [-73.077879, -51.23743], [-73.079875, -51.240359], [-73.083029, -51.251816], [-73.085067, -51.253844], [-73.089209, -51.254395], [-73.094852, -51.253401], [-73.104873, -51.247827], [-73.109357, -51.246833], [-73.112222, -51.247915], [-73.117994, -51.254207], [-73.118434, -51.256893], [-73.119925, -51.259437], [-73.119389, -51.261344], [-73.117812, -51.262633], [-73.110956, -51.264547], [-73.10836, -51.267124], [-73.108081, -51.268467], [-73.109508, -51.271555], [-73.109926, -51.274763], [-73.112844, -51.280233], [-73.115172, -51.282917], [-73.114561, -51.2895], [-73.117511, -51.295941], [-73.122661, -51.30556], [-73.126845, -51.30731], [-73.128884, -51.309349], [-73.131223, -51.314996], [-73.13148, -51.317504], [-73.128938, -51.323901], [-73.122135, -51.331456], [-73.117211, -51.332301], [-73.109615, -51.331892], [-73.107362, -51.332944], [-73.102512, -51.352487], [-73.100667, -51.353908], [-73.09747, -51.354805], [-73.09041, -51.354336], [-73.086698, -51.355127], [-73.079252, -51.362135], [-73.076763, -51.367494], [-73.077106, -51.372959], [-73.087964, -51.380259], [-73.089359, -51.382991], [-73.089691, -51.38577], [-73.08908, -51.38674], [-73.083833, -51.388843], [-73.079521, -51.391414], [-73.071624, -51.394279], [-73.070433, -51.395276], [-73.070197, -51.397057], [-73.075004, -51.405872], [-73.077664, -51.408067], [-73.082085, -51.409861], [-73.088034, -51.414475]]]}}