{"type": "Feature", "properties": {"id": "rio-biobio", "name": "Río Biobío", "type": "river", "region": "biobio"}, "geometry": {"type": "GeometryCollection", "geometries": [{"type": "MultiPolygon", "coordinates": [[[[-71.479596, -38.044188], [-71.47803, -38.043877], [-71.476504, -38.045185], [-71.476895, -38.045822], [-71.479596, -38.044188]]]]}, {"type": "MultiLineString", "coordinates": [[[-71.10559, -38.647143], [-71.107783, -38.64654], [-71.108598, -38.645699], [-71.108848, -38.642287], [-71.110296, -38.637592], [-71.112906, -38.634296], [-71.114628, -38.633775], [-71.117576, -38.63562], [-71.121307, -38.635583], [-71.124536, -38.637003], [-71.12783, -38.637133], [-71.128943, -38.636511], [-71.129544, -38.634743], [-71.131443, -38.633064], [-71.133342, -38.627602], [-71.13447, -38.626505], [-71.137794, -38.626581], [-71.139452, -38.625689], [-71.141324, -38.623655], [-71.144332, -38.621821], [-71.145696, -38.619928], [-71.148183, -38.619404], [-71.151927, -38.620314], [-71.153099, -38.619574], [-71.154137, -38.616673], [-71.153053, -38.61336], [-71.150692, -38.610813], [-71.150779, -38.608317], [-71.145033, -38.604536], [-71.145129, -38.597716], [-71.144443, -38.594761], [-71.13939, -38.591202], [-71.138529, -38.589807], [-71.139884, -38.58695], [-71.13979, -38.583797], [-71.141903, -38.582866], [-71.144755, -38.580134], [-71.146603, -38.580301], [-71.149349, -38.579469], [-71.14922, -38.575628], [-71.150733, -38.573646], [-71.153965, -38.573382], [-71.15709, -38.57516], [-71.166226, -38.572465], [-71.176016, -38.571803], [-71.176922, -38.571107], [-71.177528, -38.569295], [-71.177751, -38.564257], [-71.180091, -38.561433], [-71.182182, -38.560157], [-71.183673, -38.5616], [-71.185205, -38.561397], [-71.186911, -38.559348], [-71.187434, -38.555914], [-71.188257, -38.554727], [-71.190473, -38.553825], [-71.193928, -38.554194], [-71.195089, -38.553735], [-71.196521, -38.544289], [-71.193933, -38.538473], [-71.194705, -38.532867], [-71.19337, -38.528667], [-71.196007, -38.52159], [-71.195309, -38.517031], [-71.198367, -38.515211], [-71.200419, -38.512938], [-71.202832, -38.507828], [-71.203305, -38.504511], [-71.202291, -38.499471], [-71.203852, -38.499251], [-71.206631, -38.500836], [-71.207505, -38.504646], [-71.209379, -38.506388], [-71.214406, -38.50783], [-71.216308, -38.507408], [-71.21983, -38.504469], [-71.221137, -38.500801], [-71.222804, -38.498856], [-71.223998, -38.495164], [-71.229708, -38.489584], [-71.230392, -38.487997], [-71.230312, -38.485918], [-71.231371, -38.483894], [-71.235258, -38.480707], [-71.236363, -38.478996], [-71.236926, -38.474049], [-71.23467, -38.471398], [-71.231709, -38.469534], [-71.229842, -38.466081], [-71.232286, -38.4619], [-71.231387, -38.456878], [-71.23504, -38.454572], [-71.234644, -38.452417], [-71.233708, -38.45123], [-71.232047, -38.450757], [-71.227595, -38.451375], [-71.225959, -38.450963], [-71.224135, -38.450043], [-71.223748, -38.448749], [-71.225358, -38.443619], [-71.225749, -38.438888], [-71.227428, -38.437556], [-71.231422, -38.436955], [-71.231538, -38.435524], [-71.230041, -38.434253], [-71.23055, -38.432728], [-71.233678, -38.428538], [-71.238833, -38.423903], [-71.239589, -38.420873], [-71.241778, -38.419486], [-71.243007, -38.417784], [-71.243565, -38.414005], [-71.246697, -38.407065], [-71.246614, -38.403769], [-71.244503, -38.402218], [-71.242567, -38.399244], [-71.241904, -38.394756], [-71.235668, -38.387364], [-71.23518, -38.385413], [-71.235711, -38.383826], [-71.242175, -38.379497], [-71.242596, -38.377083], [-71.244219, -38.375426], [-71.252276, -38.373087], [-71.252942, -38.371607], [-71.251788, -38.366337], [-71.252646, -38.364806], [-71.262705, -38.36264], [-71.271041, -38.363694], [-71.277178, -38.362833], [-71.280555, -38.357273], [-71.280608, -38.355943], [-71.279672, -38.35473], [-71.279031, -38.351953], [-71.278956, -38.348821], [-71.27953, -38.347593], [-71.281437, -38.346347], [-71.285686, -38.344387], [-71.290954, -38.34339], [-71.295256, -38.340457], [-71.300532, -38.339144], [-71.310351, -38.339771], [-71.315147, -38.335652], [-71.316413, -38.329967], [-71.317883, -38.327269], [-71.32159, -38.322865], [-71.326112, -38.314008], [-71.330559, -38.309946], [-71.334376, -38.308067], [-71.335409, -38.306475], [-71.336139, -38.303983], [-71.334566, -38.301163], [-71.33023, -38.295991], [-71.329191, -38.293442], [-71.321383, -38.289252], [-71.320506, -38.287886], [-71.321032, -38.285532], [-71.325519, -38.282237], [-71.326077, -38.281075], [-71.322505, -38.275677], [-71.318581, -38.273085], [-71.317819, -38.271301], [-71.31828, -38.27028], [-71.320713, -38.268856], [-71.321756, -38.266527], [-71.324267, -38.26373], [-71.323926, -38.26225], [-71.317293, -38.257494], [-71.311867, -38.260634], [-71.305932, -38.261973], [-71.302576, -38.262064], [-71.301876, -38.261485], [-71.303584, -38.258065], [-71.308659, -38.254533], [-71.31243, -38.249853], [-71.311537, -38.243565], [-71.31269, -38.238349], [-71.310925, -38.235317], [-71.306199, -38.23361], [-71.304576, -38.232017], [-71.306167, -38.229148], [-71.30614, -38.223381], [-71.295935, -38.213789], [-71.297048, -38.209281], [-71.300218, -38.206511], [-71.299365, -38.205017], [-71.299333, -38.201193], [-71.297568, -38.195757], [-71.300073, -38.193032], [-71.301307, -38.185912], [-71.30979, -38.179767]], [[-72.5874, -37.558978], [-72.590039, -37.555958], [-72.592067, -37.550285], [-72.596541, -37.529587], [-72.602634, -37.525426], [-72.605059, -37.522669], [-72.605006, -37.520865], [-72.603879, -37.519266], [-72.596101, -37.516957], [-72.594813, -37.515002], [-72.595769, -37.508818], [-72.597023, -37.506951], [-72.600725, -37.503777], [-72.605113, -37.500934], [-72.61229, -37.497946], [-72.623588, -37.499197], [-72.634397, -37.498236], [-72.642318, -37.49385], [-72.645998, -37.493037], [-72.647854, -37.491128], [-72.655876, -37.489646], [-72.668735, -37.484858], [-72.679903, -37.479439], [-72.683991, -37.476765], [-72.684678, -37.473121], [-72.682575, -37.46653], [-72.682888, -37.452796], [-72.681608, -37.443017], [-72.671616, -37.421718], [-72.669341, -37.418542], [-72.66454, -37.415232], [-72.663424, -37.413451], [-72.663832, -37.409505], [-72.667083, -37.400569], [-72.665441, -37.395613], [-72.669057, -37.38974], [-72.66911, -37.386799], [-72.667115, -37.382042], [-72.667839, -37.377062], [-72.673595, -37.369236], [-72.679882, -37.362261], [-72.701125, -37.355132], [-72.705374, -37.352659], [-72.706897, -37.350817], [-72.707863, -37.346927], [-72.706468, -37.338739], [-72.707455, -37.325345], [-72.711253, -37.315294], [-72.717626, -37.302323], [-72.720394, -37.291484], [-72.722175, -37.286875], [-72.725566, -37.280387], [-72.728679, -37.276491]], [[-72.337985, -37.580624], [-72.345985, -37.574851], [-72.346736, -37.57278], [-72.3457, -37.570697], [-72.347208, -37.568571], [-72.34872, -37.567729], [-72.351581, -37.567569], [-72.35397, -37.568201], [-72.360238, -37.572818], [-72.361751, -37.576084], [-72.371417, -37.576947], [-72.37514, -37.576641], [-72.379979, -37.575051], [-72.38574, -37.570527], [-72.38934, -37.569166], [-72.394272, -37.569287], [-72.395182, -37.572115], [-72.399017, -37.572731], [-72.407364, -37.567695], [-72.416076, -37.565212], [-72.419257, -37.56519], [-72.423892, -37.566959], [-72.430758, -37.567633], [-72.432432, -37.565973], [-72.432684, -37.56303], [-72.435206, -37.559186], [-72.437966, -37.557156], [-72.439704, -37.556754], [-72.441141, -37.557938], [-72.444996, -37.558097], [-72.450521, -37.561708], [-72.458375, -37.564008], [-72.461518, -37.564166], [-72.466539, -37.561954], [-72.473314, -37.564497], [-72.474972, -37.56353], [-72.479646, -37.562416], [-72.482715, -37.563766], [-72.483397, -37.564806], [-72.483453, -37.566947], [-72.484735, -37.567744], [-72.489923, -37.568333], [-72.495411, -37.567467], [-72.500163, -37.568222], [-72.50247, -37.569995], [-72.504991, -37.576266], [-72.509358, -37.581857]], [[-71.150133, -38.726532], [-71.143837, -38.721297], [-71.141716, -38.721401], [-71.140411, -38.722819], [-71.139068, -38.723082], [-71.136112, -38.722019], [-71.12978, -38.721343], [-71.126143, -38.7216], [-71.119089, -38.720191], [-71.115544, -38.718675], [-71.11476, -38.716924], [-71.115695, -38.714478], [-71.114357, -38.712068], [-71.112524, -38.710958], [-71.11078, -38.707231], [-71.11103, -38.705373], [-71.110531, -38.704484], [-71.108077, -38.704455], [-71.108328, -38.703263], [-71.106288, -38.702054], [-71.104055, -38.69939], [-71.099667, -38.698203], [-71.098865, -38.6968], [-71.099793, -38.694784], [-71.099115, -38.693774], [-71.097522, -38.693354], [-71.094737, -38.693943], [-71.094013, -38.693497], [-71.093565, -38.69151], [-71.091957, -38.689924], [-71.091515, -38.688363], [-71.089477, -38.686892], [-71.090571, -38.681766], [-71.090292, -38.678743], [-71.091571, -38.677824], [-71.092221, -38.676353], [-71.090351, -38.673807], [-71.090071, -38.6697], [-71.089016, -38.667606], [-71.089304, -38.665688], [-71.08877, -38.664747], [-71.087962, -38.664641], [-71.088102, -38.663136], [-71.094744, -38.656781], [-71.095363, -38.654802], [-71.099211, -38.653362], [-71.10559, -38.647143]], [[-71.149095, -38.607197], [-71.148067, -38.605129], [-71.147946, -38.600885], [-71.145107, -38.59756]], [[-72.509358, -37.581857], [-72.511783, -37.581989], [-72.515098, -37.580186], [-72.520012, -37.579455], [-72.524298, -37.580148], [-72.527704, -37.57974], [-72.534624, -37.580318], [-72.545777, -37.58309], [-72.548116, -37.581253], [-72.5587, -37.577189], [-72.561645, -37.577942], [-72.564772, -37.579744], [-72.568294, -37.579174], [-72.574246, -37.57994], [-72.575093, -37.577261], [-72.580088, -37.569285], [-72.579691, -37.564238], [-72.5874, -37.558978]], [[-71.257641, -38.687863], [-71.256528, -38.689099], [-71.253191, -38.687918], [-71.250064, -38.687943], [-71.244848, -38.693547], [-71.241006, -38.693275], [-71.240959, -38.697068], [-71.236017, -38.698459], [-71.232053, -38.700661], [-71.230214, -38.702756], [-71.22568, -38.702482], [-71.217424, -38.704521], [-71.217687, -38.705081], [-71.220836, -38.705734], [-71.220777, -38.706622], [-71.212525, -38.707162], [-71.211244, -38.709485], [-71.210188, -38.71], [-71.20833, -38.709321], [-71.208168, -38.707934], [-71.207107, -38.706698], [-71.205216, -38.706727], [-71.203993, -38.70801], [-71.205429, -38.710276], [-71.204316, -38.711566], [-71.197029, -38.7136], [-71.19463, -38.711829], [-71.192707, -38.713391], [-71.190473, -38.714203], [-71.190134, -38.714899], [-71.19111, -38.71664], [-71.187898, -38.718545], [-71.18657, -38.720621], [-71.185004, -38.720566], [-71.182504, -38.721768], [-71.181725, -38.723928], [-71.179285, -38.724781], [-71.173062, -38.725124], [-71.172009, -38.727399], [-71.168203, -38.727767], [-71.162929, -38.731996], [-71.157269, -38.732276], [-71.151591, -38.730732], [-71.150897, -38.729441], [-71.151099, -38.727385], [-71.150133, -38.726532]], [[-71.817219, -37.712247], [-71.819998, -37.711306], [-71.823514, -37.709094], [-71.825577, -37.70872], [-71.8286, -37.709464], [-71.832563, -37.707454], [-71.838185, -37.706096], [-71.84797, -37.70613], [-71.851103, -37.705077], [-71.861922, -37.703883], [-71.86595, -37.705507], [-71.871126, -37.709789], [-71.87575, -37.712243], [-71.885707, -37.715014], [-71.894499, -37.715484], [-71.926718, -37.694535], [-71.942166, -37.687393], [-71.948733, -37.685035], [-71.951909, -37.684525], [-71.955804, -37.684797], [-71.966994, -37.689517], [-71.971682, -37.689781], [-71.976135, -37.687174], [-71.978195, -37.683498], [-71.980802, -37.681383], [-71.996123, -37.676773], [-72.000189, -37.673011], [-72.003654, -37.671525], [-72.012119, -37.672756], [-72.021271, -37.677736], [-72.037117, -37.67908], [-72.040261, -37.676747], [-72.047122, -37.673639], [-72.050802, -37.670034], [-72.055802, -37.666811], [-72.059144, -37.665342], [-72.066842, -37.663401], [-72.073204, -37.654685], [-72.079544, -37.649405], [-72.085735, -37.647343], [-72.092775, -37.648534], [-72.098759, -37.65093], [-72.106087, -37.649957], [-72.114868, -37.652], [-72.125173, -37.649868], [-72.127555, -37.650798], [-72.128896, -37.652548], [-72.135293, -37.65389], [-72.148176, -37.663556], [-72.149831, -37.66384], [-72.152888, -37.662753], [-72.158521, -37.663407]], [[-72.158521, -37.663407], [-72.167689, -37.664668], [-72.175081, -37.662936]], [[-71.612398, -37.910227], [-71.625859, -37.905064], [-71.6276, -37.900648], [-71.629295, -37.898362], [-71.632381, -37.896116], [-71.633923, -37.891769], [-71.64014, -37.89097], [-71.642634, -37.888978], [-71.646035, -37.887382], [-71.648251, -37.88463], [-71.650214, -37.879511], [-71.654516, -37.875548], [-71.657225, -37.870602], [-71.660771, -37.870051], [-71.670325, -37.870386], [-71.672895, -37.869315], [-71.674955, -37.867612], [-71.676017, -37.86563], [-71.676124, -37.863047], [-71.670577, -37.86098], [-71.675169, -37.853043], [-71.678165, -37.851661], [-71.680428, -37.849102], [-71.682102, -37.845714], [-71.685836, -37.844019], [-71.689312, -37.843341], [-71.691252, -37.84097], [-71.690512, -37.837437], [-71.683345, -37.834725], [-71.679657, -37.832014], [-71.67771, -37.828842], [-71.677768, -37.827039], [-71.680212, -37.823442], [-71.680528, -37.821438], [-71.677954, -37.818082], [-71.677498, -37.814726], [-71.674762, -37.812441], [-71.676495, -37.809021], [-71.679262, -37.808826], [-71.681119, -37.807199]], [[-72.01021, -37.672314], [-72.014164, -37.672628], [-72.017827, -37.67142], [-72.023928, -37.672081], [-72.026969, -37.671046], [-72.031308, -37.670637], [-72.035025, -37.672987], [-72.039226, -37.673786], [-72.050802, -37.670034]], [[-71.478799, -38.0444], [-71.479468, -38.043892], [-71.480661, -38.04011], [-71.481018, -38.036389], [-71.48246, -38.033322], [-71.479022, -38.031036], [-71.478685, -38.02257], [-71.481121, -38.013377], [-71.481279, -38.008303], [-71.484198, -38.004037], [-71.48793, -38.00329], [-71.490807, -38.003772], [-71.495998, -38.007407], [-71.497122, -38.009362], [-71.499478, -38.009503], [-71.503091, -38.005073], [-71.508175, -38.002861], [-71.511421, -38.002539], [-71.523856, -37.992039], [-71.52969, -37.991185], [-71.537497, -37.988451], [-71.540058, -37.988561], [-71.541939, -37.98963]], [[-71.681119, -37.807199], [-71.682559, -37.805789], [-71.685535, -37.804561], [-71.694977, -37.804968], [-71.698156, -37.802129], [-71.698449, -37.797922], [-71.703631, -37.779302], [-71.704332, -37.777701], [-71.706821, -37.776548], [-71.708281, -37.774513], [-71.712529, -37.772138], [-71.714589, -37.771765], [-71.724073, -37.771562], [-71.731, -37.772167]], [[-72.175081, -37.662936], [-72.178716, -37.661598], [-72.182042, -37.662397], [-72.187198, -37.661526], [-72.192396, -37.657258], [-72.201252, -37.653249], [-72.20519, -37.650556], [-72.205678, -37.647798], [-72.203742, -37.644481], [-72.205619, -37.636478], [-72.208908, -37.633525], [-72.212705, -37.627082], [-72.214937, -37.624779], [-72.218719, -37.623734], [-72.224217, -37.623607], [-72.227361, -37.622264], [-72.229051, -37.617607], [-72.228847, -37.61286], [-72.23051, -37.611261], [-72.234346, -37.610743], [-72.242194, -37.611958], [-72.246915, -37.611418], [-72.25958, -37.616254], [-72.26495, -37.616258], [-72.266425, -37.614788], [-72.265373, -37.612689], [-72.266752, -37.605622], [-72.270078, -37.601419], [-72.279755, -37.601223], [-72.289428, -37.602039], [-72.292973, -37.600603], [-72.297657, -37.596386], [-72.301803, -37.594937], [-72.306257, -37.594857], [-72.311281, -37.596582], [-72.31523, -37.596067], [-72.31758, -37.593432], [-72.32369, -37.59001], [-72.325584, -37.589713], [-72.327628, -37.590686], [-72.330337, -37.589998], [-72.33251, -37.587789], [-72.334525, -37.582948], [-72.337985, -37.580624]], [[-72.178716, -37.661598], [-72.186184, -37.659076], [-72.188571, -37.657364], [-72.192991, -37.656957]], [[-72.134472, -37.65355], [-72.140592, -37.654685], [-72.144492, -37.657301], [-72.147136, -37.657606], [-72.147909, -37.658562], [-72.151975, -37.660634], [-72.152406, -37.662766]], [[-72.159674, -37.663666], [-72.163852, -37.667021], [-72.168837, -37.664499]], [[-72.117959, -37.654379], [-72.120663, -37.655003], [-72.12276, -37.653835]], [[-72.114868, -37.652], [-72.117959, -37.654379], [-72.12003, -37.65361], [-72.12276, -37.653835], [-72.129808, -37.652769]], [[-72.728679, -37.276491], [-72.738805, -37.257796], [-72.740758, -37.252552], [-72.741101, -37.242594], [-72.74226, -37.23829], [-72.760026, -37.219428], [-72.774425, -37.206645], [-72.781012, -37.204116], [-72.788415, -37.204235], [-72.79202, -37.205432], [-72.800775, -37.210131], [-72.806139, -37.210883], [-72.8091, -37.209824], [-72.817619, -37.200356], [-72.821031, -37.198561], [-72.826288, -37.198048], [-72.842456, -37.199689], [-72.849741, -37.199552], [-72.854204, -37.197997], [-72.861886, -37.193484], [-72.8668, -37.189365], [-72.872465, -37.183143], [-72.876735, -37.180749], [-72.894223, -37.175808], [-72.920734, -37.171068], [-72.924242, -37.169302], [-72.930669, -37.163831], [-72.935014, -37.158384], [-72.939069, -37.150466], [-72.941237, -37.147704], [-72.954744, -37.135961], [-72.95836, -37.131898], [-72.964089, -37.123456], [-72.972393, -37.116321], [-72.974378, -37.11366], [-72.976567, -37.107474], [-72.977414, -37.0957], [-72.97853, -37.089405], [-72.978884, -37.076246], [-72.976942, -37.056941], [-72.974625, -37.048481], [-72.97323, -37.03925], [-72.974067, -37.031233], [-72.978251, -37.018076], [-72.978358, -37.010709], [-72.97765, -37.007916], [-72.975655, -37.004129], [-72.967973, -36.997737], [-72.958317, -36.990848], [-72.954283, -36.987009], [-72.952514, -36.983], [-72.95196, -36.979321], [-72.952276, -36.976655], [-72.953585, -36.973527], [-72.956032, -36.970981], [-72.96072, -36.970201], [-72.98574, -36.974864], [-72.991104, -36.974753], [-72.99605, -36.973852], [-73.00679, -36.97045], [-73.013635, -36.967175], [-73.019578, -36.962975], [-73.027636, -36.955087], [-73.038386, -36.941403], [-73.042796, -36.931198], [-73.044105, -36.925863], [-73.047152, -36.899048], [-73.050542, -36.880771], [-73.054962, -36.86539], [-73.061421, -36.847672], [-73.064897, -36.841438], [-73.07054, -36.834758], [-73.080733, -36.824324], [-73.095206, -36.811982], [-73.099953, -36.809353], [-73.107855, -36.807897], [-73.112115, -36.808881], [-73.119797, -36.813949], [-73.124195, -36.814919], [-73.151608, -36.815916], [-73.165555, -36.813751], [-73.169995, -36.81508]], [[-71.476651, -38.045424], [-71.478799, -38.0444]], [[-72.558121, -37.577214], [-72.562889, -37.574742], [-72.571379, -37.573552], [-72.5732, -37.571368], [-72.573889, -37.567106], [-72.579691, -37.564238]], [[-71.257641, -38.687863], [-71.256528, -38.689099], [-71.253191, -38.687918], [-71.250064, -38.687943], [-71.244848, -38.693547], [-71.241006, -38.693275], [-71.240959, -38.697068], [-71.236017, -38.698459], [-71.232053, -38.700661], [-71.230214, -38.702756], [-71.22568, -38.702482], [-71.217424, -38.704521], [-71.217687, -38.705081], [-71.220836, -38.705734], [-71.220777, -38.706622], [-71.212525, -38.707162], [-71.211244, -38.709485], [-71.210188, -38.71], [-71.20833, -38.709321], [-71.208168, -38.707934], [-71.207107, -38.706698], [-71.205216, -38.706727], [-71.203993, -38.70801], [-71.205429, -38.710276], [-71.204316, -38.711566], [-71.197029, -38.7136], [-71.19463, -38.711829], [-71.192707, -38.713391], [-71.190473, -38.714203], [-71.190134, -38.714899], [-71.19111, -38.71664], [-71.187898, -38.718545], [-71.18657, -38.720621], [-71.185004, -38.720566], [-71.182504, -38.721768], [-71.181725, -38.723928], [-71.179285, -38.724781], [-71.173062, -38.725124], [-71.172009, -38.727399], [-71.168203, -38.727767], [-71.162929, -38.731996], [-71.157269, -38.732276], [-71.151591, -38.730732], [-71.150897, -38.729441], [-71.151099, -38.727385], [-71.150133, -38.726532]], [[-71.150133, -38.726532], [-71.143837, -38.721297], [-71.141716, -38.721401], [-71.140411, -38.722819], [-71.139068, -38.723082], [-71.136112, -38.722019], [-71.12978, -38.721343], [-71.126143, -38.7216], [-71.119089, -38.720191], [-71.115544, -38.718675], [-71.11476, -38.716924], [-71.115695, -38.714478], [-71.114357, -38.712068], [-71.112524, -38.710958], [-71.11078, -38.707231], [-71.11103, -38.705373], [-71.110531, -38.704484], [-71.108077, -38.704455], [-71.108328, -38.703263], [-71.106288, -38.702054], [-71.104055, -38.69939], [-71.099667, -38.698203], [-71.098865, -38.6968], [-71.099793, -38.694784], [-71.099115, -38.693774], [-71.097522, -38.693354], [-71.094737, -38.693943], [-71.094013, -38.693497], [-71.093565, -38.69151], [-71.091957, -38.689924], [-71.091515, -38.688363], [-71.089477, -38.686892], [-71.090571, -38.681766], [-71.090292, -38.678743], [-71.091571, -38.677824], [-71.092221, -38.676353], [-71.090351, -38.673807], [-71.090071, -38.6697], [-71.089016, -38.667606], [-71.089304, -38.665688], [-71.08877, -38.664747], [-71.087962, -38.664641], [-71.088102, -38.663136], [-71.094744, -38.656781], [-71.095363, -38.654802], [-71.099211, -38.653362], [-71.10559, -38.647143]], [[-71.10559, -38.647143], [-71.107783, -38.64654], [-71.108598, -38.645699], [-71.108848, -38.642287], [-71.110296, -38.637592], [-71.112906, -38.634296], [-71.114628, -38.633775], [-71.117576, -38.63562], [-71.121307, -38.635583], [-71.124536, -38.637003], [-71.12783, -38.637133], [-71.128943, -38.636511], [-71.129544, -38.634743], [-71.131443, -38.633064], [-71.133342, -38.627602], [-71.13447, -38.626505], [-71.137794, -38.626581], [-71.139452, -38.625689], [-71.141324, -38.623655], [-71.144332, -38.621821], [-71.145696, -38.619928], [-71.148183, -38.619404], [-71.151927, -38.620314], [-71.153099, -38.619574], [-71.154137, -38.616673], [-71.153053, -38.61336], [-71.150692, -38.610813], [-71.150779, -38.608317], [-71.145033, -38.604536], [-71.145129, -38.597716], [-71.144443, -38.594761], [-71.13939, -38.591202], [-71.138529, -38.589807], [-71.139884, -38.58695], [-71.13979, -38.583797], [-71.141903, -38.582866], [-71.144755, -38.580134], [-71.146603, -38.580301], [-71.149349, -38.579469], [-71.14922, -38.575628], [-71.150733, -38.573646], [-71.153965, -38.573382], [-71.15709, -38.57516], [-71.166226, -38.572465], [-71.176016, -38.571803], [-71.176922, -38.571107], [-71.177528, -38.569295], [-71.177751, -38.564257], [-71.180091, -38.561433], [-71.182182, -38.560157], [-71.183673, -38.5616], [-71.185205, -38.561397], [-71.186911, -38.559348], [-71.187434, -38.555914], [-71.188257, -38.554727], [-71.190473, -38.553825], [-71.193928, -38.554194], [-71.195089, -38.553735], [-71.196521, -38.544289], [-71.193933, -38.538473], [-71.194705, -38.532867], [-71.19337, -38.528667], [-71.196007, -38.52159], [-71.195309, -38.517031], [-71.198367, -38.515211], [-71.200419, -38.512938], [-71.202832, -38.507828], [-71.203305, -38.504511], [-71.202291, -38.499471], [-71.203852, -38.499251], [-71.206631, -38.500836], [-71.207505, -38.504646], [-71.209379, -38.506388], [-71.214406, -38.50783], [-71.216308, -38.507408], [-71.21983, -38.504469], [-71.221137, -38.500801], [-71.222804, -38.498856], [-71.223998, -38.495164], [-71.229708, -38.489584], [-71.230392, -38.487997], [-71.230312, -38.485918], [-71.231371, -38.483894], [-71.235258, -38.480707], [-71.236363, -38.478996], [-71.236926, -38.474049], [-71.23467, -38.471398], [-71.231709, -38.469534], [-71.229842, -38.466081], [-71.232286, -38.4619], [-71.231387, -38.456878], [-71.23504, -38.454572], [-71.234644, -38.452417], [-71.233708, -38.45123], [-71.232047, -38.450757], [-71.227595, -38.451375], [-71.225959, -38.450963], [-71.224135, -38.450043], [-71.223748, -38.448749], [-71.225358, -38.443619], [-71.225749, -38.438888], [-71.227428, -38.437556], [-71.231422, -38.436955], [-71.231538, -38.435524], [-71.230041, -38.434253], [-71.23055, -38.432728], [-71.233678, -38.428538], [-71.238833, -38.423903], [-71.239589, -38.420873], [-71.241778, -38.419486], [-71.243007, -38.417784], [-71.243565, -38.414005], [-71.246697, -38.407065], [-71.246614, -38.403769], [-71.244503, -38.402218], [-71.242567, -38.399244], [-71.241904, -38.394756], [-71.235668, -38.387364], [-71.23518, -38.385413], [-71.235711, -38.383826], [-71.242175, -38.379497], [-71.242596, -38.377083], [-71.244219, -38.375426], [-71.252276, -38.373087], [-71.252942, -38.371607], [-71.251788, -38.366337], [-71.252646, -38.364806], [-71.262705, -38.36264], [-71.271041, -38.363694], [-71.277178, -38.362833], [-71.280555, -38.357273], [-71.280608, -38.355943], [-71.279672, -38.35473], [-71.279031, -38.351953], [-71.278956, -38.348821], [-71.27953, -38.347593], [-71.281437, -38.346347], [-71.285686, -38.344387], [-71.290954, -38.34339], [-71.295256, -38.340457], [-71.300532, -38.339144], [-71.310351, -38.339771], [-71.315147, -38.335652], [-71.316413, -38.329967], [-71.317883, -38.327269], [-71.32159, -38.322865], [-71.326112, -38.314008], [-71.330559, -38.309946], [-71.334376, -38.308067], [-71.335409, -38.306475], [-71.336139, -38.303983], [-71.334566, -38.301163], [-71.33023, -38.295991], [-71.329191, -38.293442], [-71.321383, -38.289252], [-71.320506, -38.287886], [-71.321032, -38.285532], [-71.325519, -38.282237], [-71.326077, -38.281075], [-71.322505, -38.275677], [-71.318581, -38.273085], [-71.317819, -38.271301], [-71.31828, -38.27028], [-71.320713, -38.268856], [-71.321756, -38.266527], [-71.324267, -38.26373], [-71.323926, -38.26225], [-71.317293, -38.257494], [-71.311867, -38.260634], [-71.305932, -38.261973], [-71.302576, -38.262064], [-71.301876, -38.261485], [-71.303584, -38.258065], [-71.308659, -38.254533], [-71.31243, -38.249853], [-71.311537, -38.243565], [-71.31269, -38.238349], [-71.310925, -38.235317], [-71.306199, -38.23361], [-71.304576, -38.232017], [-71.306167, -38.229148], [-71.30614, -38.223381], [-71.295935, -38.213789], [-71.297048, -38.209281], [-71.300218, -38.206511], [-71.299365, -38.205017], [-71.299333, -38.201193], [-71.297568, -38.195757], [-71.300073, -38.193032], [-71.301307, -38.185912], [-71.30979, -38.179767]], [[-71.30979, -38.179767], [-71.311907, -38.178042], [-71.312529, -38.173452], [-71.314758, -38.169009], [-71.317331, -38.165934], [-71.318009, -38.161635], [-71.320251, -38.159304], [-71.323213, -38.159483], [-71.324337, -38.158753], [-71.324645, -38.157138], [-71.322797, -38.154107], [-71.322856, -38.152654], [-71.329728, -38.146864], [-71.335092, -38.139978], [-71.335442, -38.13649], [-71.334435, -38.132985], [-71.335564, -38.126012], [-71.334192, -38.122488], [-71.333291, -38.117299], [-71.333757, -38.114853], [-71.335056, -38.113261], [-71.345045, -38.106919], [-71.352013, -38.107552], [-71.361158, -38.106152], [-71.370374, -38.101308], [-71.375148, -38.101975], [-71.381389, -38.105318], [-71.383088, -38.104913], [-71.38518, -38.103039], [-71.391274, -38.102085], [-71.396252, -38.100244], [-71.399653, -38.100743], [-71.405876, -38.104086], [-71.408322, -38.104626], [-71.413407, -38.103664], [-71.414888, -38.101941], [-71.422548, -38.085544], [-71.426979, -38.078349], [-71.428653, -38.073307], [-71.430627, -38.071432], [-71.436346, -38.069092], [-71.438706, -38.06747], [-71.43935, -38.065342], [-71.439328, -38.060561], [-71.440186, -38.058837], [-71.453694, -38.048302], [-71.456194, -38.047854], [-71.464423, -38.048666], [-71.471922, -38.047474], [-71.475099, -38.046126]], [[-71.475099, -38.046126], [-71.47534, -38.046017]], [[-71.47534, -38.046017], [-71.476651, -38.045424]], [[-71.476651, -38.045424], [-71.478799, -38.0444]], [[-71.478799, -38.0444], [-71.479468, -38.043892], [-71.480661, -38.04011], [-71.481018, -38.036389], [-71.48246, -38.033322], [-71.479022, -38.031036], [-71.478685, -38.02257], [-71.481121, -38.013377], [-71.481279, -38.008303], [-71.484198, -38.004037], [-71.48793, -38.00329], [-71.490807, -38.003772], [-71.495998, -38.007407], [-71.497122, -38.009362], [-71.499478, -38.009503], [-71.503091, -38.005073], [-71.508175, -38.002861], [-71.511421, -38.002539], [-71.523856, -37.992039], [-71.52969, -37.991185], [-71.537497, -37.988451], [-71.540058, -37.988561], [-71.541939, -37.98963]], [[-71.541939, -37.98963], [-71.543955, -37.989022], [-71.545576, -37.986633], [-71.552571, -37.983725], [-71.553183, -37.982346], [-71.552936, -37.97657], [-71.554416, -37.974574], [-71.56272, -37.971107], [-71.567999, -37.96703], [-71.567892, -37.965913], [-71.566218, -37.963553], [-71.56643, -37.960006], [-71.570563, -37.953944], [-71.571465, -37.944654], [-71.568589, -37.934264], [-71.568761, -37.932199], [-71.579661, -37.926089], [-71.581593, -37.925767], [-71.592407, -37.928002], [-71.596441, -37.928036], [-71.599681, -37.924972], [-71.600068, -37.921316], [-71.601205, -37.918116], [-71.602192, -37.916999], [-71.607363, -37.914274], [-71.611523, -37.91062]], [[-71.611523, -37.91062], [-71.611733, -37.910526]], [[-71.611733, -37.910526], [-71.612398, -37.910227]], [[-71.612398, -37.910227], [-71.625859, -37.905064], [-71.6276, -37.900648], [-71.629295, -37.898362], [-71.632381, -37.896116], [-71.633923, -37.891769], [-71.64014, -37.89097], [-71.642634, -37.888978], [-71.646035, -37.887382], [-71.648251, -37.88463], [-71.650214, -37.879511], [-71.654516, -37.875548], [-71.657225, -37.870602], [-71.660771, -37.870051], [-71.670325, -37.870386], [-71.672895, -37.869315], [-71.674955, -37.867612], [-71.676017, -37.86563], [-71.676124, -37.863047], [-71.670577, -37.86098], [-71.675169, -37.853043], [-71.678165, -37.851661], [-71.680428, -37.849102], [-71.682102, -37.845714], [-71.685836, -37.844019], [-71.689312, -37.843341], [-71.691252, -37.84097], [-71.690512, -37.837437], [-71.683345, -37.834725], [-71.679657, -37.832014], [-71.67771, -37.828842], [-71.677768, -37.827039], [-71.680212, -37.823442], [-71.680528, -37.821438], [-71.677954, -37.818082], [-71.677498, -37.814726], [-71.674762, -37.812441], [-71.676495, -37.809021], [-71.679262, -37.808826], [-71.681119, -37.807199]], [[-71.681119, -37.807199], [-71.682559, -37.805789], [-71.685535, -37.804561], [-71.694977, -37.804968], [-71.698156, -37.802129], [-71.698449, -37.797922], [-71.703631, -37.779302], [-71.704332, -37.777701], [-71.706821, -37.776548], [-71.708281, -37.774513], [-71.712529, -37.772138], [-71.714589, -37.771765], [-71.724073, -37.771562], [-71.731, -37.772167]], [[-71.731, -37.772167], [-71.735691, -37.772648], [-71.7426, -37.770893], [-71.744338, -37.769706], [-71.747076, -37.765727], [-71.750261, -37.764252], [-71.760517, -37.765236], [-71.77219, -37.763972], [-71.776482, -37.76242], [-71.777759, -37.760809], [-71.777952, -37.758764], [-71.774175, -37.753217], [-71.774765, -37.751325], [-71.776587, -37.74999], [-71.787876, -37.747372], [-71.788734, -37.745692], [-71.788949, -37.740466], [-71.794206, -37.738854], [-71.808344, -37.72973], [-71.812249, -37.724706], [-71.812352, -37.719637], [-71.813411, -37.715482], [-71.814101, -37.714336], [-71.816763, -37.71256]], [[-71.816763, -37.71256], [-71.816907, -37.712461]], [[-71.816907, -37.712461], [-71.817219, -37.712247]], [[-71.817219, -37.712247], [-71.819998, -37.711306], [-71.823514, -37.709094], [-71.825577, -37.70872], [-71.8286, -37.709464], [-71.832563, -37.707454], [-71.838185, -37.706096], [-71.84797, -37.70613], [-71.851103, -37.705077], [-71.861922, -37.703883], [-71.86595, -37.705507], [-71.871126, -37.709789], [-71.87575, -37.712243], [-71.885707, -37.715014], [-71.894499, -37.715484], [-71.926718, -37.694535], [-71.942166, -37.687393], [-71.948733, -37.685035], [-71.951909, -37.684525], [-71.955804, -37.684797], [-71.966994, -37.689517], [-71.971682, -37.689781], [-71.976135, -37.687174], [-71.978195, -37.683498], [-71.980802, -37.681383], [-71.996123, -37.676773], [-72.000189, -37.673011], [-72.003654, -37.671525], [-72.012119, -37.672756], [-72.021271, -37.677736], [-72.037117, -37.67908], [-72.040261, -37.676747], [-72.047122, -37.673639], [-72.050802, -37.670034], [-72.055802, -37.666811], [-72.059144, -37.665342], [-72.066842, -37.663401], [-72.073204, -37.654685], [-72.079544, -37.649405], [-72.085735, -37.647343], [-72.092775, -37.648534], [-72.098759, -37.65093], [-72.106087, -37.649957], [-72.114868, -37.652], [-72.125173, -37.649868], [-72.127555, -37.650798], [-72.128896, -37.652548], [-72.135293, -37.65389], [-72.148176, -37.663556], [-72.149831, -37.66384], [-72.152888, -37.662753], [-72.158521, -37.663407]], [[-72.158521, -37.663407], [-72.167689, -37.664668], [-72.175081, -37.662936]], [[-72.175081, -37.662936], [-72.178716, -37.661598], [-72.182042, -37.662397], [-72.187198, -37.661526], [-72.192396, -37.657258], [-72.201252, -37.653249], [-72.20519, -37.650556], [-72.205678, -37.647798], [-72.203742, -37.644481], [-72.205619, -37.636478], [-72.208908, -37.633525], [-72.212705, -37.627082], [-72.214937, -37.624779], [-72.218719, -37.623734], [-72.224217, -37.623607], [-72.227361, -37.622264], [-72.229051, -37.617607], [-72.228847, -37.61286], [-72.23051, -37.611261], [-72.234346, -37.610743], [-72.242194, -37.611958], [-72.246915, -37.611418], [-72.25958, -37.616254], [-72.26495, -37.616258], [-72.266425, -37.614788], [-72.265373, -37.612689], [-72.266752, -37.605622], [-72.270078, -37.601419], [-72.279755, -37.601223], [-72.289428, -37.602039], [-72.292973, -37.600603], [-72.297657, -37.596386], [-72.301803, -37.594937], [-72.306257, -37.594857], [-72.311281, -37.596582], [-72.31523, -37.596067], [-72.31758, -37.593432], [-72.32369, -37.59001], [-72.325584, -37.589713], [-72.327628, -37.590686], [-72.330337, -37.589998], [-72.33251, -37.587789], [-72.334525, -37.582948], [-72.337985, -37.580624]], [[-72.337985, -37.580624], [-72.345985, -37.574851], [-72.346736, -37.57278], [-72.3457, -37.570697], [-72.347208, -37.568571], [-72.34872, -37.567729], [-72.351581, -37.567569], [-72.35397, -37.568201], [-72.360238, -37.572818], [-72.361751, -37.576084], [-72.371417, -37.576947], [-72.37514, -37.576641], [-72.379979, -37.575051], [-72.38574, -37.570527], [-72.38934, -37.569166], [-72.394272, -37.569287], [-72.395182, -37.572115], [-72.399017, -37.572731], [-72.407364, -37.567695], [-72.416076, -37.565212], [-72.419257, -37.56519], [-72.423892, -37.566959], [-72.430758, -37.567633], [-72.432432, -37.565973], [-72.432684, -37.56303], [-72.435206, -37.559186], [-72.437966, -37.557156], [-72.439704, -37.556754], [-72.441141, -37.557938], [-72.444996, -37.558097], [-72.450521, -37.561708], [-72.458375, -37.564008], [-72.461518, -37.564166], [-72.466539, -37.561954], [-72.473314, -37.564497], [-72.474972, -37.56353], [-72.479646, -37.562416], [-72.482715, -37.563766], [-72.483397, -37.564806], [-72.483453, -37.566947], [-72.484735, -37.567744], [-72.489923, -37.568333], [-72.495411, -37.567467], [-72.500163, -37.568222], [-72.50247, -37.569995], [-72.504991, -37.576266], [-72.509358, -37.581857]], [[-72.509358, -37.581857], [-72.511783, -37.581989], [-72.515098, -37.580186], [-72.520012, -37.579455], [-72.524298, -37.580148], [-72.527704, -37.57974], [-72.534624, -37.580318], [-72.545777, -37.58309], [-72.548116, -37.581253], [-72.5587, -37.577189], [-72.561645, -37.577942], [-72.564772, -37.579744], [-72.568294, -37.579174], [-72.574246, -37.57994], [-72.575093, -37.577261], [-72.580088, -37.569285], [-72.579691, -37.564238], [-72.5874, -37.558978]], [[-72.5874, -37.558978], [-72.590039, -37.555958], [-72.592067, -37.550285], [-72.596541, -37.529587], [-72.602634, -37.525426], [-72.605059, -37.522669], [-72.605006, -37.520865], [-72.603879, -37.519266], [-72.596101, -37.516957], [-72.594813, -37.515002], [-72.595769, -37.508818], [-72.597023, -37.506951], [-72.600725, -37.503777], [-72.605113, -37.500934], [-72.61229, -37.497946], [-72.623588, -37.499197], [-72.634397, -37.498236], [-72.642318, -37.49385], [-72.645998, -37.493037], [-72.647854, -37.491128], [-72.655876, -37.489646], [-72.668735, -37.484858], [-72.679903, -37.479439], [-72.683991, -37.476765], [-72.684678, -37.473121], [-72.682575, -37.46653], [-72.682888, -37.452796], [-72.681608, -37.443017], [-72.671616, -37.421718], [-72.669341, -37.418542], [-72.66454, -37.415232], [-72.663424, -37.413451], [-72.663832, -37.409505], [-72.667083, -37.400569], [-72.665441, -37.395613], [-72.669057, -37.38974], [-72.66911, -37.386799], [-72.667115, -37.382042], [-72.667839, -37.377062], [-72.673595, -37.369236], [-72.679882, -37.362261], [-72.701125, -37.355132], [-72.705374, -37.352659], [-72.706897, -37.350817], [-72.707863, -37.346927], [-72.706468, -37.338739], [-72.707455, -37.325345], [-72.711253, -37.315294], [-72.717626, -37.302323], [-72.720394, -37.291484], [-72.722175, -37.286875], [-72.725566, -37.280387], [-72.728679, -37.276491]], [[-72.728679, -37.276491], [-72.738805, -37.257796], [-72.740758, -37.252552], [-72.741101, -37.242594], [-72.74226, -37.23829], [-72.760026, -37.219428], [-72.774425, -37.206645], [-72.781012, -37.204116], [-72.788415, -37.204235], [-72.79202, -37.205432], [-72.800775, -37.210131], [-72.806139, -37.210883], [-72.8091, -37.209824], [-72.817619, -37.200356], [-72.821031, -37.198561], [-72.826288, -37.198048], [-72.842456, -37.199689], [-72.849741, -37.199552], [-72.854204, -37.197997], [-72.861886, -37.193484], [-72.8668, -37.189365], [-72.872465, -37.183143], [-72.876735, -37.180749], [-72.894223, -37.175808], [-72.920734, -37.171068], [-72.924242, -37.169302], [-72.930669, -37.163831], [-72.935014, -37.158384], [-72.939069, -37.150466], [-72.941237, -37.147704], [-72.954744, -37.135961], [-72.95836, -37.131898], [-72.964089, -37.123456], [-72.972393, -37.116321], [-72.974378, -37.11366], [-72.976567, -37.107474], [-72.977414, -37.0957], [-72.97853, -37.089405], [-72.978884, -37.076246], [-72.976942, -37.056941], [-72.974625, -37.048481], [-72.97323, -37.03925], [-72.974067, -37.031233], [-72.978251, -37.018076], [-72.978358, -37.010709], [-72.97765, -37.007916], [-72.975655, -37.004129], [-72.967973, -36.997737], [-72.958317, -36.990848], [-72.954283, -36.987009], [-72.952514, -36.983], [-72.95196, -36.979321], [-72.952276, -36.976655], [-72.953585, -36.973527], [-72.956032, -36.970981], [-72.96072, -36.970201], [-72.98574, -36.974864], [-72.991104, -36.974753], [-72.99605, -36.973852], [-73.00679, -36.97045], [-73.013635, -36.967175], [-73.019578, -36.962975], [-73.027636, -36.955087], [-73.038386, -36.941403], [-73.042796, -36.931198], [-73.044105, -36.925863], [-73.047152, -36.899048], [-73.050542, -36.880771], [-73.054962, -36.86539], [-73.061421, -36.847672], [-73.064897, -36.841438], [-73.07054, -36.834758], [-73.080733, -36.824324], [-73.095206, -36.811982], [-73.099953, -36.809353], [-73.107855, -36.807897], [-73.112115, -36.808881], [-73.119797, -36.813949], [-73.124195, -36.814919], [-73.151608, -36.815916], [-73.165555, -36.813751], [-73.169995, -36.81508]], [[-72.159674, -37.663666], [-72.163852, -37.667021], [-72.168837, -37.664499]], [[-72.178716, -37.661598], [-72.186184, -37.659076], [-72.188571, -37.657364], [-72.192991, -37.656957]], [[-71.149095, -38.607197], [-71.148067, -38.605129], [-71.147946, -38.600885], [-71.145107, -38.59756]], [[-72.558121, -37.577214], [-72.562889, -37.574742], [-72.571379, -37.573552], [-72.5732, -37.571368], [-72.573889, -37.567106], [-72.579691, -37.564238]]]}]}}