{"type": "Feature", "properties": {"id": "rio-puelo", "name": "Río Puelo", "type": "river", "region": "los-lagos"}, "geometry": {"type": "MultiLineString", "coordinates": [[[-71.914322, -41.96141], [-71.916922, -41.960699], [-71.917691, -41.9598], [-71.916225, -41.958928], [-71.915462, -41.954543], [-71.918931, -41.949173], [-71.921354, -41.946982], [-71.926672, -41.944206], [-71.925922, -41.942204], [-71.923486, -41.940284], [-71.923642, -41.938424], [-71.930422, -41.930921], [-71.940297, -41.923861], [-71.939443, -41.922369], [-71.934534, -41.921611], [-71.93298, -41.91969], [-71.933323, -41.916698], [-71.939319, -41.909492], [-71.940191, -41.907596], [-71.939663, -41.905268], [-71.93598, -41.903673], [-71.936649, -41.901446], [-71.940102, -41.897212], [-71.94446, -41.894375], [-71.9482, -41.890338], [-71.956598, -41.886983], [-71.96012, -41.886234], [-71.96216, -41.882732], [-71.966576, -41.881117], [-71.967323, -41.878011], [-71.96457, -41.875982], [-71.964075, -41.874756], [-71.968025, -41.87279], [-71.968914, -41.873038], [-71.969609, -41.874237], [-71.970548, -41.874321], [-71.970763, -41.872858], [-71.97315, -41.870761]], [[-71.820422, -42.083613], [-71.833779, -42.079647], [-71.840367, -42.075204], [-71.851718, -42.064476], [-71.855419, -42.062652], [-71.855527, -42.061863], [-71.854223, -42.059999], [-71.854561, -42.057371], [-71.857265, -42.056016], [-71.859362, -42.052105], [-71.861272, -42.051125], [-71.866418, -42.045885], [-71.866899, -42.044235], [-71.870689, -42.040455], [-71.872014, -42.036386], [-71.874008, -42.033176], [-71.877687, -42.029546], [-71.878044, -42.026537], [-71.879125, -42.025246], [-71.877575, -42.022016], [-71.877802, -42.020687], [-71.87924, -42.018854], [-71.879202, -42.017519], [-71.879993, -42.016406], [-71.885635, -42.010463], [-71.886671, -42.006529], [-71.889332, -42.00339], [-71.890967, -42.002631], [-71.893832, -42.002463], [-71.898836, -42.004206], [-71.903284, -42.003165], [-71.904453, -42.001212], [-71.908696, -41.999029], [-71.910062, -41.997696], [-71.910572, -41.997028], [-71.910062, -41.995769], [-71.91276, -41.990566], [-71.918787, -41.98463]], [[-71.911834, -41.99286], [-71.910537, -41.990896], [-71.912025, -41.98539], [-71.915108, -41.983869], [-71.918787, -41.98463]], [[-71.910572, -41.997028], [-71.912948, -41.994386], [-71.912408, -41.991736]], [[-72.167966, -41.645474], [-72.170391, -41.643021], [-72.178073, -41.641185], [-72.19069, -41.633712], [-72.192213, -41.630929], [-72.192568, -41.626567], [-72.19614, -41.62396], [-72.201165, -41.6183], [-72.209325, -41.615937], [-72.21411, -41.611284], [-72.220501, -41.610153], [-72.226396, -41.608047], [-72.22801, -41.60864], [-72.230053, -41.611094], [-72.231315, -41.611437], [-72.233547, -41.611822], [-72.240204, -41.610737], [-72.244146, -41.612263], [-72.245306, -41.613875], [-72.247623, -41.622537], [-72.247709, -41.626451], [-72.250284, -41.631904], [-72.251571, -41.632803], [-72.254618, -41.632489], [-72.258315, -41.63396], [-72.261737, -41.638248], [-72.268281, -41.643532], [-72.273126, -41.644644], [-72.277836, -41.6439], [-72.2803, -41.64272], [-72.283469, -41.643158], [-72.290796, -41.645632], [-72.30684, -41.653355], [-72.31434, -41.655832], [-72.316204, -41.655737]], [[-72.303767, -41.651978], [-72.30601, -41.651725], [-72.312913, -41.652697], [-72.31684, -41.651013], [-72.318202, -41.64924]], [[-71.914322, -41.96141], [-71.913326, -41.960034], [-71.913248, -41.958263], [-71.915787, -41.956226]], [[-71.918787, -41.98463], [-71.922405, -41.986008], [-71.924458, -41.985364], [-71.925135, -41.984672], [-71.925544, -41.979815], [-71.922843, -41.977409], [-71.915639, -41.976171], [-71.914311, -41.975323], [-71.913176, -41.973328], [-71.90956, -41.972195], [-71.909061, -41.97077], [-71.91323, -41.964199], [-71.914322, -41.96141]], [[-72.0543, -41.759255], [-72.052033, -41.754076], [-72.051687, -41.748135], [-72.053533, -41.744829], [-72.056848, -41.742531], [-72.058795, -41.742235], [-72.060227, -41.742771], [-72.064948, -41.748087], [-72.066364, -41.748943], [-72.079368, -41.749856], [-72.080982, -41.748795], [-72.081744, -41.746842], [-72.080961, -41.745689], [-72.078536, -41.744953], [-72.074716, -41.74232], [-72.067378, -41.741635], [-72.065023, -41.740186], [-72.061713, -41.736447], [-72.062207, -41.735394], [-72.063907, -41.734586], [-72.07381, -41.735646], [-72.077844, -41.734854], [-72.079883, -41.733389], [-72.082683, -41.729073], [-72.087243, -41.725718], [-72.087817, -41.72396], [-72.087007, -41.722495], [-72.082372, -41.720177], [-72.082297, -41.718527], [-72.083584, -41.716981], [-72.07822, -41.710358], [-72.077962, -41.709317], [-72.078713, -41.707499], [-72.080838, -41.706369], [-72.083756, -41.706041], [-72.085215, -41.706754], [-72.085794, -41.708556], [-72.086749, -41.709301], [-72.089742, -41.70898], [-72.092693, -41.705496], [-72.091588, -41.701195], [-72.092028, -41.699905], [-72.093208, -41.699004], [-72.096544, -41.699116], [-72.099876, -41.701519], [-72.101356, -41.701763], [-72.103851, -41.700947], [-72.108867, -41.697943], [-72.113653, -41.698016]], [[-71.97315, -41.870761], [-71.975332, -41.868657], [-71.978273, -41.861464], [-71.981452, -41.857759], [-71.981105, -41.853378], [-71.97822, -41.84927], [-71.978573, -41.847198], [-71.977762, -41.844804], [-71.979297, -41.838871], [-71.977852, -41.834618], [-71.979315, -41.831627], [-71.979525, -41.829703], [-71.977363, -41.825724], [-71.977433, -41.82482], [-71.980506, -41.822441], [-71.980755, -41.819042], [-71.982448, -41.8159], [-71.985533, -41.814358], [-71.988036, -41.811436], [-71.993167, -41.808779], [-71.997319, -41.802918], [-71.998693, -41.798882], [-72.000484, -41.796179], [-72.001101, -41.793553], [-72.002373, -41.792191], [-72.007602, -41.791404], [-72.009822, -41.789127], [-72.014175, -41.788967], [-72.018047, -41.790293], [-72.032233, -41.788467], [-72.03273, -41.786293], [-72.030208, -41.782133], [-72.031689, -41.778896], [-72.037637, -41.773772], [-72.040089, -41.769871], [-72.047824, -41.769163], [-72.055141, -41.766852], [-72.056146, -41.765472], [-72.056296, -41.763951], [-72.0543, -41.759255]], [[-72.316204, -41.655737], [-72.322665, -41.648352], [-72.330637, -41.642516]], [[-72.305318, -41.652673], [-72.307522, -41.656858], [-72.309469, -41.657936], [-72.315831, -41.655856]], [[-71.723573, -42.106136], [-71.726933, -42.106137], [-71.728095, -42.10543]], [[-71.728095, -42.10543], [-71.734134, -42.102724], [-71.73711, -42.103106]], [[-71.820422, -42.083613], [-71.833779, -42.079647], [-71.840367, -42.075204], [-71.851718, -42.064476], [-71.855419, -42.062652], [-71.855527, -42.061863], [-71.854223, -42.059999], [-71.854561, -42.057371], [-71.857265, -42.056016], [-71.859362, -42.052105], [-71.861272, -42.051125], [-71.866418, -42.045885], [-71.866899, -42.044235], [-71.870689, -42.040455], [-71.872014, -42.036386], [-71.874008, -42.033176], [-71.877687, -42.029546], [-71.878044, -42.026537], [-71.879125, -42.025246], [-71.877575, -42.022016], [-71.877802, -42.020687], [-71.87924, -42.018854], [-71.879202, -42.017519], [-71.879993, -42.016406], [-71.885635, -42.010463], [-71.886671, -42.006529], [-71.889332, -42.00339], [-71.890967, -42.002631], [-71.893832, -42.002463], [-71.898836, -42.004206], [-71.903284, -42.003165], [-71.904453, -42.001212], [-71.908696, -41.999029], [-71.910062, -41.997696], [-71.910572, -41.997028], [-71.910062, -41.995769], [-71.91276, -41.990566], [-71.918787, -41.98463]], [[-71.918787, -41.98463], [-71.922405, -41.986008], [-71.924458, -41.985364], [-71.925135, -41.984672], [-71.925544, -41.979815], [-71.922843, -41.977409], [-71.915639, -41.976171], [-71.914311, -41.975323], [-71.913176, -41.973328], [-71.90956, -41.972195], [-71.909061, -41.97077], [-71.91323, -41.964199], [-71.914322, -41.96141]], [[-71.914322, -41.96141], [-71.916922, -41.960699], [-71.917691, -41.9598], [-71.916225, -41.958928], [-71.915462, -41.954543], [-71.918931, -41.949173], [-71.921354, -41.946982], [-71.926672, -41.944206], [-71.925922, -41.942204], [-71.923486, -41.940284], [-71.923642, -41.938424], [-71.930422, -41.930921], [-71.940297, -41.923861], [-71.939443, -41.922369], [-71.934534, -41.921611], [-71.93298, -41.91969], [-71.933323, -41.916698], [-71.939319, -41.909492], [-71.940191, -41.907596], [-71.939663, -41.905268], [-71.93598, -41.903673], [-71.936649, -41.901446], [-71.940102, -41.897212], [-71.94446, -41.894375], [-71.9482, -41.890338], [-71.956598, -41.886983], [-71.96012, -41.886234], [-71.96216, -41.882732], [-71.966576, -41.881117], [-71.967323, -41.878011], [-71.96457, -41.875982], [-71.964075, -41.874756], [-71.968025, -41.87279], [-71.968914, -41.873038], [-71.969609, -41.874237], [-71.970548, -41.874321], [-71.970763, -41.872858], [-71.97315, -41.870761]], [[-71.97315, -41.870761], [-71.975332, -41.868657], [-71.978273, -41.861464], [-71.981452, -41.857759], [-71.981105, -41.853378], [-71.97822, -41.84927], [-71.978573, -41.847198], [-71.977762, -41.844804], [-71.979297, -41.838871], [-71.977852, -41.834618], [-71.979315, -41.831627], [-71.979525, -41.829703], [-71.977363, -41.825724], [-71.977433, -41.82482], [-71.980506, -41.822441], [-71.980755, -41.819042], [-71.982448, -41.8159], [-71.985533, -41.814358], [-71.988036, -41.811436], [-71.993167, -41.808779], [-71.997319, -41.802918], [-71.998693, -41.798882], [-72.000484, -41.796179], [-72.001101, -41.793553], [-72.002373, -41.792191], [-72.007602, -41.791404], [-72.009822, -41.789127], [-72.014175, -41.788967], [-72.018047, -41.790293], [-72.032233, -41.788467], [-72.03273, -41.786293], [-72.030208, -41.782133], [-72.031689, -41.778896], [-72.037637, -41.773772], [-72.040089, -41.769871], [-72.047824, -41.769163], [-72.055141, -41.766852], [-72.056146, -41.765472], [-72.056296, -41.763951], [-72.0543, -41.759255]], [[-72.0543, -41.759255], [-72.052033, -41.754076], [-72.051687, -41.748135], [-72.053533, -41.744829], [-72.056848, -41.742531], [-72.058795, -41.742235], [-72.060227, -41.742771], [-72.064948, -41.748087], [-72.066364, -41.748943], [-72.079368, -41.749856], [-72.080982, -41.748795], [-72.081744, -41.746842], [-72.080961, -41.745689], [-72.078536, -41.744953], [-72.074716, -41.74232], [-72.067378, -41.741635], [-72.065023, -41.740186], [-72.061713, -41.736447], [-72.062207, -41.735394], [-72.063907, -41.734586], [-72.07381, -41.735646], [-72.077844, -41.734854], [-72.079883, -41.733389], [-72.082683, -41.729073], [-72.087243, -41.725718], [-72.087817, -41.72396], [-72.087007, -41.722495], [-72.082372, -41.720177], [-72.082297, -41.718527], [-72.083584, -41.716981], [-72.07822, -41.710358], [-72.077962, -41.709317], [-72.078713, -41.707499], [-72.080838, -41.706369], [-72.083756, -41.706041], [-72.085215, -41.706754], [-72.085794, -41.708556], [-72.086749, -41.709301], [-72.089742, -41.70898], [-72.092693, -41.705496], [-72.091588, -41.701195], [-72.092028, -41.699905], [-72.093208, -41.699004], [-72.096544, -41.699116], [-72.099876, -41.701519], [-72.101356, -41.701763], [-72.103851, -41.700947], [-72.108867, -41.697943], [-72.113653, -41.698016]], [[-72.113653, -41.698016], [-72.117455, -41.700226], [-72.12003, -41.700121], [-72.123828, -41.69735], [-72.130458, -41.694225], [-72.137153, -41.688393], [-72.145972, -41.677383], [-72.154748, -41.664769], [-72.164083, -41.649459], [-72.167966, -41.645474]], [[-72.167966, -41.645474], [-72.170391, -41.643021], [-72.178073, -41.641185], [-72.19069, -41.633712], [-72.192213, -41.630929], [-72.192568, -41.626567], [-72.19614, -41.62396], [-72.201165, -41.6183], [-72.209325, -41.615937], [-72.21411, -41.611284], [-72.220501, -41.610153], [-72.226396, -41.608047], [-72.22801, -41.60864], [-72.230053, -41.611094], [-72.231315, -41.611437], [-72.233547, -41.611822], [-72.240204, -41.610737], [-72.244146, -41.612263], [-72.245306, -41.613875], [-72.247623, -41.622537], [-72.247709, -41.626451], [-72.250284, -41.631904], [-72.251571, -41.632803], [-72.254618, -41.632489], [-72.258315, -41.63396], [-72.261737, -41.638248], [-72.268281, -41.643532], [-72.273126, -41.644644], [-72.277836, -41.6439], [-72.2803, -41.64272], [-72.283469, -41.643158], [-72.290796, -41.645632], [-72.30684, -41.653355], [-72.31434, -41.655832], [-72.316204, -41.655737]], [[-72.316204, -41.655737], [-72.322665, -41.648352], [-72.330637, -41.642516]], [[-71.914322, -41.96141], [-71.913326, -41.960034], [-71.913248, -41.958263], [-71.915787, -41.956226]], [[-72.305318, -41.652673], [-72.307522, -41.656858], [-72.309469, -41.657936], [-72.315831, -41.655856]]]}}