{"type": "Feature", "properties": {"id": "rio-cruces", "name": "Río Cruces", "type": "river", "region": "los-rios"}, "geometry": {"type": "MultiLineString", "coordinates": [[[-72.538453, -39.379373], [-72.540043, -39.380304], [-72.542211, -39.379906], [-72.543755, -39.378374], [-72.542231, -39.37703], [-72.547123, -39.37698], [-72.549699, -39.377883], [-72.55427, -39.381399], [-72.555508, -39.381267], [-72.556291, -39.380645], [-72.556656, -39.378796], [-72.558604, -39.378015], [-72.558819, -39.377302], [-72.557536, -39.375831], [-72.560084, -39.374777], [-72.56304, -39.372331], [-72.574455, -39.37513], [-72.576853, -39.376527], [-72.577169, -39.377543], [-72.576665, -39.378572], [-72.579342, -39.379127], [-72.581842, -39.378551], [-72.582577, -39.377448], [-72.589315, -39.378932], [-72.595907, -39.37831], [-72.597211, -39.377622], [-72.597722, -39.37488], [-72.599115, -39.375106], [-72.600982, -39.373547], [-72.603215, -39.373056], [-72.604717, -39.3742], [-72.602829, -39.376523], [-72.603, -39.37833], [-72.607119, -39.378241], [-72.620552, -39.372402], [-72.623621, -39.371994], [-72.628492, -39.372724], [-72.629093, -39.373354], [-72.628621, -39.376489], [-72.629199, -39.377446], [-72.638364, -39.377255], [-72.640145, -39.378764], [-72.643275, -39.377952], [-72.646687, -39.379541], [-72.648693, -39.378118], [-72.65454, -39.378841], [-72.656786, -39.378395], [-72.657655, -39.378798], [-72.658752, -39.381294], [-72.660895, -39.383773], [-72.663483, -39.38516], [-72.663799, -39.388722], [-72.666514, -39.39203], [-72.665538, -39.392988], [-72.663354, -39.39329], [-72.663193, -39.394584], [-72.675027, -39.396316], [-72.678031, -39.40028], [-72.678316, -39.403749], [-72.679136, -39.404914], [-72.683612, -39.40198], [-72.685815, -39.405478], [-72.687349, -39.406174], [-72.688401, -39.40602], [-72.688808, -39.404379], [-72.689957, -39.404106], [-72.690568, -39.40445], [-72.690938, -39.406261], [-72.693358, -39.405511], [-72.695262, -39.40573], [-72.697306, -39.406775], [-72.697815, -39.408466], [-72.700514, -39.408263], [-72.701501, -39.406597], [-72.70251, -39.406597], [-72.704199, -39.408491], [-72.704918, -39.411454], [-72.704338, -39.412308], [-72.702053, -39.412055], [-72.699843, -39.414861], [-72.699978, -39.415773], [-72.703754, -39.418475], [-72.704435, -39.417977], [-72.703818, -39.415814], [-72.704344, -39.41346], [-72.706318, -39.412963], [-72.708592, -39.414053], [-72.711843, -39.414442], [-72.712154, -39.415321], [-72.710041, -39.416834], [-72.710094, -39.419863], [-72.712659, -39.421736], [-72.715736, -39.422831], [-72.717267, -39.424509]], [[-72.789751, -39.432634], [-72.790432, -39.433923], [-72.792149, -39.43459], [-72.793836, -39.438471], [-72.793948, -39.440519], [-72.791794, -39.446219], [-72.794551, -39.450212], [-72.790539, -39.45215], [-72.787299, -39.452366], [-72.787118, -39.453172]], [[-72.787118, -39.453172], [-72.790073, -39.45422], [-72.793673, -39.456572], [-72.797964, -39.456914], [-72.799158, -39.456474], [-72.799053, -39.453791], [-72.800131, -39.45271], [-72.80116, -39.453045], [-72.80101, -39.455481], [-72.803778, -39.455945], [-72.80442, -39.451522]], [[-72.80442, -39.451522], [-72.805838, -39.449284], [-72.808175, -39.447294], [-72.809623, -39.448408], [-72.814317, -39.447648], [-72.817069, -39.448437], [-72.817823, -39.449547], [-72.815827, -39.451604], [-72.815666, -39.453542], [-72.819346, -39.455441], [-72.822533, -39.455493], [-72.823418, -39.460322], [-72.823037, -39.463246], [-72.821513, -39.466464], [-72.81763, -39.469516], [-72.820913, -39.472672], [-72.820194, -39.47504], [-72.815666, -39.476535], [-72.815779, -39.48027], [-72.815022, -39.481185], [-72.81116, -39.481653], [-72.809964, -39.48251], [-72.809803, -39.485363], [-72.812437, -39.48528], [-72.811981, -39.48648], [-72.807416, -39.489703], [-72.80527, -39.492301], [-72.803865, -39.492583], [-72.802663, -39.491676], [-72.804385, -39.490952], [-72.804959, -39.489639], [-72.802657, -39.487482], [-72.800093, -39.486973], [-72.79924, -39.488898], [-72.797298, -39.489002], [-72.795115, -39.48776], [-72.793651, -39.485031], [-72.79268, -39.484679], [-72.791178, -39.48988], [-72.787036, -39.493659], [-72.789359, -39.495481], [-72.791596, -39.499069], [-72.795951, -39.499907], [-72.796671, -39.50135], [-72.79475, -39.503258], [-72.794884, -39.504419], [-72.798581, -39.503757], [-72.800929, -39.50471], [-72.800764, -39.505961], [-72.799181, -39.505729], [-72.797272, -39.506388], [-72.796375, -39.507983], [-72.796698, -39.509943], [-72.795464, -39.511615], [-72.795767, -39.51228], [-72.79798, -39.512947], [-72.801971, -39.515819], [-72.805823, -39.51516], [-72.807705, -39.51697], [-72.808633, -39.520024], [-72.81071, -39.519643], [-72.811852, -39.520363], [-72.811562, -39.521861], [-72.80925, -39.523516], [-72.804589, -39.524745], [-72.804224, -39.525693], [-72.804825, -39.526761], [-72.805865, -39.527112], [-72.809122, -39.524642], [-72.811753, -39.524265], [-72.813612, -39.525647], [-72.815183, -39.528018], [-72.819298, -39.526736], [-72.82043, -39.528718], [-72.82187, -39.529551], [-72.822586, -39.527737], [-72.819885, -39.523717], [-72.819073, -39.521315], [-72.821267, -39.520893], [-72.82445, -39.521721], [-72.824971, -39.522753], [-72.824346, -39.52578], [-72.824641, -39.527576], [-72.826459, -39.529421], [-72.829978, -39.531275], [-72.831121, -39.533405], [-72.826239, -39.5347], [-72.820848, -39.533865], [-72.817946, -39.536289], [-72.817935, -39.536914], [-72.823375, -39.539011], [-72.827634, -39.53983], [-72.833852, -39.539967], [-72.837548, -39.541547], [-72.839672, -39.5434], [-72.840375, -39.544943], [-72.839618, -39.547049], [-72.837971, -39.548964], [-72.838374, -39.549465], [-72.844505, -39.549415], [-72.846823, -39.547339], [-72.848679, -39.54666], [-72.851597, -39.547272], [-72.853249, -39.548977], [-72.853067, -39.553353], [-72.851157, -39.554883], [-72.85135, -39.555652], [-72.852649, -39.556037], [-72.854623, -39.555202], [-72.859247, -39.555272], [-72.865593, -39.553622], [-72.873489, -39.552616], [-72.875828, -39.553874], [-72.878516, -39.557216], [-72.884545, -39.555421], [-72.887903, -39.555446], [-72.888343, -39.556223], [-72.887464, -39.55892], [-72.888236, -39.559466], [-72.894637, -39.557375], [-72.898933, -39.555015], [-72.903047, -39.549216]], [[-72.717267, -39.424509], [-72.723001, -39.424726], [-72.723784, -39.425646], [-72.725501, -39.426166], [-72.731214, -39.432182], [-72.736021, -39.433193], [-72.737426, -39.435381], [-72.73999, -39.43541], [-72.740323, -39.436466], [-72.735897, -39.436251], [-72.735366, -39.437792], [-72.736165, -39.43969], [-72.740218, -39.441732], [-72.745945, -39.439918], [-72.747731, -39.438337], [-72.750368, -39.437225], [-72.751323, -39.435211], [-72.753273, -39.435893], [-72.75438, -39.438505], [-72.755032, -39.438675], [-72.762797, -39.434465], [-72.764892, -39.431602], [-72.768135, -39.432661], [-72.77134, -39.432516], [-72.771874, -39.431594], [-72.771657, -39.429618], [-72.772745, -39.42772], [-72.776415, -39.431387], [-72.786425, -39.431084], [-72.788651, -39.431644], [-72.789751, -39.432634]], [[-72.788276, -39.453738], [-72.79014, -39.455625], [-72.793673, -39.456572]], [[-72.794635, -39.503625], [-72.792886, -39.504123], [-72.792749, -39.505375], [-72.794174, -39.505951], [-72.79512, -39.504546]], [[-73.248451, -39.727142], [-73.251991, -39.738366], [-73.250704, -39.745214], [-73.248236, -39.749553], [-73.250575, -39.757009], [-73.249717, -39.769595], [-73.250554, -39.773124], [-73.252837, -39.775345]], [[-73.255824, -39.73474], [-73.261454, -39.739101], [-73.263503, -39.7433], [-73.263643, -39.749206], [-73.260963, -39.754552]], [[-73.166805, -39.665517], [-73.168194, -39.67015], [-73.167974, -39.675571], [-73.169691, -39.679836], [-73.171531, -39.681702], [-73.175613, -39.684072], [-73.181428, -39.685554]], [[-72.903047, -39.549216], [-72.904303, -39.543214], [-72.903584, -39.537849], [-72.904479, -39.536835], [-72.906749, -39.536537], [-72.910128, -39.538105], [-72.910187, -39.541129], [-72.911121, -39.5429], [-72.915847, -39.542842], [-72.918288, -39.543876], [-72.91913, -39.546639], [-72.918674, -39.550292], [-72.921533, -39.55121], [-72.923759, -39.553593], [-72.927058, -39.554507], [-72.931983, -39.553977], [-72.936355, -39.551888], [-72.938291, -39.54762], [-72.941478, -39.545332], [-72.943135, -39.545196], [-72.950002, -39.546904], [-72.951161, -39.546242], [-72.952014, -39.544215], [-72.954133, -39.543065], [-72.958725, -39.543301], [-72.963075, -39.541866], [-72.967554, -39.543876], [-72.97169, -39.54853], [-72.983176, -39.551752], [-72.98611, -39.55121], [-72.988524, -39.549283], [-72.988921, -39.547578], [-72.987682, -39.546139], [-72.990246, -39.546064], [-72.994602, -39.543359], [-72.996651, -39.544348], [-73.000127, -39.544224], [-73.0026, -39.543111], [-73.003308, -39.541071], [-73.007702, -39.542147], [-73.01253, -39.540865], [-73.020249, -39.543814], [-73.025935, -39.551694], [-73.027738, -39.552261], [-73.030173, -39.551227], [-73.037576, -39.544104], [-73.038912, -39.54177], [-73.039556, -39.538118], [-73.042224, -39.537571], [-73.044467, -39.538757], [-73.045521, -39.542147], [-73.050893, -39.544984], [-73.051846, -39.546766], [-73.051687, -39.549356], [-73.048907, -39.551723], [-73.045353, -39.553589], [-73.045165, -39.555173], [-73.04667, -39.55896], [-73.051959, -39.563052], [-73.054202, -39.562549], [-73.055106, -39.562992], [-73.058545, -39.565806], [-73.060733, -39.57065], [-73.065545, -39.57385], [-73.073165, -39.577093], [-73.074, -39.576766], [-73.07422, -39.57586], [-73.072323, -39.574926], [-73.071823, -39.573838], [-73.07228, -39.572911], [-73.077391, -39.574977], [-73.081307, -39.575623], [-73.092489, -39.574758], [-73.094031, -39.577199], [-73.097911, -39.579189], [-73.099284, -39.582604], [-73.104541, -39.585923], [-73.105695, -39.585825], [-73.107448, -39.583858], [-73.110139, -39.583753], [-73.111095, -39.582618], [-73.111264, -39.581169], [-73.112253, -39.580941], [-73.113376, -39.581772], [-73.11256, -39.583131], [-73.112973, -39.583978], [-73.118509, -39.586603], [-73.120167, -39.586711], [-73.120982, -39.585376], [-73.123541, -39.584743], [-73.125552, -39.585268], [-73.127811, -39.587058], [-73.131293, -39.587228], [-73.133369, -39.588613], [-73.143073, -39.601419], [-73.147525, -39.604601], [-73.149891, -39.60549]], [[-73.149891, -39.60549], [-73.154697, -39.607945], [-73.158206, -39.610631], [-73.160244, -39.615152], [-73.164826, -39.618516], [-73.171456, -39.624792], [-73.184298, -39.639314], [-73.18447, -39.648088], [-73.180532, -39.657001], [-73.180007, -39.663758], [-73.177571, -39.667168], [-73.176928, -39.669472], [-73.179663, -39.681603], [-73.181428, -39.685554], [-73.193436, -39.690875], [-73.194867, -39.693095], [-73.195916, -39.697942], [-73.200087, -39.703747], [-73.206666, -39.703849], [-73.210434, -39.705033], [-73.211385, -39.705896], [-73.218673, -39.720202], [-73.219929, -39.721423], [-73.223359, -39.721938], [-73.234524, -39.721534], [-73.243331, -39.723954], [-73.247721, -39.726518], [-73.253047, -39.731193], [-73.258697, -39.739119], [-73.261476, -39.747011], [-73.261173, -39.753372], [-73.260802, -39.755452], [-73.254015, -39.769374], [-73.252837, -39.775345], [-73.254448, -39.778015], [-73.259144, -39.781606], [-73.271225, -39.783611], [-73.274611, -39.785779], [-73.27606, -39.788887], [-73.278053, -39.801971], [-73.276358, -39.812666], [-73.27259, -39.818537], [-73.26532, -39.825895], [-73.262765, -39.833015]], [[-72.80442, -39.451522], [-72.805838, -39.449284], [-72.808175, -39.447294], [-72.809623, -39.448408], [-72.814317, -39.447648], [-72.817069, -39.448437], [-72.817823, -39.449547], [-72.815827, -39.451604], [-72.815666, -39.453542], [-72.819346, -39.455441], [-72.822533, -39.455493], [-72.823418, -39.460322], [-72.823037, -39.463246], [-72.821513, -39.466464], [-72.81763, -39.469516], [-72.820913, -39.472672], [-72.820194, -39.47504], [-72.815666, -39.476535], [-72.815779, -39.48027], [-72.815022, -39.481185], [-72.81116, -39.481653], [-72.809964, -39.48251], [-72.809803, -39.485363], [-72.812437, -39.48528], [-72.811981, -39.48648], [-72.807416, -39.489703], [-72.80527, -39.492301], [-72.803865, -39.492583], [-72.802663, -39.491676], [-72.804385, -39.490952], [-72.804959, -39.489639], [-72.802657, -39.487482], [-72.800093, -39.486973], [-72.79924, -39.488898], [-72.797298, -39.489002], [-72.795115, -39.48776], [-72.793651, -39.485031], [-72.79268, -39.484679], [-72.791178, -39.48988], [-72.787036, -39.493659], [-72.789359, -39.495481], [-72.791596, -39.499069], [-72.795951, -39.499907], [-72.796671, -39.50135], [-72.79475, -39.503258], [-72.794884, -39.504419], [-72.798581, -39.503757], [-72.800929, -39.50471], [-72.800764, -39.505961], [-72.799181, -39.505729], [-72.797272, -39.506388], [-72.796375, -39.507983], [-72.796698, -39.509943], [-72.795464, -39.511615], [-72.795767, -39.51228], [-72.79798, -39.512947], [-72.801971, -39.515819], [-72.805823, -39.51516], [-72.807705, -39.51697], [-72.808633, -39.520024], [-72.81071, -39.519643], [-72.811852, -39.520363], [-72.811562, -39.521861], [-72.80925, -39.523516], [-72.804589, -39.524745], [-72.804224, -39.525693], [-72.804825, -39.526761], [-72.805865, -39.527112], [-72.809122, -39.524642], [-72.811753, -39.524265], [-72.813612, -39.525647], [-72.815183, -39.528018], [-72.819298, -39.526736], [-72.82043, -39.528718], [-72.82187, -39.529551], [-72.822586, -39.527737], [-72.819885, -39.523717], [-72.819073, -39.521315], [-72.821267, -39.520893], [-72.82445, -39.521721], [-72.824971, -39.522753], [-72.824346, -39.52578], [-72.824641, -39.527576], [-72.826459, -39.529421], [-72.829978, -39.531275], [-72.831121, -39.533405], [-72.826239, -39.5347], [-72.820848, -39.533865], [-72.817946, -39.536289], [-72.817935, -39.536914], [-72.823375, -39.539011], [-72.827634, -39.53983], [-72.833852, -39.539967], [-72.837548, -39.541547], [-72.839672, -39.5434], [-72.840375, -39.544943], [-72.839618, -39.547049], [-72.837971, -39.548964], [-72.838374, -39.549465], [-72.844505, -39.549415], [-72.846823, -39.547339], [-72.848679, -39.54666], [-72.851597, -39.547272], [-72.853249, -39.548977], [-72.853067, -39.553353], [-72.851157, -39.554883], [-72.85135, -39.555652], [-72.852649, -39.556037], [-72.854623, -39.555202], [-72.859247, -39.555272], [-72.865593, -39.553622], [-72.873489, -39.552616], [-72.875828, -39.553874], [-72.878516, -39.557216], [-72.884545, -39.555421], [-72.887903, -39.555446], [-72.888343, -39.556223], [-72.887464, -39.55892], [-72.888236, -39.559466], [-72.894637, -39.557375], [-72.898933, -39.555015], [-72.903047, -39.549216]], [[-72.903047, -39.549216], [-72.904303, -39.543214], [-72.903584, -39.537849], [-72.904479, -39.536835], [-72.906749, -39.536537], [-72.910128, -39.538105], [-72.910187, -39.541129], [-72.911121, -39.5429], [-72.915847, -39.542842], [-72.918288, -39.543876], [-72.91913, -39.546639], [-72.918674, -39.550292], [-72.921533, -39.55121], [-72.923759, -39.553593], [-72.927058, -39.554507], [-72.931983, -39.553977], [-72.936355, -39.551888], [-72.938291, -39.54762], [-72.941478, -39.545332], [-72.943135, -39.545196], [-72.950002, -39.546904], [-72.951161, -39.546242], [-72.952014, -39.544215], [-72.954133, -39.543065], [-72.958725, -39.543301], [-72.963075, -39.541866], [-72.967554, -39.543876], [-72.97169, -39.54853], [-72.983176, -39.551752], [-72.98611, -39.55121], [-72.988524, -39.549283], [-72.988921, -39.547578], [-72.987682, -39.546139], [-72.990246, -39.546064], [-72.994602, -39.543359], [-72.996651, -39.544348], [-73.000127, -39.544224], [-73.0026, -39.543111], [-73.003308, -39.541071], [-73.007702, -39.542147], [-73.01253, -39.540865], [-73.020249, -39.543814], [-73.025935, -39.551694], [-73.027738, -39.552261], [-73.030173, -39.551227], [-73.037576, -39.544104], [-73.038912, -39.54177], [-73.039556, -39.538118], [-73.042224, -39.537571], [-73.044467, -39.538757], [-73.045521, -39.542147], [-73.050893, -39.544984], [-73.051846, -39.546766], [-73.051687, -39.549356], [-73.048907, -39.551723], [-73.045353, -39.553589], [-73.045165, -39.555173], [-73.04667, -39.55896], [-73.051959, -39.563052], [-73.054202, -39.562549], [-73.055106, -39.562992], [-73.058545, -39.565806], [-73.060733, -39.57065], [-73.065545, -39.57385], [-73.073165, -39.577093], [-73.074, -39.576766], [-73.07422, -39.57586], [-73.072323, -39.574926], [-73.071823, -39.573838], [-73.07228, -39.572911], [-73.077391, -39.574977], [-73.081307, -39.575623], [-73.092489, -39.574758], [-73.094031, -39.577199], [-73.097911, -39.579189], [-73.099284, -39.582604], [-73.104541, -39.585923], [-73.105695, -39.585825], [-73.107448, -39.583858], [-73.110139, -39.583753], [-73.111095, -39.582618], [-73.111264, -39.581169], [-73.112253, -39.580941], [-73.113376, -39.581772], [-73.11256, -39.583131], [-73.112973, -39.583978], [-73.118509, -39.586603], [-73.120167, -39.586711], [-73.120982, -39.585376], [-73.123541, -39.584743], [-73.125552, -39.585268], [-73.127811, -39.587058], [-73.131293, -39.587228], [-73.133369, -39.588613], [-73.143073, -39.601419], [-73.147525, -39.604601], [-73.149891, -39.60549]], [[-73.149891, -39.60549], [-73.154697, -39.607945], [-73.158206, -39.610631], [-73.160244, -39.615152], [-73.164826, -39.618516], [-73.171456, -39.624792], [-73.184298, -39.639314], [-73.18447, -39.648088], [-73.180532, -39.657001], [-73.180007, -39.663758], [-73.177571, -39.667168], [-73.176928, -39.669472], [-73.179663, -39.681603], [-73.181428, -39.685554], [-73.193436, -39.690875], [-73.194867, -39.693095], [-73.195916, -39.697942], [-73.200087, -39.703747], [-73.206666, -39.703849], [-73.210434, -39.705033], [-73.211385, -39.705896], [-73.218673, -39.720202], [-73.219929, -39.721423], [-73.223359, -39.721938], [-73.234524, -39.721534], [-73.243331, -39.723954], [-73.247721, -39.726518], [-73.253047, -39.731193], [-73.258697, -39.739119], [-73.261476, -39.747011], [-73.261173, -39.753372], [-73.260802, -39.755452], [-73.254015, -39.769374], [-73.252837, -39.775345], [-73.254448, -39.778015], [-73.259144, -39.781606], [-73.271225, -39.783611], [-73.274611, -39.785779], [-73.27606, -39.788887], [-73.278053, -39.801971], [-73.276358, -39.812666], [-73.27259, -39.818537], [-73.26532, -39.825895], [-73.262765, -39.833015]], [[-72.787118, -39.453172], [-72.790073, -39.45422], [-72.793673, -39.456572], [-72.797964, -39.456914], [-72.799158, -39.456474], [-72.799053, -39.453791], [-72.800131, -39.45271], [-72.80116, -39.453045], [-72.80101, -39.455481], [-72.803778, -39.455945], [-72.80442, -39.451522]], [[-72.789751, -39.432634], [-72.790432, -39.433923], [-72.792149, -39.43459], [-72.793836, -39.438471], [-72.793948, -39.440519], [-72.791794, -39.446219], [-72.794551, -39.450212], [-72.790539, -39.45215], [-72.787299, -39.452366], [-72.787118, -39.453172]], [[-72.717267, -39.424509], [-72.723001, -39.424726], [-72.723784, -39.425646], [-72.725501, -39.426166], [-72.731214, -39.432182], [-72.736021, -39.433193], [-72.737426, -39.435381], [-72.73999, -39.43541], [-72.740323, -39.436466], [-72.735897, -39.436251], [-72.735366, -39.437792], [-72.736165, -39.43969], [-72.740218, -39.441732], [-72.745945, -39.439918], [-72.747731, -39.438337], [-72.750368, -39.437225], [-72.751323, -39.435211], [-72.753273, -39.435893], [-72.75438, -39.438505], [-72.755032, -39.438675], [-72.762797, -39.434465], [-72.764892, -39.431602], [-72.768135, -39.432661], [-72.77134, -39.432516], [-72.771874, -39.431594], [-72.771657, -39.429618], [-72.772745, -39.42772], [-72.776415, -39.431387], [-72.786425, -39.431084], [-72.788651, -39.431644], [-72.789751, -39.432634]], [[-72.538453, -39.379373], [-72.540043, -39.380304], [-72.542211, -39.379906], [-72.543755, -39.378374], [-72.542231, -39.37703], [-72.547123, -39.37698], [-72.549699, -39.377883], [-72.55427, -39.381399], [-72.555508, -39.381267], [-72.556291, -39.380645], [-72.556656, -39.378796], [-72.558604, -39.378015], [-72.558819, -39.377302], [-72.557536, -39.375831], [-72.560084, -39.374777], [-72.56304, -39.372331], [-72.574455, -39.37513], [-72.576853, -39.376527], [-72.577169, -39.377543], [-72.576665, -39.378572], [-72.579342, -39.379127], [-72.581842, -39.378551], [-72.582577, -39.377448], [-72.589315, -39.378932], [-72.595907, -39.37831], [-72.597211, -39.377622], [-72.597722, -39.37488], [-72.599115, -39.375106], [-72.600982, -39.373547], [-72.603215, -39.373056], [-72.604717, -39.3742], [-72.602829, -39.376523], [-72.603, -39.37833], [-72.607119, -39.378241], [-72.620552, -39.372402], [-72.623621, -39.371994], [-72.628492, -39.372724], [-72.629093, -39.373354], [-72.628621, -39.376489], [-72.629199, -39.377446], [-72.638364, -39.377255], [-72.640145, -39.378764], [-72.643275, -39.377952], [-72.646687, -39.379541], [-72.648693, -39.378118], [-72.65454, -39.378841], [-72.656786, -39.378395], [-72.657655, -39.378798], [-72.658752, -39.381294], [-72.660895, -39.383773], [-72.663483, -39.38516], [-72.663799, -39.388722], [-72.666514, -39.39203], [-72.665538, -39.392988], [-72.663354, -39.39329], [-72.663193, -39.394584], [-72.675027, -39.396316], [-72.678031, -39.40028], [-72.678316, -39.403749], [-72.679136, -39.404914], [-72.683612, -39.40198], [-72.685815, -39.405478], [-72.687349, -39.406174], [-72.688401, -39.40602], [-72.688808, -39.404379], [-72.689957, -39.404106], [-72.690568, -39.40445], [-72.690938, -39.406261], [-72.693358, -39.405511], [-72.695262, -39.40573], [-72.697306, -39.406775], [-72.697815, -39.408466], [-72.700514, -39.408263], [-72.701501, -39.406597], [-72.70251, -39.406597], [-72.704199, -39.408491], [-72.704918, -39.411454], [-72.704338, -39.412308], [-72.702053, -39.412055], [-72.699843, -39.414861], [-72.699978, -39.415773], [-72.703754, -39.418475], [-72.704435, -39.417977], [-72.703818, -39.415814], [-72.704344, -39.41346], [-72.706318, -39.412963], [-72.708592, -39.414053], [-72.711843, -39.414442], [-72.712154, -39.415321], [-72.710041, -39.416834], [-72.710094, -39.419863], [-72.712659, -39.421736], [-72.715736, -39.422831], [-72.717267, -39.424509]], [[-72.514457, -39.377584], [-72.516334, -39.376276], [-72.517448, -39.377875], [-72.521647, -39.379781], [-72.526419, -39.379522], [-72.527958, -39.378502], [-72.529025, -39.379858], [-72.532477, -39.381304], [-72.538453, -39.379373]]]}}