{"type": "Feature", "properties": {"id": "rio-melado", "name": "Río Melado", "type": "river", "region": "maule"}, "geometry": {"type": "MultiLineString", "coordinates": [[[-70.919393, -36.083019], [-70.919529, -36.078028], [-70.925816, -36.074515], [-70.923503, -36.070784], [-70.924148, -36.068395], [-70.92609, -36.066986], [-70.930325, -36.066538], [-70.932514, -36.062665], [-70.93265, -36.059551], [-70.941758, -36.052906], [-70.944974, -36.04465], [-70.947164, -36.040698], [-70.945183, -36.035121], [-70.945877, -36.033379], [-70.945736, -36.028442], [-70.948682, -36.025225], [-70.949105, -36.021492], [-70.952447, -36.020073], [-70.953205, -36.018655], [-70.951053, -36.016194], [-70.950546, -36.013199], [-70.954024, -36.008305], [-70.952657, -36.004708], [-70.953322, -36.003766], [-70.955033, -36.003154], [-70.95572, -36.001739], [-70.958772, -35.998853], [-70.957576, -35.992933], [-70.958375, -35.991554], [-70.958382, -35.988403], [-70.959539, -35.986799], [-70.966051, -35.983837], [-70.969407, -35.979922], [-70.97584, -35.975266], [-70.981336, -35.968359], [-70.985332, -35.96585], [-70.988502, -35.962229], [-70.989474, -35.95877], [-70.989538, -35.949992], [-70.990922, -35.947117], [-70.99332, -35.945593], [-70.993816, -35.94457], [-70.993759, -35.942444], [-70.995233, -35.935958], [-70.997494, -35.934654], [-70.998132, -35.931612], [-70.999211, -35.930199], [-71.002437, -35.927423], [-71.005066, -35.92606], [-71.008373, -35.920336], [-71.008937, -35.915204], [-71.012312, -35.90873], [-71.011435, -35.905084], [-71.012389, -35.90133], [-71.011983, -35.897911], [-71.018758, -35.893967], [-71.019429, -35.885905], [-71.018736, -35.883192], [-71.019488, -35.881155], [-71.02328, -35.878656], [-71.025189, -35.874565], [-71.034264, -35.867984], [-71.040453, -35.862401], [-71.042502, -35.860056], [-71.043173, -35.858148], [-71.045969, -35.857097], [-71.048409, -35.857053], [-71.052173, -35.85541], [-71.056785, -35.855273], [-71.068747, -35.853134], [-71.07156, -35.851922], [-71.076613, -35.847955], [-71.076833, -35.846787], [-71.075277, -35.84233], [-71.076497, -35.839507], [-71.080529, -35.838378], [-71.082203, -35.837082], [-71.08231, -35.83547], [-71.082315, -35.834204], [-71.081004, -35.831947], [-71.081308, -35.829541], [-71.079746, -35.829387], [-71.078346, -35.826425], [-71.079898, -35.8161], [-71.078759, -35.812323], [-71.078988, -35.810995]], [[-71.087137, -35.756325], [-71.086505, -35.752703], [-71.084424, -35.749368], [-71.078346, -35.744836], [-71.078313, -35.740547], [-71.074945, -35.737673], [-71.073743, -35.735823], [-71.07341, -35.732356], [-71.074022, -35.729759], [-71.070818, -35.727916], [-71.068555, -35.722384], [-71.068716, -35.71784], [-71.069542, -35.716066], [-71.071227, -35.715366], [-71.074963, -35.716754], [-71.076136, -35.714424], [-71.075481, -35.712852], [-71.075822, -35.711977]], [[-71.078988, -35.810995], [-71.080347, -35.807386], [-71.076656, -35.803074], [-71.076109, -35.800603], [-71.074859, -35.798884], [-71.075513, -35.797436], [-71.075374, -35.795821], [-71.072552, -35.792963], [-71.07193, -35.791387], [-71.072488, -35.789716], [-71.076361, -35.786653], [-71.078882, -35.783511], [-71.081693, -35.773066], [-71.085963, -35.763778], [-71.086698, -35.758503]], [[-70.919393, -36.083019], [-70.919529, -36.078028], [-70.925816, -36.074515], [-70.923503, -36.070784], [-70.924148, -36.068395], [-70.92609, -36.066986], [-70.930325, -36.066538], [-70.932514, -36.062665], [-70.93265, -36.059551], [-70.941758, -36.052906], [-70.944974, -36.04465], [-70.947164, -36.040698], [-70.945183, -36.035121], [-70.945877, -36.033379], [-70.945736, -36.028442], [-70.948682, -36.025225], [-70.949105, -36.021492], [-70.952447, -36.020073], [-70.953205, -36.018655], [-70.951053, -36.016194], [-70.950546, -36.013199], [-70.954024, -36.008305], [-70.952657, -36.004708], [-70.953322, -36.003766], [-70.955033, -36.003154], [-70.95572, -36.001739], [-70.958772, -35.998853], [-70.957576, -35.992933], [-70.958375, -35.991554], [-70.958382, -35.988403], [-70.959539, -35.986799], [-70.966051, -35.983837], [-70.969407, -35.979922], [-70.97584, -35.975266], [-70.981336, -35.968359], [-70.985332, -35.96585], [-70.988502, -35.962229], [-70.989474, -35.95877], [-70.989538, -35.949992], [-70.990922, -35.947117], [-70.99332, -35.945593], [-70.993816, -35.94457], [-70.993759, -35.942444], [-70.995233, -35.935958], [-70.997494, -35.934654], [-70.998132, -35.931612], [-70.999211, -35.930199], [-71.002437, -35.927423], [-71.005066, -35.92606], [-71.008373, -35.920336], [-71.008937, -35.915204], [-71.012312, -35.90873], [-71.011435, -35.905084], [-71.012389, -35.90133], [-71.011983, -35.897911], [-71.018758, -35.893967], [-71.019429, -35.885905], [-71.018736, -35.883192], [-71.019488, -35.881155], [-71.02328, -35.878656], [-71.025189, -35.874565], [-71.034264, -35.867984], [-71.040453, -35.862401], [-71.042502, -35.860056], [-71.043173, -35.858148], [-71.045969, -35.857097], [-71.048409, -35.857053], [-71.052173, -35.85541], [-71.056785, -35.855273], [-71.068747, -35.853134], [-71.07156, -35.851922], [-71.076613, -35.847955], [-71.076833, -35.846787], [-71.075277, -35.84233], [-71.076497, -35.839507], [-71.080529, -35.838378], [-71.082203, -35.837082], [-71.08231, -35.83547], [-71.082315, -35.834204], [-71.081004, -35.831947], [-71.081308, -35.829541], [-71.079746, -35.829387], [-71.078346, -35.826425], [-71.079898, -35.8161], [-71.078759, -35.812323], [-71.078988, -35.810995]], [[-71.078988, -35.810995], [-71.080347, -35.807386], [-71.076656, -35.803074], [-71.076109, -35.800603], [-71.074859, -35.798884], [-71.075513, -35.797436], [-71.075374, -35.795821], [-71.072552, -35.792963], [-71.07193, -35.791387], [-71.072488, -35.789716], [-71.076361, -35.786653], [-71.078882, -35.783511], [-71.081693, -35.773066], [-71.085963, -35.763778], [-71.086698, -35.758503]], [[-70.919393, -36.083019], [-70.919529, -36.078028], [-70.925816, -36.074515], [-70.923503, -36.070784], [-70.924148, -36.068395], [-70.92609, -36.066986], [-70.930325, -36.066538], [-70.932514, -36.062665], [-70.93265, -36.059551], [-70.941758, -36.052906], [-70.944974, -36.04465], [-70.947164, -36.040698], [-70.945183, -36.035121], [-70.945877, -36.033379], [-70.945736, -36.028442], [-70.948682, -36.025225], [-70.949105, -36.021492], [-70.952447, -36.020073], [-70.953205, -36.018655], [-70.951053, -36.016194], [-70.950546, -36.013199], [-70.954024, -36.008305], [-70.952657, -36.004708], [-70.953322, -36.003766], [-70.955033, -36.003154], [-70.95572, -36.001739], [-70.958772, -35.998853], [-70.957576, -35.992933], [-70.958375, -35.991554], [-70.958382, -35.988403], [-70.959539, -35.986799], [-70.966051, -35.983837], [-70.969407, -35.979922], [-70.97584, -35.975266], [-70.981336, -35.968359], [-70.985332, -35.96585], [-70.988502, -35.962229], [-70.989474, -35.95877], [-70.989538, -35.949992], [-70.990922, -35.947117], [-70.99332, -35.945593], [-70.993816, -35.94457], [-70.993759, -35.942444], [-70.995233, -35.935958], [-70.997494, -35.934654], [-70.998132, -35.931612], [-70.999211, -35.930199], [-71.002437, -35.927423], [-71.005066, -35.92606], [-71.008373, -35.920336], [-71.008937, -35.915204], [-71.012312, -35.90873], [-71.011435, -35.905084], [-71.012389, -35.90133], [-71.011983, -35.897911], [-71.018758, -35.893967], [-71.019429, -35.885905], [-71.018736, -35.883192], [-71.019488, -35.881155], [-71.02328, -35.878656], [-71.025189, -35.874565], [-71.034264, -35.867984], [-71.040453, -35.862401], [-71.042502, -35.860056], [-71.043173, -35.858148], [-71.045969, -35.857097], [-71.048409, -35.857053], [-71.052173, -35.85541], [-71.056785, -35.855273], [-71.068747, -35.853134], [-71.07156, -35.851922], [-71.076613, -35.847955], [-71.076833, -35.846787], [-71.075277, -35.84233], [-71.076497, -35.839507], [-71.080529, -35.838378], [-71.082203, -35.837082], [-71.08231, -35.83547], [-71.082315, -35.834204], [-71.081004, -35.831947], [-71.081308, -35.829541], [-71.079746, -35.829387], [-71.078346, -35.826425], [-71.079898, -35.8161], [-71.078759, -35.812323], [-71.078988, -35.810995]], [[-71.087137, -35.756325], [-71.086505, -35.752703], [-71.084424, -35.749368], [-71.078346, -35.744836], [-71.078313, -35.740547], [-71.074945, -35.737673], [-71.073743, -35.735823], [-71.07341, -35.732356], [-71.074022, -35.729759], [-71.070818, -35.727916], [-71.068555, -35.722384], [-71.068716, -35.71784], [-71.069542, -35.716066], [-71.071227, -35.715366], [-71.074963, -35.716754], [-71.076136, -35.714424], [-71.075481, -35.712852], [-71.075822, -35.711977]], [[-71.08678, -35.758148], [-71.087137, -35.756325]], [[-71.086698, -35.758503], [-71.08678, -35.758148]]]}}