{"type": "Feature", "properties": {"id": "rio-allipen", "name": "Río Allipén", "type": "river", "region": "araucania"}, "geometry": {"type": "MultiLineString", "coordinates": [[[-71.671909, -38.852258], [-71.673902, -38.855149], [-71.678083, -38.857703], [-71.683151, -38.858457], [-71.687509, -38.861448], [-71.693057, -38.862107], [-71.699317, -38.863891], [-71.705777, -38.864268], [-71.710645, -38.865878], [-71.717894, -38.86524], [-71.721842, -38.862099], [-71.724419, -38.86168], [-71.726782, -38.863241], [-71.729401, -38.863385], [-71.736916, -38.867125], [-71.739619, -38.867596], [-71.745799, -38.866916], [-71.748445, -38.865496], [-71.751569, -38.86692], [-71.756135, -38.864365], [-71.760655, -38.864444], [-71.76465, -38.865505], [-71.77022, -38.86313], [-71.773935, -38.864645], [-71.778097, -38.864335], [-71.781696, -38.861599], [-71.783375, -38.862835], [-71.785135, -38.862865], [-71.786583, -38.860784], [-71.790665, -38.858875], [-71.796652, -38.859494], [-71.799742, -38.858917], [-71.803374, -38.860872], [-71.806501, -38.861185], [-71.810192, -38.858896], [-71.811383, -38.859005], [-71.817407, -38.860555], [-71.820792, -38.863679], [-71.823936, -38.863996], [-71.826081, -38.865421], [-71.829638, -38.865721], [-71.831929, -38.866995], [-71.834149, -38.867179], [-71.837872, -38.870429], [-71.840699, -38.871698], [-71.843253, -38.874355], [-71.847716, -38.874317], [-71.849443, -38.877119], [-71.851412, -38.877641], [-71.852453, -38.882869]], [[-71.852453, -38.882869], [-71.859534, -38.887534], [-71.866803, -38.889354], [-71.870595, -38.888548], [-71.875874, -38.889889], [-71.876914, -38.890849], [-71.876872, -38.892285], [-71.878352, -38.893404], [-71.883856, -38.894933], [-71.885481, -38.897095], [-71.890749, -38.899917], [-71.892171, -38.900026], [-71.894215, -38.898736], [-71.895384, -38.899062], [-71.896586, -38.90046], [-71.897798, -38.906058], [-71.899762, -38.90729], [-71.900352, -38.90853], [-71.900786, -38.910546], [-71.899874, -38.913768], [-71.900185, -38.914503], [-71.90526, -38.915296], [-71.913333, -38.913242], [-71.916364, -38.913568], [-71.91696, -38.915095], [-71.916193, -38.91684], [-71.909165, -38.918881], [-71.908784, -38.924236], [-71.910469, -38.926331], [-71.913403, -38.927103], [-71.916568, -38.926719], [-71.921337, -38.92361], [-71.923236, -38.923468], [-71.924733, -38.924282], [-71.925178, -38.925246], [-71.924642, -38.927599], [-71.920237, -38.934331], [-71.91843, -38.94026], [-71.920399, -38.941753], [-71.925645, -38.94331], [-71.929041, -38.946781], [-71.933879, -38.947444], [-71.937141, -38.950815], [-71.938621, -38.950811], [-71.940456, -38.949697], [-71.940815, -38.948145], [-71.94419, -38.942667], [-71.946722, -38.942091], [-71.948572, -38.94079], [-71.952816, -38.941161], [-71.955026, -38.942976], [-71.95524, -38.951462], [-71.957724, -38.951654], [-71.962064, -38.949009], [-71.964161, -38.950098], [-71.965626, -38.952154], [-71.961324, -38.957523], [-71.96075, -38.959784], [-71.961125, -38.96089], [-71.969241, -38.963105], [-71.969349, -38.965966], [-71.97018, -38.966904], [-71.973667, -38.966083], [-71.977674, -38.966066], [-71.982395, -38.971], [-71.988682, -38.971017], [-71.989551, -38.972347], [-71.988344, -38.976034], [-71.989127, -38.977326], [-71.990656, -38.977506], [-71.991938, -38.97673], [-71.992539, -38.975337], [-71.992689, -38.971221], [-71.995495, -38.969607], [-71.997314, -38.970862], [-71.996761, -38.973202], [-71.998393, -38.97516], [-71.999964, -38.97603], [-72.004378, -38.976526], [-72.006197, -38.979366], [-72.012581, -38.97756], [-72.013562, -38.977635], [-72.014115, -38.978669], [-72.015783, -38.978928], [-72.019839, -38.976442], [-72.024608, -38.977914]], [[-72.025171, -38.973948], [-72.027558, -38.968351], [-72.028132, -38.964214], [-72.029961, -38.963067], [-72.032477, -38.963939], [-72.032778, -38.965991], [-72.033738, -38.967434], [-72.037418, -38.969107], [-72.03892, -38.969102], [-72.039569, -38.967667], [-72.041827, -38.965983], [-72.045679, -38.966032], [-72.04643, -38.966683], [-72.047948, -38.971117], [-72.049938, -38.970975], [-72.05107, -38.969207], [-72.056027, -38.966258], [-72.056269, -38.964664], [-72.054852, -38.962266], [-72.054096, -38.95875], [-72.054412, -38.957152], [-72.056371, -38.95544]], [[-71.91917, -38.941128], [-71.923118, -38.94487], [-71.923714, -38.946514], [-71.925752, -38.946706], [-71.92726, -38.947778], [-71.92955, -38.946923]], [[-72.004652, -38.976709], [-72.007071, -38.97927]], [[-71.997314, -38.970862], [-71.998393, -38.97516]], [[-71.992604, -38.974849], [-71.993773, -38.970333], [-71.995356, -38.97085], [-71.996766, -38.97231]], [[-72.056371, -38.95544], [-72.063119, -38.952033], [-72.06622, -38.951812], [-72.069626, -38.953068], [-72.078901, -38.951191], [-72.079684, -38.949572], [-72.077206, -38.946431], [-72.078574, -38.943898], [-72.086272, -38.94525], [-72.093905, -38.947716], [-72.097778, -38.946356], [-72.099254, -38.948934], [-72.101684, -38.94777], [-72.105052, -38.948037], [-72.107987, -38.948905], [-72.111329, -38.95088], [-72.113216, -38.950207], [-72.114414, -38.950681], [-72.124114, -38.949774], [-72.128651, -38.949968], [-72.130757, -38.950904], [-72.130287, -38.953268], [-72.130694, -38.953702], [-72.136611, -38.953994], [-72.143623, -38.956814], [-72.147943, -38.957417], [-72.156545, -38.957535], [-72.159137, -38.956051], [-72.161534, -38.953102], [-72.162763, -38.952626], [-72.164125, -38.952809], [-72.166765, -38.954524], [-72.17008, -38.953181], [-72.178487, -38.95413], [-72.181743, -38.956475], [-72.183139, -38.960833], [-72.186506, -38.961773], [-72.188446, -38.963976], [-72.189308, -38.969136], [-72.191065, -38.969985], [-72.193885, -38.970258], [-72.199114, -38.973385], [-72.199917, -38.975016], [-72.19982, -38.977026], [-72.201344, -38.979804], [-72.205603, -38.981664], [-72.209757, -38.986172], [-72.209916, -38.988127], [-72.207899, -38.99022], [-72.210689, -38.991337], [-72.213693, -38.994197], [-72.217019, -38.993997], [-72.218446, -38.994731], [-72.219872, -38.99815], [-72.224219, -39.001339], [-72.22557, -39.004025], [-72.228455, -39.0057], [-72.231197, -39.012465], [-72.238546, -39.013599], [-72.241126, -39.016374], [-72.243889, -39.017287], [-72.244377, -39.017967], [-72.24405, -39.019567], [-72.246786, -39.022072], [-72.24832, -39.025331], [-72.2506, -39.027152], [-72.258132, -39.030336], [-72.261243, -39.032794], [-72.265631, -39.033578], [-72.269826, -39.032378], [-72.273002, -39.03347], [-72.276016, -39.032036], [-72.279965, -39.032403], [-72.283495, -39.033578], [-72.283674, -39.036053], [-72.285619, -39.035445], [-72.291434, -39.031111], [-72.300516, -39.032115]], [[-72.024608, -38.977914], [-72.025187, -38.977527], [-72.024055, -38.976338], [-72.025171, -38.973948]], [[-72.300516, -39.032115], [-72.304523, -39.030878], [-72.315327, -39.03074], [-72.316416, -39.028165], [-72.326775, -39.022055], [-72.337294, -39.018067], [-72.339338, -39.014824], [-72.340003, -39.009343], [-72.34901, -39.008242], [-72.353049, -39.008893], [-72.355099, -39.00715], [-72.3549, -39.004491], [-72.356155, -39.003461], [-72.35851, -39.003444], [-72.361445, -39.004345], [-72.367024, -39.00043], [-72.368789, -39.000193], [-72.371927, -39.001135], [-72.380226, -38.998071], [-72.3862, -38.999489], [-72.39042, -38.999585], [-72.395943, -38.998308], [-72.400439, -38.999405], [-72.402901, -38.998475], [-72.401587, -38.996728], [-72.401729, -38.995846], [-72.404722, -38.994804], [-72.409526, -38.994406], [-72.414472, -38.995519], [-72.42048, -38.993184], [-72.422765, -38.993864], [-72.424434, -38.996511], [-72.426263, -38.997228], [-72.427717, -38.996928], [-72.429187, -38.994889], [-72.430388, -38.994373], [-72.435383, -38.996799], [-72.439406, -39.000068], [-72.444953, -39.000618], [-72.446852, -39.001301], [-72.448322, -39.002894], [-72.451669, -39.002769], [-72.45743, -39.004528], [-72.460359, -39.004036], [-72.462419, -39.004703], [-72.467711, -39.004447], [-72.472231, -39.008172], [-72.47443, -39.007963], [-72.476587, -39.006892], [-72.478539, -39.007113], [-72.478781, -39.008271], [-72.477767, -39.009747], [-72.479623, -39.011152], [-72.485127, -39.010177], [-72.487621, -39.00888], [-72.4901, -39.00931], [-72.496526, -39.013157], [-72.496921, -39.014216], [-72.499739, -39.015533], [-72.504425, -39.015878], [-72.507169, -39.014136], [-72.513081, -39.014974], [-72.517582, -39.013382], [-72.522452, -39.013953]], [[-71.852453, -38.882869], [-71.859534, -38.887534], [-71.866803, -38.889354], [-71.870595, -38.888548], [-71.875874, -38.889889], [-71.876914, -38.890849], [-71.876872, -38.892285], [-71.878352, -38.893404], [-71.883856, -38.894933], [-71.885481, -38.897095], [-71.890749, -38.899917], [-71.892171, -38.900026], [-71.894215, -38.898736], [-71.895384, -38.899062], [-71.896586, -38.90046], [-71.897798, -38.906058], [-71.899762, -38.90729], [-71.900352, -38.90853], [-71.900786, -38.910546], [-71.899874, -38.913768], [-71.900185, -38.914503], [-71.90526, -38.915296], [-71.913333, -38.913242], [-71.916364, -38.913568], [-71.91696, -38.915095], [-71.916193, -38.91684], [-71.909165, -38.918881], [-71.908784, -38.924236], [-71.910469, -38.926331], [-71.913403, -38.927103], [-71.916568, -38.926719], [-71.921337, -38.92361], [-71.923236, -38.923468], [-71.924733, -38.924282], [-71.925178, -38.925246], [-71.924642, -38.927599], [-71.920237, -38.934331], [-71.91843, -38.94026], [-71.920399, -38.941753], [-71.925645, -38.94331], [-71.929041, -38.946781], [-71.933879, -38.947444], [-71.937141, -38.950815], [-71.938621, -38.950811], [-71.940456, -38.949697], [-71.940815, -38.948145], [-71.94419, -38.942667], [-71.946722, -38.942091], [-71.948572, -38.94079], [-71.952816, -38.941161], [-71.955026, -38.942976], [-71.95524, -38.951462], [-71.957724, -38.951654], [-71.962064, -38.949009], [-71.964161, -38.950098], [-71.965626, -38.952154], [-71.961324, -38.957523], [-71.96075, -38.959784], [-71.961125, -38.96089], [-71.969241, -38.963105], [-71.969349, -38.965966], [-71.97018, -38.966904], [-71.973667, -38.966083], [-71.977674, -38.966066], [-71.982395, -38.971], [-71.988682, -38.971017], [-71.989551, -38.972347], [-71.988344, -38.976034], [-71.989127, -38.977326], [-71.990656, -38.977506], [-71.991938, -38.97673], [-71.992539, -38.975337], [-71.992689, -38.971221], [-71.995495, -38.969607], [-71.997314, -38.970862], [-71.996761, -38.973202], [-71.998393, -38.97516], [-71.999964, -38.97603], [-72.004378, -38.976526], [-72.006197, -38.979366], [-72.012581, -38.97756], [-72.013562, -38.977635], [-72.014115, -38.978669], [-72.015783, -38.978928], [-72.019839, -38.976442], [-72.024608, -38.977914]], [[-72.024608, -38.977914], [-72.025187, -38.977527], [-72.024055, -38.976338], [-72.025171, -38.973948]], [[-72.025171, -38.973948], [-72.027558, -38.968351], [-72.028132, -38.964214], [-72.029961, -38.963067], [-72.032477, -38.963939], [-72.032778, -38.965991], [-72.033738, -38.967434], [-72.037418, -38.969107], [-72.03892, -38.969102], [-72.039569, -38.967667], [-72.041827, -38.965983], [-72.045679, -38.966032], [-72.04643, -38.966683], [-72.047948, -38.971117], [-72.049938, -38.970975], [-72.05107, -38.969207], [-72.056027, -38.966258], [-72.056269, -38.964664], [-72.054852, -38.962266], [-72.054096, -38.95875], [-72.054412, -38.957152], [-72.056371, -38.95544]], [[-72.056371, -38.95544], [-72.063119, -38.952033], [-72.06622, -38.951812], [-72.069626, -38.953068], [-72.078901, -38.951191], [-72.079684, -38.949572], [-72.077206, -38.946431], [-72.078574, -38.943898], [-72.086272, -38.94525], [-72.093905, -38.947716], [-72.097778, -38.946356], [-72.099254, -38.948934], [-72.101684, -38.94777], [-72.105052, -38.948037], [-72.107987, -38.948905], [-72.111329, -38.95088], [-72.113216, -38.950207], [-72.114414, -38.950681], [-72.124114, -38.949774], [-72.128651, -38.949968], [-72.130757, -38.950904], [-72.130287, -38.953268], [-72.130694, -38.953702], [-72.136611, -38.953994], [-72.143623, -38.956814], [-72.147943, -38.957417], [-72.156545, -38.957535], [-72.159137, -38.956051], [-72.161534, -38.953102], [-72.162763, -38.952626], [-72.164125, -38.952809], [-72.166765, -38.954524], [-72.17008, -38.953181], [-72.178487, -38.95413], [-72.181743, -38.956475], [-72.183139, -38.960833], [-72.186506, -38.961773], [-72.188446, -38.963976], [-72.189308, -38.969136], [-72.191065, -38.969985], [-72.193885, -38.970258], [-72.199114, -38.973385], [-72.199917, -38.975016], [-72.19982, -38.977026], [-72.201344, -38.979804], [-72.205603, -38.981664], [-72.209757, -38.986172], [-72.209916, -38.988127], [-72.207899, -38.99022], [-72.210689, -38.991337], [-72.213693, -38.994197], [-72.217019, -38.993997], [-72.218446, -38.994731], [-72.219872, -38.99815], [-72.224219, -39.001339], [-72.22557, -39.004025], [-72.228455, -39.0057], [-72.231197, -39.012465], [-72.238546, -39.013599], [-72.241126, -39.016374], [-72.243889, -39.017287], [-72.244377, -39.017967], [-72.24405, -39.019567], [-72.246786, -39.022072], [-72.24832, -39.025331], [-72.2506, -39.027152], [-72.258132, -39.030336], [-72.261243, -39.032794], [-72.265631, -39.033578], [-72.269826, -39.032378], [-72.273002, -39.03347], [-72.276016, -39.032036], [-72.279965, -39.032403], [-72.283495, -39.033578], [-72.283674, -39.036053], [-72.285619, -39.035445], [-72.291434, -39.031111], [-72.300516, -39.032115]], [[-72.300516, -39.032115], [-72.304523, -39.030878], [-72.315327, -39.03074], [-72.316416, -39.028165], [-72.326775, -39.022055], [-72.337294, -39.018067], [-72.339338, -39.014824], [-72.340003, -39.009343], [-72.34901, -39.008242], [-72.353049, -39.008893], [-72.355099, -39.00715], [-72.3549, -39.004491], [-72.356155, -39.003461], [-72.35851, -39.003444], [-72.361445, -39.004345], [-72.367024, -39.00043], [-72.368789, -39.000193], [-72.371927, -39.001135], [-72.380226, -38.998071], [-72.3862, -38.999489], [-72.39042, -38.999585], [-72.395943, -38.998308], [-72.400439, -38.999405], [-72.402901, -38.998475], [-72.401587, -38.996728], [-72.401729, -38.995846], [-72.404722, -38.994804], [-72.409526, -38.994406], [-72.414472, -38.995519], [-72.42048, -38.993184], [-72.422765, -38.993864], [-72.424434, -38.996511], [-72.426263, -38.997228], [-72.427717, -38.996928], [-72.429187, -38.994889], [-72.430388, -38.994373], [-72.435383, -38.996799], [-72.439406, -39.000068], [-72.444953, -39.000618], [-72.446852, -39.001301], [-72.448322, -39.002894], [-72.451669, -39.002769], [-72.45743, -39.004528], [-72.460359, -39.004036], [-72.462419, -39.004703], [-72.467711, -39.004447], [-72.472231, -39.008172], [-72.47443, -39.007963], [-72.476587, -39.006892], [-72.478539, -39.007113], [-72.478781, -39.008271], [-72.477767, -39.009747], [-72.479623, -39.011152], [-72.485127, -39.010177], [-72.487621, -39.00888], [-72.4901, -39.00931], [-72.496526, -39.013157], [-72.496921, -39.014216], [-72.499739, -39.015533], [-72.504425, -39.015878], [-72.507169, -39.014136], [-72.513081, -39.014974], [-72.517582, -39.013382], [-72.522452, -39.013953]], [[-71.671909, -38.852258], [-71.673902, -38.855149], [-71.678083, -38.857703], [-71.683151, -38.858457], [-71.687509, -38.861448], [-71.693057, -38.862107], [-71.699317, -38.863891], [-71.705777, -38.864268], [-71.710645, -38.865878], [-71.717894, -38.86524], [-71.721842, -38.862099], [-71.724419, -38.86168], [-71.726782, -38.863241], [-71.729401, -38.863385], [-71.736916, -38.867125], [-71.739619, -38.867596], [-71.745799, -38.866916], [-71.748445, -38.865496], [-71.751569, -38.86692], [-71.756135, -38.864365], [-71.760655, -38.864444], [-71.76465, -38.865505], [-71.77022, -38.86313], [-71.773935, -38.864645], [-71.778097, -38.864335], [-71.781696, -38.861599], [-71.783375, -38.862835], [-71.785135, -38.862865], [-71.786583, -38.860784], [-71.790665, -38.858875], [-71.796652, -38.859494], [-71.799742, -38.858917], [-71.803374, -38.860872], [-71.806501, -38.861185], [-71.810192, -38.858896], [-71.811383, -38.859005], [-71.817407, -38.860555], [-71.820792, -38.863679], [-71.823936, -38.863996], [-71.826081, -38.865421], [-71.829638, -38.865721], [-71.831929, -38.866995], [-71.834149, -38.867179], [-71.837872, -38.870429], [-71.840699, -38.871698], [-71.843253, -38.874355], [-71.847716, -38.874317], [-71.849443, -38.877119], [-71.851412, -38.877641], [-71.852453, -38.882869]]]}}